,zip,lat,lng,city,state_id,state_name,county_name,Average Temperature (Kelvin),Average Air Pressure (hPa),Average Humidity (%),Average Daily Precipitation (mm)
0,1001,42.06259,-72.62589,Agawam,MA,Massachusetts,Hampden,270.80499999999995,1016.1225,72.215,0.125
1,1002,42.37492,-72.4621,Amherst,MA,Massachusetts,Hampshire,270.80499999999995,1016.1225,72.215,0.125
2,1005,42.42017,-72.10615,Barre,MA,Massachusetts,Worcester,270.72499999999997,1014.9599999999999,71.7525,0.135
3,1029,42.19632,-73.04836,East Otis,MA,Massachusetts,Berkshire,270.80499999999995,1016.1225,72.215,0.125
4,1054,42.47363,-72.48746,Leverett,MA,Massachusetts,Franklin,270.80499999999995,1016.1225,72.215,0.125
5,1431,42.67652,-71.82321999999998,Ashby,MA,Massachusetts,Middlesex,270.665,1016.7149999999999,69.785,0.1325
6,1810,42.64655,-71.16505,Andover,MA,Massachusetts,Essex,270.665,1016.7149999999999,69.785,0.1325
7,2019,42.07774000000001,-71.47409,Bellingham,MA,Massachusetts,Norfolk,272.165,1016.14,71.2475,0.135
8,2043,42.21678,-70.88499,Hingham,MA,Massachusetts,Plymouth,271.775,1016.0350000000001,69.2525,0.135
9,2048,42.01626,-71.21868,Mansfield,MA,Massachusetts,Bristol,272.165,1016.14,71.2475,0.135
10,2108,42.35767,-71.06505,Boston,MA,Massachusetts,Suffolk,271.7475,1016.0925000000001,69.655,0.135
11,2532,41.75162,-70.59728,Buzzards Bay,MA,Massachusetts,Barnstable,272.165,1016.14,71.2475,0.135
12,2535,41.34896,-70.74629,Chilmark,MA,Massachusetts,Dukes,272.165,1016.14,71.2475,0.135
13,2554,41.28538,-70.07982,Nantucket,MA,Massachusetts,Nantucket,272.165,1016.14,71.2475,0.135
14,2802,41.95195,-71.45534,Albion,RI,Rhode Island,Providence,272.165,1016.14,71.2475,0.135
15,2804,41.43188,-71.77235999999998,Ashaway,RI,Rhode Island,Washington,272.165,1016.14,71.2475,0.135
16,2816,41.69086,-71.61976999999997,Coventry,RI,Rhode Island,Kent,272.165,1016.14,71.2475,0.135
17,2835,41.51497,-71.3771,Jamestown,RI,Rhode Island,Newport,272.165,1016.14,71.2475,0.135
18,3031,42.87036,-71.6079,Amherst,NH,New Hampshire,Hillsborough,269.73749999999995,1015.325,69.2625,0.0975
19,3032,42.9906,-71.34379,Auburn,NH,New Hampshire,Rockingham,269.73749999999995,1015.325,69.2625,0.0975
20,3046,43.10184,-71.60561,Dunbarton,NH,New Hampshire,Merrimack,269.73749999999995,1015.325,69.2625,0.0975
21,3215,43.9453,-71.45281999999997,Waterville Valley,NH,New Hampshire,Grafton,269.73749999999995,1015.325,69.2625,0.0975
22,3218,43.33463,-71.28921,Barnstead,NH,New Hampshire,Belknap,269.73749999999995,1015.325,69.2625,0.0975
23,3227,43.82774000000001,-71.4678,Center Sandwich,NH,New Hampshire,Carroll,269.73749999999995,1015.325,69.2625,0.0975
24,3280,43.18298,-72.08925,Washington,NH,New Hampshire,Sullivan,269.73749999999995,1015.325,69.2625,0.0975
25,3431,42.96265,-72.29556,Keene,NH,New Hampshire,Cheshire,269.73749999999995,1015.325,69.2625,0.0975
26,3570,44.49905,-71.15716,Berlin,NH,New Hampshire,Coos,266.0575,1011.095,80.585,0.02
27,3820,43.18879,-70.88678,Dover,NH,New Hampshire,Strafford,269.73749999999995,1015.325,69.2625,0.0975
28,3901,43.30056,-70.84329,Berwick,ME,Maine,York,269.73749999999995,1015.325,69.2625,0.0975
29,4003,43.73158,-69.98824,Bailey Island,ME,Maine,Cumberland,269.73749999999995,1015.325,69.2625,0.0975
30,4008,44.03716,-69.86206999999999,Bowdoinham,ME,Maine,Sagadahoc,269.73749999999995,1015.325,69.2625,0.0975
31,4010,43.93305,-70.91671,Brownfield,ME,Maine,Oxford,269.73749999999995,1015.325,69.2625,0.0975
32,4210,44.0849,-70.24922,Auburn,ME,Maine,Androscoggin,269.73749999999995,1015.325,69.2625,0.0975
33,4259,44.22836,-70.00856,Monmouth,ME,Maine,Kennebec,269.73749999999995,1015.325,69.2625,0.0975
34,4342,44.07942,-69.73938000000001,Dresden,ME,Maine,Lincoln,269.73749999999995,1015.325,69.2625,0.0975
35,4354,44.39603,-69.42707,Palermo,ME,Maine,Waldo,266.0575,1011.095,80.585,0.02
36,4401,44.84923,-68.84479,Bangor,ME,Maine,Penobscot,266.0575,1011.095,80.585,0.02
37,4406,45.23454,-69.56989,Abbot,ME,Maine,Piscataquis,266.0575,1011.095,80.585,0.02
38,4408,44.99135,-68.23071999999999,Aurora,ME,Maine,Hancock,266.0575,1011.095,80.585,0.02
39,4471,45.89108,-67.84714,Orient,ME,Maine,Aroostook,263.44,1011.9200000000001,79.365,0.037500000000000006
40,4478,45.86407,-69.87680999999999,Rockwood,ME,Maine,Somerset,263.44,1011.9200000000001,79.365,0.037500000000000006
41,4547,43.99388,-69.32779000000001,Friendship,ME,Maine,Knox,269.73749999999995,1015.325,69.2625,0.0975
42,5001,43.67222,-72.38133,White River Junction,VT,Vermont,Windsor,269.73749999999995,1015.325,69.2625,0.0975
43,5033,44.00888,-72.15799,Bradford,VT,Vermont,Orange,269.73749999999995,1015.325,69.2625,0.0975
44,5042,44.22756,-72.09962,East Ryegate,VT,Vermont,Caledonia,266.0575,1011.095,80.585,0.02
45,5101,43.17899,-72.49454,Bellows Falls,VT,Vermont,Windham,269.73749999999995,1015.325,69.2625,0.0975
46,5152,43.25358,-72.9153,Peru,VT,Vermont,Bennington,269.73749999999995,1015.325,69.2625,0.0975
47,5401,44.47629000000001,-73.20997,Burlington,VT,Vermont,Chittenden,266.29,1015.5625,78.6725,0.060000000000000005
48,5440,44.95953,-73.27951999999998,Alburgh,VT,Vermont,Grand Isle,266.29,1015.5625,78.6725,0.060000000000000005
49,5442,44.75855,-72.67678000000002,Belvidere Center,VT,Vermont,Lamoille,266.0575,1011.095,80.585,0.02
50,5443,44.13347,-73.03668,Bristol,VT,Vermont,Addison,266.29,1015.5625,78.6725,0.060000000000000005
51,5701,43.62458,-72.90981,Rutland,VT,Vermont,Rutland,269.73749999999995,1015.325,69.2625,0.0975
52,5820,44.73871,-72.34482,Albany,VT,Vermont,Orleans,266.0575,1011.095,80.585,0.02
53,6001,41.7907,-72.85385,Avon,CT,Connecticut,Hartford,271.45750000000004,1016.4925,68.815,0.125
54,6018,42.02648,-73.30872,Canaan,CT,Connecticut,Litchfield,271.985,1015.9549999999999,70.4275,0.14
55,6029,41.91503,-72.44946999999998,Ellington,CT,Connecticut,Tolland,270.80499999999995,1016.1225,72.215,0.125
56,6249,41.63128,-72.2402,Lebanon,CT,Connecticut,New London,271.45750000000004,1016.4925,68.815,0.125
57,6401,41.34424,-73.0689,Ansonia,CT,Connecticut,New Haven,272.74749999999995,1016.8375,70.14250000000001,0.14
58,6468,41.33786,-73.22506,Monroe,CT,Connecticut,Fairfield,273.0875,1016.075,68.92750000000001,0.14750000000000002
59,7002,40.66464000000001,-74.10866999999998,Bayonne,NJ,New Jersey,Hudson,274.0175,1017.425,68.3475,0.15000000000000002
60,7005,40.92947,-74.421,Boonton,NJ,New Jersey,Morris,273.39250000000004,1015.7974999999999,70.15,0.14750000000000002
61,7010,40.82211,-73.98794000000002,Cliffside Park,NJ,New Jersey,Bergen,273.9575,1017.4499999999999,67.8775,0.14750000000000002
62,7011,40.87848,-74.14478000000003,Clifton,NJ,New Jersey,Passaic,273.39250000000004,1015.7974999999999,70.15,0.14750000000000002
63,7016,40.65643,-74.30357,Cranford,NJ,New Jersey,Union,273.8575,1017.0774999999999,67.77250000000001,0.15000000000000002
64,7416,41.11589,-74.59775,Franklin,NJ,New Jersey,Sussex,273.39250000000004,1015.7974999999999,70.15,0.14750000000000002
65,7701,40.36144,-74.07745,Red Bank,NJ,New Jersey,Monmouth,273.805,1017.4075,69.49000000000001,0.155
66,7820,40.92708,-74.81142,Allamuchy,NJ,New Jersey,Warren,273.39250000000004,1015.7974999999999,70.15,0.14750000000000002
67,7830,40.72104,-74.80747,Califon,NJ,New Jersey,Hunterdon,273.805,1017.4075,69.49000000000001,0.155
68,8001,39.55073,-75.34976999999998,Alloway,NJ,New Jersey,Salem,274.0775,1018.5825,70.28750000000001,0.15
69,8002,39.93133,-75.02539,Cherry Hill,NJ,New Jersey,Camden,274.0775,1018.5825,70.28750000000001,0.15
70,8005,39.76366,-74.3153,Barnegat,NJ,New Jersey,Ocean,274.0775,1018.5825,70.28750000000001,0.15
71,8010,40.05333,-74.91419,Beverly,NJ,New Jersey,Burlington,274.0775,1018.5825,70.28750000000001,0.15
72,8014,39.81795,-75.35809,Bridgeport,NJ,New Jersey,Gloucester,274.0775,1018.5825,70.28750000000001,0.15
73,8037,39.63800000000001,-74.77275,Hammonton,NJ,New Jersey,Atlantic,274.0775,1018.5825,70.28750000000001,0.15
74,8202,39.10018,-74.73873,Avalon,NJ,New Jersey,Cape May,274.0775,1018.5825,70.28750000000001,0.15
75,8512,40.32022,-74.52660999999998,Cranbury,NJ,New Jersey,Mercer,273.805,1017.4075,69.49000000000001,0.155
76,10001,40.75065,-73.99718,New York,NY,New York,New York,273.7775,1017.2824999999999,66.38,0.1125
77,10301,40.62846,-74.0962,Staten Island,NY,New York,Richmond,273.8575,1017.0774999999999,67.77250000000001,0.15000000000000002
78,10451,40.82077,-73.92387,Bronx,NY,New York,Bronx,273.9575,1017.4499999999999,67.8775,0.14750000000000002
79,10501,41.29448,-73.76075,Amawalk,NY,New York,Westchester,273.055,1016.655,70.35,0.135
80,10509,41.41174,-73.59437,Brewster,NY,New York,Putnam,273.055,1016.655,70.35,0.135
81,10901,41.13876,-74.11615,Suffern,NY,New York,Rockland,273.39250000000004,1015.7974999999999,70.15,0.14750000000000002
82,11001,40.72353,-73.70456999999998,Floral Park,NY,New York,Nassau,274.2525,1017.13,70.66,0.14500000000000002
83,11004,40.74628,-73.71148000000002,Glen Oaks,NY,New York,Queens,274.2525,1017.13,70.66,0.14500000000000002
84,11201,40.69463,-73.98971999999998,Brooklyn,NY,New York,Kings,273.7775,1017.2824999999999,66.38,0.1125
85,12007,42.45616,-73.92765,Alcove,NY,New York,Albany,270.80499999999995,1016.1225,72.215,0.125
86,12008,42.85301,-73.90799,Alplaus,NY,New York,Schenectady,270.80499999999995,1016.1225,72.215,0.125
87,12010,42.93797,-74.17385999999998,Amsterdam,NY,New York,Montgomery,270.80499999999995,1016.1225,72.215,0.125
88,12015,42.28262,-73.8272,Athens,NY,New York,Greene,271.985,1015.9549999999999,70.4275,0.14
89,12017,42.32118,-73.46216,Austerlitz,NY,New York,Columbia,270.80499999999995,1016.1225,72.215,0.125
90,12018,42.62952,-73.52591,Averill Park,NY,New York,Rensselaer,270.80499999999995,1016.1225,72.215,0.125
91,12019,42.93075,-73.88635,Ballston Lake,NY,New York,Saratoga,270.80499999999995,1016.1225,72.215,0.125
92,12025,43.0833,-74.13600000000002,Broadalbin,NY,New York,Fulton,269.9725,1015.9375,78.4025,0.10500000000000001
93,12031,42.76477,-74.4569,Carlisle,NY,New York,Schoharie,269.9725,1015.9375,78.4025,0.10500000000000001
94,12064,42.61434000000001,-74.65729,East Worcester,NY,New York,Otsego,269.9725,1015.9375,78.4025,0.10500000000000001
95,12108,43.57407,-74.44934,Lake Pleasant,NY,New York,Hamilton,269.9725,1015.9375,78.4025,0.10500000000000001
96,12167,42.42076,-74.58407,Stamford,NY,New York,Delaware,269.9725,1015.9375,78.4025,0.10500000000000001
97,12401,41.93558,-74.05278,Kingston,NY,New York,Ulster,271.985,1015.9549999999999,70.4275,0.14
98,12501,41.85964,-73.55856999999997,Amenia,NY,New York,Dutchess,271.985,1015.9549999999999,70.4275,0.14
99,12901,44.70382,-73.47381999999998,Plattsburgh,NY,New York,Clinton,266.29,1015.5625,78.6725,0.060000000000000005
100,12922,44.28808,-74.71793000000002,Childwold,NY,New York,St. Lawrence,270.2325,1015.0600000000001,78.1,0.08249999999999999
101,13020,42.81647,-76.07455,Apulia Station,NY,New York,Onondaga,269.9725,1015.9375,78.4025,0.10500000000000001
102,13021,42.92379,-76.55886,Auburn,NY,New York,Cayuga,269.9725,1015.9375,78.4025,0.10500000000000001
103,13028,43.2969,-75.93471,Bernhards Bay,NY,New York,Oswego,269.9725,1015.9375,78.4025,0.10500000000000001
104,13030,43.15504,-75.96070999999998,Bridgeport,NY,New York,Madison,269.9725,1015.9375,78.4025,0.10500000000000001
105,13040,42.56139,-75.93225,Cincinnatus,NY,New York,Cortland,269.9725,1015.9375,78.4025,0.10500000000000001
106,13053,42.47462,-76.26598,Dryden,NY,New York,Tompkins,269.9725,1015.9375,78.4025,0.10500000000000001
107,13054,43.17083,-75.67213000000002,Durhamville,NY,New York,Oneida,269.9725,1015.9375,78.4025,0.10500000000000001
108,13124,42.64605,-75.81796,North Pitcher,NY,New York,Chenango,269.9725,1015.9375,78.4025,0.10500000000000001
109,13143,43.23326,-76.71529,Red Creek,NY,New York,Wayne,269.9725,1015.9375,78.4025,0.10500000000000001
110,13148,42.91464000000001,-76.7847,Seneca Falls,NY,New York,Seneca,269.9725,1015.9375,78.4025,0.10500000000000001
111,13305,43.89223,-75.42124,Beaver Falls,NY,New York,Lewis,270.2325,1015.0600000000001,78.1,0.08249999999999999
112,13324,43.32621,-74.95408,Cold Brook,NY,New York,Herkimer,269.9725,1015.9375,78.4025,0.10500000000000001
113,13601,43.96838,-75.90673000000002,Watertown,NY,New York,Jefferson,270.2325,1015.0600000000001,78.1,0.08249999999999999
114,13732,42.04413,-76.168,Apalachin,NY,New York,Tioga,269.9725,1015.9375,78.4025,0.10500000000000001
115,13744,42.23865,-75.90912,Castle Creek,NY,New York,Broome,269.9725,1015.9375,78.4025,0.10500000000000001
116,14001,43.03296,-78.51205,Akron,NY,New York,Erie,271.1175,1015.8549999999999,75.9225,0.095
117,14005,42.91694,-78.2503,Alexander,NY,New York,Genesee,271.1175,1015.8549999999999,75.9225,0.095
118,14008,43.31174,-78.62669,Appleton,NY,New York,Niagara,271.1175,1015.8549999999999,75.9225,0.095
119,14009,42.57462,-78.39319,Arcade,NY,New York,Wyoming,271.1175,1015.8549999999999,75.9225,0.095
120,14041,42.40358,-78.97358,Dayton,NY,New York,Cattaraugus,271.1175,1015.8549999999999,75.9225,0.095
121,14048,42.48052,-79.31161,Dunkirk,NY,New York,Chautauqua,271.1175,1015.8549999999999,75.9225,0.095
122,14414,42.89349,-77.73514,Avon,NY,New York,Livingston,271.15500000000003,1015.9375,78.5625,0.095
123,14415,42.75548,-77.01708,Bellona,NY,New York,Yates,271.15500000000003,1015.9375,78.5625,0.095
124,14420,43.212,-77.93455,Brockport,NY,New York,Monroe,271.15500000000003,1015.9375,78.5625,0.095
125,14424,42.84815,-77.30818000000002,Canandaigua,NY,New York,Ontario,271.15500000000003,1015.9375,78.5625,0.095
126,14529,42.53997,-77.63825,Perkinsville,NY,New York,Steuben,271.15500000000003,1015.9375,78.5625,0.095
127,14707,42.07738,-78.0605,Allentown,NY,New York,Allegany,271.1175,1015.8549999999999,75.9225,0.095
128,14805,42.35884,-76.72417,Alpine,NY,New York,Schuyler,269.9725,1015.9375,78.4025,0.10500000000000001
129,14814,42.15003,-76.95274,Big Flats,NY,New York,Chemung,269.9725,1015.9375,78.4025,0.10500000000000001
130,15001,40.59209,-80.31976,Aliquippa,PA,Pennsylvania,Beaver,272.40999999999997,1017.0550000000001,77.96249999999999,0.1125
131,15006,40.63357,-79.87680999999998,Bairdford,PA,Pennsylvania,Allegheny,272.40999999999997,1017.0550000000001,77.96249999999999,0.1125
132,15012,40.15883,-79.81218,Belle Vernon,PA,Pennsylvania,Westmoreland,272.40999999999997,1017.0550000000001,77.96249999999999,0.1125
133,15401,39.90108,-79.74724,Uniontown,PA,Pennsylvania,Fayette,272.40999999999997,1017.0550000000001,77.96249999999999,0.1125
134,15521,40.19912,-78.635,Alum Bank,PA,Pennsylvania,Bedford,272.40999999999997,1017.0550000000001,77.96249999999999,0.1125
135,15673,40.5938,-79.5563,North Apollo,PA,Pennsylvania,Armstrong,272.40999999999997,1017.0550000000001,77.96249999999999,0.1125
136,15681,40.50095,-79.43852,Saltsburg,PA,Pennsylvania,Indiana,272.40999999999997,1017.0550000000001,77.96249999999999,0.1125
137,15714,40.64535,-78.82308,Northern Cambria,PA,Pennsylvania,Cambria,272.40999999999997,1017.0550000000001,77.96249999999999,0.1125
138,15721,40.81462,-78.79247,Burnside,PA,Pennsylvania,Clearfield,272.40999999999997,1017.0550000000001,77.96249999999999,0.1125
139,15821,41.35537,-78.36769,Benezett,PA,Pennsylvania,Elk,270.91499999999996,1016.6275,77.78750000000001,0.1375
140,15832,41.35637,-78.19169000000002,Driftwood,PA,Pennsylvania,Cameron,270.91499999999996,1016.6275,77.78750000000001,0.1375
141,16001,40.9095,-79.9438,Butler,PA,Pennsylvania,Butler,272.40999999999997,1017.0550000000001,77.96249999999999,0.1125
142,16028,40.95792,-79.63701999999998,East Brady,PA,Pennsylvania,Clarion,272.40999999999997,1017.0550000000001,77.96249999999999,0.1125
143,16101,40.98532,-80.28716,New Castle,PA,Pennsylvania,Lawrence,272.40999999999997,1017.0550000000001,77.96249999999999,0.1125
144,16110,41.50609,-80.3849,Adamsville,PA,Pennsylvania,Crawford,270.91499999999996,1016.6275,77.78750000000001,0.1375
145,16217,41.33655,-79.18477,Cooksburg,PA,Pennsylvania,Forest,270.91499999999996,1016.6275,77.78750000000001,0.1375
146,16301,41.45555,-79.6353,Oil City,PA,Pennsylvania,Venango,270.91499999999996,1016.6275,77.78750000000001,0.1375
147,16333,41.70345,-78.92856,Ludlow,PA,Pennsylvania,McKean,,,,
148,16601,40.55566,-78.37018,Altoona,PA,Pennsylvania,Blair,272.40999999999997,1017.0550000000001,77.96249999999999,0.1125
149,16611,40.5674,-78.10768,Alexandria,PA,Pennsylvania,Huntingdon,272.40999999999997,1017.0550000000001,77.96249999999999,0.1125
150,16677,40.81181,-78.24365999999998,Sandy Ridge,PA,Pennsylvania,Centre,272.40999999999997,1017.0550000000001,77.96249999999999,0.1125
151,16720,41.5841,-78.03707,Austin,PA,Pennsylvania,Potter,271.1175,1015.8549999999999,75.9225,0.095
152,16914,41.86377,-76.78241,Columbia Cross Roads,PA,Pennsylvania,Bradford,269.9725,1015.9375,78.4025,0.10500000000000001
153,17002,40.50755,-77.83922,Allensville,PA,Pennsylvania,Mifflin,275.27,1018.9625,72.985,0.1375
154,17003,40.36394,-76.5649,Annville,PA,Pennsylvania,Lebanon,272.69,1017.8225,73.1,0.11500000000000002
155,17005,40.60285,-76.80968,Berrysburg,PA,Pennsylvania,Dauphin,272.69,1017.8225,73.1,0.11500000000000002
156,17006,40.28559,-77.54373000000002,Blain,PA,Pennsylvania,Perry,275.27,1018.9625,72.985,0.1375
157,17017,40.64332,-76.88259000000002,Dalmatia,PA,Pennsylvania,Northumberland,272.69,1017.8225,73.1,0.11500000000000002
158,17021,40.33957,-77.65933000000003,East Waterford,PA,Pennsylvania,Juniata,275.27,1018.9625,72.985,0.1375
159,17022,40.16632,-76.60866999999998,Elizabethtown,PA,Pennsylvania,Lancaster,275.27,1018.9625,72.985,0.1375
160,17301,39.89062,-76.9803,Abbottstown,PA,Pennsylvania,Adams,275.27,1018.9625,72.985,0.1375
161,17701,41.33749,-76.90231999999997,Williamsport,PA,Pennsylvania,Lycoming,272.69,1017.8225,73.1,0.11500000000000002
162,17812,40.74069,-77.22815,Beaver Springs,PA,Pennsylvania,Snyder,272.69,1017.8225,73.1,0.11500000000000002
163,17821,40.98871,-76.63927,Danville,PA,Pennsylvania,Montour,272.69,1017.8225,73.1,0.11500000000000002
164,17901,40.69364,-76.25520999999998,Pottsville,PA,Pennsylvania,Schuylkill,272.69,1017.8225,73.1,0.11500000000000002
165,18011,40.47124,-75.64643000000002,Alburtis,PA,Pennsylvania,Lehigh,272.69,1017.8225,73.1,0.11500000000000002
166,18013,40.85301,-75.17174,Bangor,PA,Pennsylvania,Northampton,272.69,1017.8225,73.1,0.11500000000000002
167,18030,40.80223,-75.66404,Bowmanstown,PA,Pennsylvania,Carbon,272.69,1017.8225,73.1,0.11500000000000002
168,18056,40.4491,-75.54912,Hereford,PA,Pennsylvania,Berks,272.69,1017.8225,73.1,0.11500000000000002
169,18077,40.56687,-75.2435,Riegelsville,PA,Pennsylvania,Bucks,272.69,1017.8225,73.1,0.11500000000000002
170,18201,40.94888,-75.95625,Hazleton,PA,Pennsylvania,Luzerne,272.69,1017.8225,73.1,0.11500000000000002
171,18324,41.15197,-75.00303000000002,Bushkill,PA,Pennsylvania,Pike,272.69,1017.8225,73.1,0.11500000000000002
172,18403,41.50042,-75.52959,Archbald,PA,Pennsylvania,Lackawanna,272.69,1017.8225,73.1,0.11500000000000002
173,18413,41.64816,-75.58949,Clifford,PA,Pennsylvania,Susquehanna,272.69,1017.8225,73.1,0.11500000000000002
174,19087,40.06116,-75.39986999999998,Wayne,PA,Pennsylvania,Chester,274.0775,1018.5825,70.28750000000001,0.15
175,19102,39.95287,-75.16549,Philadelphia,PA,Pennsylvania,Philadelphia,274.0775,1018.5825,70.28750000000001,0.15
176,19701,39.58435,-75.69939000000002,Bear,DE,Delaware,New Castle,274.0775,1018.5825,70.28750000000001,0.15
177,20105,38.96273,-77.61001999999998,Aldie,VA,Virginia,Loudoun,275.39,1018.99,70.985,0.10500000000000001
178,20106,38.68699,-78.01175,Amissville,VA,Virginia,Culpeper,275.39,1018.99,70.985,0.10500000000000001
179,20109,38.79282,-77.52658000000002,Manassas,VA,Virginia,Prince William,275.39,1018.99,70.985,0.10500000000000001
180,20110,38.74711,-77.48591,Manassas,VA,Virginia,Manassas,275.39,1018.99,70.985,0.10500000000000001
181,20115,38.82155,-77.9001,Marshall,VA,Virginia,Fauquier,275.39,1018.99,70.985,0.10500000000000001
182,20120,38.85433,-77.47715,Centreville,VA,Virginia,Fairfax,275.39,1018.99,70.985,0.10500000000000001
183,20130,39.02747,-77.9491,Paris,VA,Virginia,Clarke,275.39,1018.99,70.985,0.10500000000000001
184,20601,38.6137,-76.85088,Waldorf,MD,Maryland,Charles,275.5325,1019.0400000000001,71.025,0.125
185,20606,38.25952,-76.73699,Abell,MD,Maryland,St. Mary's,275.5325,1019.0400000000001,71.025,0.125
186,20607,38.67227000000001,-77.02018000000002,Accokeek,MD,Maryland,Prince George's,275.5325,1019.0400000000001,71.025,0.125
187,20615,38.42013,-76.54786,Broomes Island,MD,Maryland,Calvert,275.5325,1019.0400000000001,71.025,0.125
188,20701,39.12627,-76.78423000000002,Annapolis Junction,MD,Maryland,Howard,275.27,1018.9625,72.985,0.1375
189,20711,38.80509,-76.65199,Lothian,MD,Maryland,Anne Arundel,275.5325,1019.0400000000001,71.025,0.125
190,21001,39.51073,-76.2006,Aberdeen,MD,Maryland,Harford,275.27,1018.9625,72.985,0.1375
191,21013,39.50906,-76.48647,Baldwin,MD,Maryland,Baltimore,275.27,1018.9625,72.985,0.1375
192,21520,39.62474,-79.3015,Accident,MD,Maryland,Garrett,272.40999999999997,1017.0550000000001,77.96249999999999,0.1125
193,21601,38.79377,-76.08178000000002,Easton,MD,Maryland,Talbot,275.27,1018.9625,72.985,0.1375
194,21607,39.13272,-75.85418,Barclay,MD,Maryland,Queen Anne's,275.27,1018.9625,72.985,0.1375
195,21613,38.49315,-76.07341,Cambridge,MD,Maryland,Dorchester,275.5325,1019.0400000000001,71.025,0.125
196,21629,38.86273,-75.82791999999998,Denton,MD,Maryland,Caroline,275.27,1018.9625,72.985,0.1375
197,21701,39.44605,-77.33495,Frederick,MD,Maryland,Frederick,275.27,1018.9625,72.985,0.1375
198,21801,38.38055,-75.64148,Salisbury,MD,Maryland,Wicomico,275.5325,1019.0400000000001,71.025,0.125
199,21901,39.58572,-75.95843,North East,MD,Maryland,Cecil,275.27,1018.9625,72.985,0.1375
200,22046,38.88711,-77.18075999999998,Falls Church,VA,Virginia,Falls Church,275.39,1018.99,70.985,0.10500000000000001
201,22201,38.88665,-77.09518,Arlington,VA,Virginia,Arlington,275.39,1018.99,70.985,0.10500000000000001
202,22301,38.82002,-77.05960999999998,Alexandria,VA,Virginia,Alexandria,275.5325,1019.0400000000001,71.025,0.125
203,22401,38.29918,-77.48713000000002,Fredericksburg,VA,Virginia,Fredericksburg,275.5325,1019.0400000000001,71.025,0.125
204,22405,38.31521,-77.40371,Fredericksburg,VA,Virginia,Stafford,275.5325,1019.0400000000001,71.025,0.125
205,22407,38.2834,-77.57529,Fredericksburg,VA,Virginia,Spotsylvania,275.5325,1019.0400000000001,71.025,0.125
206,22448,38.3405,-77.03217,Dahlgren,VA,Virginia,King George,275.5325,1019.0400000000001,71.025,0.125
207,22601,39.17472,-78.17353,Winchester,VA,Virginia,Winchester,275.39,1018.99,70.985,0.10500000000000001
208,22623,38.85156,-78.13736999999998,Chester Gap,VA,Virginia,Rappahannock,275.39,1018.99,70.985,0.10500000000000001
209,22641,39.08061,-78.39151,Strasburg,VA,Virginia,Shenandoah,275.39,1018.99,70.985,0.10500000000000001
210,22650,38.75957,-78.35993,Rileyville,VA,Virginia,Page,275.39,1018.99,70.985,0.10500000000000001
211,22801,38.40459,-78.87716,Harrisonburg,VA,Virginia,Harrisonburg,277.4675,1019.2974999999999,70.09,0.1225
212,22843,38.36852,-79.16038,Mount Solon,VA,Virginia,Augusta,277.4675,1019.2974999999999,70.09,0.1225
213,22901,38.08844000000001,-78.55617,Charlottesville,VA,Virginia,Albemarle,277.4675,1019.2974999999999,70.09,0.1225
214,22902,37.95389,-78.46996999999998,Charlottesville,VA,Virginia,Charlottesville,277.4675,1019.2974999999999,70.09,0.1225
215,22920,37.97724,-78.81071,Afton,VA,Virginia,Nelson,277.4675,1019.2974999999999,70.09,0.1225
216,22942,38.10968,-78.19864,Gordonsville,VA,Virginia,Louisa,277.4675,1019.2974999999999,70.09,0.1225
217,22963,37.84921,-78.28843,Palmyra,VA,Virginia,Fluvanna,277.4675,1019.2974999999999,70.09,0.1225
218,22980,38.09565,-78.88513,Waynesboro,VA,Virginia,Waynesboro,277.4675,1019.2974999999999,70.09,0.1225
219,23002,37.35065,-77.96876999999998,Amelia Court House,VA,Virginia,Amelia,277.4675,1019.2974999999999,70.09,0.1225
220,23004,37.68225,-78.40866,Arvonia,VA,Virginia,Buckingham,277.4675,1019.2974999999999,70.09,0.1225
221,23005,37.75956,-77.48221,Ashland,VA,Virginia,Hanover,277.4675,1019.2974999999999,70.09,0.1225
222,23009,37.81386,-77.18737,Aylett,VA,Virginia,King William,277.4675,1019.2974999999999,70.09,0.1225
223,23011,37.47681,-76.80954,Barhamsville,VA,Virginia,New Kent,277.4675,1019.2974999999999,70.09,0.1225
224,23021,37.39782,-76.37016,Bohannon,VA,Virginia,Mathews,279.35,1019.1725,78.815,0.155
225,23023,37.77866,-76.95957,Bruington,VA,Virginia,King and Queen,277.4675,1019.2974999999999,70.09,0.1225
226,23030,37.34627,-77.05928,Charles City,VA,Virginia,Charles City,277.4675,1019.2974999999999,70.09,0.1225
227,23038,37.75544,-78.14779,Columbia,VA,Virginia,Goochland,277.4675,1019.2974999999999,70.09,0.1225
228,23059,37.70488,-77.56251,Glen Allen,VA,Virginia,Henrico,277.4675,1019.2974999999999,70.09,0.1225
229,23112,37.43498,-77.66207,Midlothian,VA,Virginia,Chesterfield,277.4675,1019.2974999999999,70.09,0.1225
230,23139,37.54972,-77.93374,Powhatan,VA,Virginia,Powhatan,277.4675,1019.2974999999999,70.09,0.1225
231,23168,37.39997,-76.82728,Toano,VA,Virginia,James City,277.4675,1019.2974999999999,70.09,0.1225
232,23187,37.26743,-76.72078,Williamsburg,VA,Virginia,Williamsburg,279.3025,1019.1825,78.2825,0.16
233,23301,37.68333,-75.63618000000002,Accomac,VA,Virginia,Accomack,279.35,1019.1725,78.815,0.155
234,23304,36.9961,-76.57063000000002,Battery Park,VA,Virginia,Isle of Wight,279.3025,1019.1825,78.2825,0.16
235,23320,36.75193,-76.2183,Chesapeake,VA,Virginia,Chesapeake,279.58750000000003,1019.105,74.57,0.1875
236,23451,36.86739,-76.00587,Virginia Beach,VA,Virginia,Virginia Beach,279.845,1018.17,74.50999999999999,0.195
237,23601,37.05863,-76.46392,Newport News,VA,Virginia,Newport News,279.3025,1019.1825,78.2825,0.16
238,23651,37.00917000000001,-76.30503,Fort Monroe,VA,Virginia,Hampton,279.35,1019.1725,78.815,0.155
239,23662,37.13181,-76.35673,Poquoson,VA,Virginia,Poquoson,279.35,1019.1725,78.815,0.155
240,23701,36.81181,-76.37078000000002,Portsmouth,VA,Virginia,Portsmouth,279.57750000000004,1019.1225,75.0475,0.1825
241,23801,37.23535,-77.3353,Fort Lee,VA,Virginia,Prince George,277.4675,1019.2974999999999,70.09,0.1225
242,23803,37.21232,-77.48143,Petersburg,VA,Virginia,Petersburg,277.4675,1019.2974999999999,70.09,0.1225
243,23821,36.88067,-77.92043000000002,Alberta,VA,Virginia,Brunswick,277.4675,1019.2974999999999,70.09,0.1225
244,23824,37.08962,-77.96734000000002,Blackstone,VA,Virginia,Nottoway,277.4675,1019.2974999999999,70.09,0.1225
245,23827,36.61059,-77.2012,Boykins,VA,Virginia,Southampton,279.3025,1019.1825,78.2825,0.16
246,23833,37.2077,-77.6727,Church Road,VA,Virginia,Dinwiddie,277.4675,1019.2974999999999,70.09,0.1225
247,23834,37.28974,-77.40366,Colonial Heights,VA,Virginia,Colonial Heights,277.4675,1019.2974999999999,70.09,0.1225
248,23839,37.07982,-76.91887,Dendron,VA,Virginia,Surry,279.3025,1019.1825,78.2825,0.16
249,23847,36.67043,-77.55067,Emporia,VA,Virginia,Greensville,277.4675,1019.2974999999999,70.09,0.1225
250,23860,37.27984,-77.21731,Hopewell,VA,Virginia,Hopewell,277.4675,1019.2974999999999,70.09,0.1225
251,23901,37.31622,-78.41609,Farmville,VA,Virginia,Prince Edward,277.4675,1019.2974999999999,70.09,0.1225
252,23915,36.70149,-78.28676999999998,Baskerville,VA,Virginia,Mecklenburg,278.87,1019.5450000000001,74.69,0.2075
253,23923,37.09234,-78.64394,Charlotte Court House,VA,Virginia,Charlotte,277.4675,1019.2974999999999,70.09,0.1225
254,23944,36.90668,-78.13427,Kenbridge,VA,Virginia,Lunenburg,277.4675,1019.2974999999999,70.09,0.1225
255,23958,37.26651,-78.65975,Pamplin,VA,Virginia,Appomattox,277.4675,1019.2974999999999,70.09,0.1225
256,24011,37.27044,-79.94126999999997,Roanoke,VA,Virginia,Roanoke,277.855,1019.3675000000001,72.9025,0.355
257,24053,36.60858,-80.53375,Ararat,VA,Virginia,Patrick,277.855,1019.3675000000001,72.9025,0.355
258,24054,36.67394,-79.70510999999998,Axton,VA,Virginia,Henry,278.04999999999995,1019.4075,73.0875,0.3675
259,24058,37.18414,-80.6157,Belspring,VA,Virginia,Pulaski,277.855,1019.3675000000001,72.9025,0.355
260,24064,37.37194,-79.77645,Blue Ridge,VA,Virginia,Botetourt,278.04999999999995,1019.4075,73.0875,0.3675
261,24069,36.58325,-79.63481,Cascade,VA,Virginia,Pittsylvania,278.04999999999995,1019.4075,73.0875,0.3675
262,24072,37.03633,-80.2329,Check,VA,Virginia,Floyd,277.855,1019.3675000000001,72.9025,0.355
263,24086,37.27426,-80.6343,Eggleston,VA,Virginia,Giles,277.855,1019.3675000000001,72.9025,0.355
264,24127,37.48631,-80.19046,New Castle,VA,Virginia,Craig,277.855,1019.3675000000001,72.9025,0.355
265,24141,37.09487,-80.56832,Radford,VA,Virginia,Radford,277.855,1019.3675000000001,72.9025,0.355
266,24216,36.9437,-82.79763,Appalachia,VA,Virginia,Wise,277.375,1020.0125,79.19749999999999,0.23500000000000001
267,24217,37.08415,-82.17205,Bee,VA,Virginia,Dickenson,277.375,1020.0125,79.19749999999999,0.23500000000000001
268,24221,36.63361,-82.99548,Blackwater,VA,Virginia,Lee,277.375,1020.0125,79.19749999999999,0.23500000000000001
269,24224,36.86232,-82.28197,Castlewood,VA,Virginia,Russell,277.375,1020.0125,79.19749999999999,0.23500000000000001
270,24239,37.11348,-82.15014000000002,Davenport,VA,Virginia,Buchanan,277.375,1020.0125,79.19749999999999,0.23500000000000001
271,24244,36.71568,-82.78923,Duffield,VA,Virginia,Scott,277.375,1020.0125,79.19749999999999,0.23500000000000001
272,24273,36.96167,-82.65647,Norton,VA,Virginia,Norton,277.375,1020.0125,79.19749999999999,0.23500000000000001
273,24292,36.61457,-81.57778,Whitetop,VA,Virginia,Grayson,277.855,1019.3675000000001,72.9025,0.355
274,24311,36.88173,-81.40915,Atkins,VA,Virginia,Smyth,277.855,1019.3675000000001,72.9025,0.355
275,24313,36.90827,-80.80658000000003,Barren Springs,VA,Virginia,Wythe,277.855,1019.3675000000001,72.9025,0.355
276,24314,37.16731,-81.21383,Bastian,VA,Virginia,Bland,277.855,1019.3675000000001,72.9025,0.355
277,24316,36.95465,-81.67291,Broadford,VA,Virginia,Tazewell,277.855,1019.3675000000001,72.9025,0.355
278,24333,36.63834,-80.92883,Galax,VA,Virginia,Galax,277.855,1019.3675000000001,72.9025,0.355
279,24401,38.13353,-79.08591,Staunton,VA,Virginia,Staunton,277.4675,1019.2974999999999,70.09,0.1225
280,24412,38.05505,-79.82804,Bacova,VA,Virginia,Bath,277.4675,1019.2974999999999,70.09,0.1225
281,24413,38.52851,-79.59324000000002,Blue Grass,VA,Virginia,Highland,272.40999999999997,1017.0550000000001,77.96249999999999,0.1125
282,24415,37.92506,-79.31711,Brownsburg,VA,Virginia,Rockbridge,277.4675,1019.2974999999999,70.09,0.1225
283,24416,37.7223,-79.3607,Buena Vista,VA,Virginia,Buena Vista,277.4675,1019.2974999999999,70.09,0.1225
284,24422,37.82994,-79.75643000000002,Clifton Forge,VA,Virginia,Alleghany,278.04999999999995,1019.4075,73.0875,0.3675
285,24501,37.353,-79.15576,Lynchburg,VA,Virginia,Lynchburg,277.4675,1019.2974999999999,70.09,0.1225
286,24517,37.14937000000001,-79.22977,Altavista,VA,Virginia,Campbell,278.04999999999995,1019.4075,73.0875,0.3675
287,24520,36.58395,-79.03673,Alton,VA,Virginia,Halifax,278.87,1019.5450000000001,74.69,0.2075
288,24521,37.63442,-79.09689,Amherst,VA,Virginia,Amherst,277.4675,1019.2974999999999,70.09,0.1225
289,24540,36.64309,-79.4234,Danville,VA,Virginia,Danville,278.04999999999995,1019.4075,73.0875,0.3675
290,24801,37.44261,-81.5776,Welch,WV,West Virginia,McDowell,277.855,1019.3675000000001,72.9025,0.355
291,24846,37.53033,-81.90864,Isaban,WV,West Virginia,Mingo,277.855,1019.3675000000001,72.9025,0.355
292,24901,37.84062,-80.46534,Lewisburg,WV,West Virginia,Greenbrier,277.855,1019.3675000000001,72.9025,0.355
293,24915,38.46521,-79.77636,Arbovale,WV,West Virginia,Pocahontas,272.40999999999997,1017.0550000000001,77.96249999999999,0.1125
294,24935,37.56075,-80.81113,Forest Hill,WV,West Virginia,Summers,277.855,1019.3675000000001,72.9025,0.355
295,25005,38.58088,-81.26921,Amma,WV,West Virginia,Roane,271.96750000000003,1018.275,78.4575,0.0975
296,25007,37.82536,-81.42866,Arnett,WV,West Virginia,Raleigh,277.855,1019.3675000000001,72.9025,0.355
297,25009,38.19199,-81.71202,Ashford,WV,West Virginia,Boone,271.96750000000003,1018.275,78.4575,0.0975
298,25015,38.24257,-81.50234,Belle,WV,West Virginia,Kanawha,271.96750000000003,1018.275,78.4575,0.0975
299,25019,38.37293,-81.08679000000002,Bickmore,WV,West Virginia,Clay,271.96750000000003,1018.275,78.4575,0.0975
300,25022,37.85869,-81.8117,Blair,WV,West Virginia,Logan,274.805,1017.33,77.3025,0.095
301,25063,38.58235,-80.93417,Duck,WV,West Virginia,Braxton,272.40999999999997,1017.0550000000001,77.96249999999999,0.1125
302,25106,38.78321,-82.08843,Henderson,WV,West Virginia,Mason,271.96750000000003,1018.275,78.4575,0.0975
303,25234,38.8106,-81.12968000000002,Arnoldsburg,WV,West Virginia,Calhoun,271.96750000000003,1018.275,78.4575,0.0975
304,25239,38.84049,-81.8431,Cottageville,WV,West Virginia,Jackson,271.96750000000003,1018.275,78.4575,0.0975
305,25267,38.84773,-80.94138000000002,Normantown,WV,West Virginia,Gilmer,272.40999999999997,1017.0550000000001,77.96249999999999,0.1125
306,25401,39.45683,-77.97265,Martinsburg,WV,West Virginia,Berkeley,275.39,1018.99,70.985,0.10500000000000001
307,25411,39.55551,-78.21892,Berkeley Springs,WV,West Virginia,Morgan,275.39,1018.99,70.985,0.10500000000000001
308,25504,38.37329,-82.26409,Barboursville,WV,West Virginia,Cabell,271.96750000000003,1018.275,78.4575,0.0975
309,26003,40.07399,-80.64996,Wheeling,WV,West Virginia,Ohio,272.40999999999997,1017.0550000000001,77.96249999999999,0.1125
310,26030,40.22631,-80.65581,Beech Bottom,WV,West Virginia,Brooke,272.40999999999997,1017.0550000000001,77.96249999999999,0.1125
311,26031,40.00838,-80.72245,Benwood,WV,West Virginia,Marshall,272.40999999999997,1017.0550000000001,77.96249999999999,0.1125
312,26101,39.23903,-81.5762,Parkersburg,WV,West Virginia,Wood,271.96750000000003,1018.275,78.4575,0.0975
313,26134,39.36798,-81.2876,Belmont,WV,West Virginia,Pleasants,271.96750000000003,1018.275,78.4575,0.0975
314,26138,39.02869000000001,-81.20432,Brohard,WV,West Virginia,Wirt,271.96750000000003,1018.275,78.4575,0.0975
315,26146,39.45283,-81.04397,Friendly,WV,West Virginia,Tyler,272.40999999999997,1017.0550000000001,77.96249999999999,0.1125
316,26148,39.06903,-81.18634,Macfarlan,WV,West Virginia,Ritchie,272.40999999999997,1017.0550000000001,77.96249999999999,0.1125
317,26155,39.63218,-80.76541,New Martinsville,WV,West Virginia,Wetzel,272.40999999999997,1017.0550000000001,77.96249999999999,0.1125
318,26201,39.00049,-80.20388,Buckhannon,WV,West Virginia,Upshur,272.40999999999997,1017.0550000000001,77.96249999999999,0.1125
319,26202,38.21812,-80.61906,Fenwick,WV,West Virginia,Nicholas,277.855,1019.3675000000001,72.9025,0.355
320,26203,38.54088,-80.58269,Erbacon,WV,West Virginia,Webster,272.40999999999997,1017.0550000000001,77.96249999999999,0.1125
321,26224,38.74032,-80.18293,Helvetia,WV,West Virginia,Randolph,272.40999999999997,1017.0550000000001,77.96249999999999,0.1125
322,26238,39.10308,-80.15939,Volga,WV,West Virginia,Barbour,272.40999999999997,1017.0550000000001,77.96249999999999,0.1125
323,26260,39.07893,-79.41767,Davis,WV,West Virginia,Tucker,272.40999999999997,1017.0550000000001,77.96249999999999,0.1125
324,26301,39.28976,-80.37938,Clarksburg,WV,West Virginia,Harrison,272.40999999999997,1017.0550000000001,77.96249999999999,0.1125
325,26339,39.41965,-80.61062,Center Point,WV,West Virginia,Doddridge,272.40999999999997,1017.0550000000001,77.96249999999999,0.1125
326,26347,39.25656,-80.12613,Flemington,WV,West Virginia,Taylor,272.40999999999997,1017.0550000000001,77.96249999999999,0.1125
327,26374,39.45058,-79.87894,Independence,WV,West Virginia,Preston,272.40999999999997,1017.0550000000001,77.96249999999999,0.1125
328,26501,39.63014,-80.04138,Morgantown,WV,West Virginia,Monongalia,272.40999999999997,1017.0550000000001,77.96249999999999,0.1125
329,26554,39.4668,-80.11485,Fairmont,WV,West Virginia,Marion,272.40999999999997,1017.0550000000001,77.96249999999999,0.1125
330,26707,39.22442,-79.39584,Bayard,WV,West Virginia,Grant,272.40999999999997,1017.0550000000001,77.96249999999999,0.1125
331,26710,39.30719000000001,-78.94228000000003,Burlington,WV,West Virginia,Mineral,272.40999999999997,1017.0550000000001,77.96249999999999,0.1125
332,26801,39.05028,-78.80364,Baker,WV,West Virginia,Hardy,275.39,1018.99,70.985,0.10500000000000001
333,26802,38.62752,-79.19655,Brandywine,WV,West Virginia,Pendleton,275.39,1018.99,70.985,0.10500000000000001
334,27006,35.94454,-80.43766,Advance,NC,North Carolina,Davie,277.855,1019.3675000000001,72.9025,0.355
335,27009,36.23306,-80.07611999999997,Belews Creek,NC,North Carolina,Forsyth,277.855,1019.3675000000001,72.9025,0.355
336,27011,36.2156,-80.69667,Boonville,NC,North Carolina,Yadkin,277.855,1019.3675000000001,72.9025,0.355
337,27013,35.75594,-80.70351,Cleveland,NC,North Carolina,Rowan,277.855,1019.3675000000001,72.9025,0.355
338,27016,36.45168,-80.21452,Danbury,NC,North Carolina,Stokes,277.855,1019.3675000000001,72.9025,0.355
339,27201,36.03424,-79.48485,Alamance,NC,North Carolina,Alamance,278.04999999999995,1019.4075,73.0875,0.3675
340,27207,35.60548,-79.39299,Bear Creek,NC,North Carolina,Chatham,279.115,1018.595,76.28250000000001,0.225
341,27212,36.46058,-79.28064,Blanch,NC,North Carolina,Caswell,278.87,1019.5450000000001,74.69,0.2075
342,27214,36.21252,-79.67859,Browns Summit,NC,North Carolina,Guilford,278.04999999999995,1019.4075,73.0875,0.3675
343,27239,35.60758,-80.08959,Denton,NC,North Carolina,Davidson,278.3,1019.515,74.9325,0.4425
344,27242,35.33052,-79.63977,Eagle Springs,NC,North Carolina,Moore,280.9525,1019.6075000000001,74.97,0.1775
345,27343,36.50309,-79.09172,Semora,NC,North Carolina,Person,278.87,1019.5450000000001,74.69,0.2075
346,27501,35.48576,-78.68494,Angier,NC,North Carolina,Harnett,279.20750000000004,1018.3375000000001,77.4275,0.23249999999999998
347,27502,35.7201,-78.91507,Apex,NC,North Carolina,Wake,279.115,1018.595,76.28250000000001,0.225
348,27503,36.15926,-78.8778,Bahama,NC,North Carolina,Durham,278.87,1019.5450000000001,74.69,0.2075
349,27504,35.39897,-78.51901,Benson,NC,North Carolina,Johnston,279.20750000000004,1018.3375000000001,77.4275,0.23249999999999998
350,27507,36.51271,-78.56306,Bullock,NC,North Carolina,Granville,278.87,1019.5450000000001,74.69,0.2075
351,27536,36.32669,-78.40883000000002,Henderson,NC,North Carolina,Vance,278.87,1019.5450000000001,74.69,0.2075
352,27557,35.77609,-78.19922,Middlesex,NC,North Carolina,Nash,279.20750000000004,1018.3375000000001,77.4275,0.23249999999999998
353,27801,35.9155,-77.7361,Rocky Mount,NC,North Carolina,Edgecombe,279.20750000000004,1018.3375000000001,77.4275,0.23249999999999998
354,27805,36.20783,-77.08434,Aulander,NC,North Carolina,Hertford,279.58750000000003,1019.105,74.57,0.1875
355,27806,35.29727000000001,-76.76526,Aurora,NC,North Carolina,Beaufort,283.2775,1019.6449999999999,77.50999999999999,0.1325
356,27812,35.81566,-77.36924,Bethel,NC,North Carolina,Pitt,279.20750000000004,1018.3375000000001,77.4275,0.23249999999999998
357,27813,35.63089,-77.93603,Black Creek,NC,North Carolina,Wilson,279.20750000000004,1018.3375000000001,77.4275,0.23249999999999998
358,27824,35.52145,-76.03258000000002,Engelhard,NC,North Carolina,Hyde,279.58750000000003,1019.105,74.57,0.1875
359,27825,35.83280999999999,-77.17446,Everetts,NC,North Carolina,Martin,279.20750000000004,1018.3375000000001,77.4275,0.23249999999999998
360,27847,36.1846,-77.18907,Kelford,NC,North Carolina,Bertie,279.58750000000003,1019.105,74.57,0.1875
361,27909,36.29548,-76.28394,Elizabeth City,NC,North Carolina,Pasquotank,279.58750000000003,1019.105,74.57,0.1875
362,27915,35.40320999999999,-75.4953,Avon,NC,North Carolina,Dare,279.845,1018.17,74.50999999999999,0.195
363,27916,36.32212,-75.91509,Aydlett,NC,North Carolina,Currituck,279.845,1018.17,74.50999999999999,0.195
364,27919,36.31187,-76.50347,Belvidere,NC,North Carolina,Perquimans,279.58750000000003,1019.105,74.57,0.1875
365,27925,35.84819,-76.19669,Columbia,NC,North Carolina,Tyrrell,279.58750000000003,1019.105,74.57,0.1875
366,27926,36.51685,-76.6078,Corapeake,NC,North Carolina,Gates,279.58750000000003,1019.105,74.57,0.1875
367,27932,36.1007,-76.60011999999998,Edenton,NC,North Carolina,Chowan,279.58750000000003,1019.105,74.57,0.1875
368,28001,35.33623,-80.20477,Albemarle,NC,North Carolina,Stanly,279.46000000000004,1019.4825000000001,73.85,0.235
369,28006,35.4069,-81.09465,Alexis,NC,North Carolina,Gaston,279.46000000000004,1019.4825000000001,73.85,0.235
370,28007,35.10451,-80.10989000000002,Ansonville,NC,North Carolina,Anson,279.46000000000004,1019.4825000000001,73.85,0.235
371,28017,35.24709,-81.67063,Boiling Springs,NC,North Carolina,Cleveland,279.46000000000004,1019.4825000000001,73.85,0.235
372,28018,35.48378,-81.79521,Bostic,NC,North Carolina,Rutherford,279.46000000000004,1019.4825000000001,73.85,0.235
373,28025,35.38042,-80.5279,Concord,NC,North Carolina,Cabarrus,279.46000000000004,1019.4825000000001,73.85,0.235
374,28115,35.57956,-80.77328,Mooresville,NC,North Carolina,Iredell,279.46000000000004,1019.4825000000001,73.85,0.235
375,28318,35.01788,-78.61414,Autryville,NC,North Carolina,Sampson,280.9525,1019.6075000000001,74.97,0.1775
376,28320,34.5518,-78.77337,Bladenboro,NC,North Carolina,Bladen,280.9525,1019.6075000000001,74.97,0.1775
377,28325,35.15392,-78.1042,Calypso,NC,North Carolina,Duplin,280.9525,1019.6075000000001,74.97,0.1775
378,28340,34.471990000000005,-79.14074000000002,Fairmont,NC,North Carolina,Robeson,280.9525,1019.6075000000001,74.97,0.1775
379,28343,34.7635,-79.58189,Gibson,NC,North Carolina,Scotland,280.9525,1019.6075000000001,74.97,0.1775
380,28376,34.9919,-79.24262,Raeford,NC,North Carolina,Hoke,280.9525,1019.6075000000001,74.97,0.1775
381,28401,34.27257,-77.96332,Wilmington,NC,North Carolina,New Hanover,283.2775,1019.6449999999999,77.50999999999999,0.1325
382,28421,34.52082,-78.17817,Atkinson,NC,North Carolina,Pender,283.2775,1019.6449999999999,77.50999999999999,0.1325
383,28423,34.31178,-78.39381,Bolton,NC,North Carolina,Columbus,283.2775,1019.6449999999999,77.50999999999999,0.1325
384,28445,34.51045,-77.54669,Holly Ridge,NC,North Carolina,Onslow,283.2775,1019.6449999999999,77.50999999999999,0.1325
385,28501,35.24439,-77.5219,Kinston,NC,North Carolina,Lenoir,279.20750000000004,1018.3375000000001,77.4275,0.23249999999999998
386,28510,35.00388,-76.80688,Arapahoe,NC,North Carolina,Pamlico,283.2775,1019.6449999999999,77.50999999999999,0.1325
387,28511,34.8996,-76.35195,Atlantic,NC,North Carolina,Carteret,283.2775,1019.6449999999999,77.50999999999999,0.1325
388,28519,35.123740000000005,-77.02169,Bridgeton,NC,North Carolina,Craven,283.2775,1019.6449999999999,77.50999999999999,0.1325
389,28573,34.9965,-77.19904,Pollocksville,NC,North Carolina,Jones,283.2775,1019.6449999999999,77.50999999999999,0.1325
390,28601,35.77253,-81.32634,Hickory,NC,North Carolina,Catawba,279.46000000000004,1019.4825000000001,73.85,0.235
391,28604,36.1772,-81.8479,Banner Elk,NC,North Carolina,Watauga,279.46000000000004,1019.4825000000001,73.85,0.235
392,28606,36.05343,-81.31883,Boomer,NC,North Carolina,Wilkes,277.855,1019.3675000000001,72.9025,0.355
393,28611,36.01102,-81.73527,Collettsville,NC,North Carolina,Caldwell,279.46000000000004,1019.4825000000001,73.85,0.235
394,28612,35.66086,-81.54008,Connelly Springs,NC,North Carolina,Burke,279.46000000000004,1019.4825000000001,73.85,0.235
395,28615,36.46267,-81.65856,Creston,NC,North Carolina,Ashe,277.855,1019.3675000000001,72.9025,0.355
396,28616,36.02313,-81.92013,Crossnore,NC,North Carolina,Avery,279.46000000000004,1019.4825000000001,73.85,0.235
397,28636,35.94324,-81.06397,Hiddenite,NC,North Carolina,Alexander,277.855,1019.3675000000001,72.9025,0.355
398,28701,35.70239,-82.64105,Alexander,NC,North Carolina,Buncombe,277.375,1020.0125,79.19749999999999,0.23500000000000001
399,28702,35.39966,-83.62051,Almond,NC,North Carolina,Graham,277.375,1020.0125,79.19749999999999,0.23500000000000001
400,28705,36.04365,-82.15888000000002,Bakersville,NC,North Carolina,Mitchell,279.46000000000004,1019.4825000000001,73.85,0.235
401,28708,35.2714,-82.86267,Balsam Grove,NC,North Carolina,Transylvania,277.375,1020.0125,79.19749999999999,0.23500000000000001
402,28713,35.36935,-83.50254,Bryson City,NC,North Carolina,Swain,277.375,1020.0125,79.19749999999999,0.23500000000000001
403,28714,35.89376,-82.31145,Burnsville,NC,North Carolina,Yancey,277.375,1020.0125,79.19749999999999,0.23500000000000001
404,28716,35.43589,-82.86109,Canton,NC,North Carolina,Haywood,277.375,1020.0125,79.19749999999999,0.23500000000000001
405,28722,35.23413,-82.1247,Columbus,NC,North Carolina,Polk,279.46000000000004,1019.4825000000001,73.85,0.235
406,28726,35.28118,-82.4182,East Flat Rock,NC,North Carolina,Henderson,279.46000000000004,1019.4825000000001,73.85,0.235
407,28734,35.1828,-83.42108,Franklin,NC,North Carolina,Macon,277.375,1020.0125,79.19749999999999,0.23500000000000001
408,28901,35.19808,-83.81034,Andrews,NC,North Carolina,Cherokee,277.375,1020.0125,79.19749999999999,0.23500000000000001
409,29001,33.7835,-80.17251999999998,Alcolu,SC,South Carolina,Clarendon,282.21250000000003,1019.7574999999999,73.99,0.21250000000000002
410,29003,33.240559999999995,-81.01545,Bamberg,SC,South Carolina,Bamberg,282.21250000000003,1019.7574999999999,73.99,0.21250000000000002
411,29006,33.870290000000004,-81.55054,Batesburg,SC,South Carolina,Lexington,282.21250000000003,1019.7574999999999,73.99,0.21250000000000002
412,29009,34.43983,-80.37879000000002,Bethune,SC,South Carolina,Kershaw,282.21250000000003,1019.7574999999999,73.99,0.21250000000000002
413,29016,34.20244,-80.99575,Blythewood,SC,South Carolina,Richland,282.21250000000003,1019.7574999999999,73.99,0.21250000000000002
414,29018,33.345240000000004,-80.64534,Bowman,SC,South Carolina,Orangeburg,282.21250000000003,1019.7574999999999,73.99,0.21250000000000002
415,29037,34.18558,-81.86437,Chappells,SC,South Carolina,Newberry,282.21250000000003,1019.7574999999999,73.99,0.21250000000000002
416,29040,34.0593,-80.43427,Dalzell,SC,South Carolina,Sumter,282.21250000000003,1019.7574999999999,73.99,0.21250000000000002
417,29069,34.1862,-80.09626999999998,Lamar,SC,South Carolina,Darlington,282.21250000000003,1019.7574999999999,73.99,0.21250000000000002
418,29082,33.03773,-80.94174,Lodge,SC,South Carolina,Colleton,284.71500000000003,1019.8025,80.5475,0.16
419,29105,33.80843,-81.59564,Monetta,SC,South Carolina,Aiken,282.21250000000003,1019.7574999999999,73.99,0.21250000000000002
420,29114,33.9537,-79.93236999999998,Olanta,SC,South Carolina,Florence,282.21250000000003,1019.7574999999999,73.99,0.21250000000000002
421,29138,34.044540000000005,-81.77280999999998,Saluda,SC,South Carolina,Saluda,282.21250000000003,1019.7574999999999,73.99,0.21250000000000002
422,29301,34.93486,-82.01161,Spartanburg,SC,South Carolina,Spartanburg,279.46000000000004,1019.4825000000001,73.85,0.235
423,29325,34.47227,-81.84268,Clinton,SC,South Carolina,Laurens,282.21250000000003,1019.7574999999999,73.99,0.21250000000000002
424,29401,32.778690000000005,-79.93494,Charleston,SC,South Carolina,Charleston,284.71500000000003,1019.8025,80.5475,0.16
425,29440,33.37712,-79.329,Georgetown,SC,South Carolina,Georgetown,284.71500000000003,1019.8025,80.5475,0.16
426,29511,33.97729,-79.11497,Aynor,SC,South Carolina,Horry,283.2775,1019.6449999999999,77.50999999999999,0.1325
427,29512,34.62635,-79.70984,Bennettsville,SC,South Carolina,Marlboro,280.9525,1019.6075000000001,74.97,0.1775
428,29536,34.41899,-79.37304,Dillon,SC,South Carolina,Dillon,280.9525,1019.6075000000001,74.97,0.1775
429,29601,34.847770000000004,-82.4027,Greenville,SC,South Carolina,Greenville,280.4425,1019.805,73.02250000000001,0.26
430,29620,34.17875,-82.42872,Abbeville,SC,South Carolina,Abbeville,280.4425,1019.805,73.02250000000001,0.26
431,29621,34.50703,-82.60538000000003,Anderson,SC,South Carolina,Anderson,280.4425,1019.805,73.02250000000001,0.26
432,29630,34.74024,-82.79867,Central,SC,South Carolina,Pickens,280.4425,1019.805,73.02250000000001,0.26
433,29643,34.51182,-83.00057,Fair Play,SC,South Carolina,Oconee,280.4425,1019.805,73.02250000000001,0.26
434,29646,34.13472,-82.15202,Greenwood,SC,South Carolina,Greenwood,282.21250000000003,1019.7574999999999,73.99,0.21250000000000002
435,29810,32.99533,-81.37633000000002,Allendale,SC,South Carolina,Allendale,285.7925,1019.7974999999999,82.025,0.09
436,29812,33.22683,-81.44135,Barnwell,SC,South Carolina,Barnwell,282.21250000000003,1019.7574999999999,73.99,0.21250000000000002
437,29821,33.643809999999995,-82.11184,Clarks Hill,SC,South Carolina,McCormick,282.21250000000003,1019.7574999999999,73.99,0.21250000000000002
438,29824,33.81939000000001,-81.99726,Edgefield,SC,South Carolina,Edgefield,282.21250000000003,1019.7574999999999,73.99,0.21250000000000002
439,29912,32.58262,-80.93074,Coosawhatchie,SC,South Carolina,Jasper,285.7925,1019.7974999999999,82.025,0.09
440,30002,33.77366,-84.26051,Avondale Estates,GA,Georgia,DeKalb,280.2075,1019.7475,75.9525,0.245
441,30008,33.89629,-84.58926,Marietta,GA,Georgia,Cobb,280.2075,1019.7475,75.9525,0.245
442,30011,34.02235,-83.83769000000002,Auburn,GA,Georgia,Barrow,280.4425,1019.805,73.02250000000001,0.26
443,30012,33.71884,-83.99866,Conyers,GA,Georgia,Rockdale,280.2075,1019.7475,75.9525,0.245
444,30014,33.57828,-83.82048,Covington,GA,Georgia,Newton,280.2075,1019.7475,75.9525,0.245
445,30017,33.89012,-83.96318000000002,Grayson,GA,Georgia,Gwinnett,280.2075,1019.7475,75.9525,0.245
446,30025,33.65591,-83.69573000000003,Social Circle,GA,Georgia,Walton,280.4425,1019.805,73.02250000000001,0.26
447,30103,34.366609999999994,-84.92071,Adairsville,GA,Georgia,Bartow,278.52250000000004,1020.2625,76.66,0.2225
448,30110,33.742,-85.13332,Bremen,GA,Georgia,Haralson,280.2075,1019.7475,75.9525,0.245
449,30122,33.76298,-84.63819000000002,Lithia Springs,GA,Georgia,Douglas,280.2075,1019.7475,75.9525,0.245
450,30132,33.98839,-84.85866999999998,Dallas,GA,Georgia,Paulding,280.2075,1019.7475,75.9525,0.245
451,30139,34.43329,-84.70868,Fairmount,GA,Georgia,Gordon,280.2075,1019.7475,75.9525,0.245
452,30204,33.05729,-84.12512,Barnesville,GA,Georgia,Lamar,280.2075,1019.7475,75.9525,0.245
453,30216,33.23701,-83.88471,Flovilla,GA,Georgia,Butts,280.2075,1019.7475,75.9525,0.245
454,30217,33.28598,-85.1303,Franklin,GA,Georgia,Heard,280.2075,1019.7475,75.9525,0.245
455,30218,33.12743,-84.58358,Gay,GA,Georgia,Meriwether,280.2075,1019.7475,75.9525,0.245
456,30220,33.22505,-84.82432,Grantville,GA,Georgia,Coweta,280.2075,1019.7475,75.9525,0.245
457,30223,33.28629,-84.27968,Griffin,GA,Georgia,Spalding,280.2075,1019.7475,75.9525,0.245
458,30230,33.1642,-84.92214,Hogansville,GA,Georgia,Troup,283.9075,1019.6275,76.72749999999999,0.255
459,30236,33.52244,-84.32426,Jonesboro,GA,Georgia,Clayton,280.2075,1019.7475,75.9525,0.245
460,30285,32.98852,-84.24909,The Rock,GA,Georgia,Upson,280.2075,1019.7475,75.9525,0.245
461,30401,32.6005,-82.35204,Swainsboro,GA,Georgia,Emanuel,285.7925,1019.7974999999999,82.025,0.09
462,30411,32.12818,-82.79817,Alamo,GA,Georgia,Wheeler,285.7925,1019.7974999999999,82.025,0.09
463,30415,32.32629,-81.60191,Brooklet,GA,Georgia,Bulloch,285.7925,1019.7974999999999,82.025,0.09
464,30417,32.17323,-81.9202,Claxton,GA,Georgia,Evans,285.7925,1019.7974999999999,82.025,0.09
465,30420,32.28838,-82.15678,Cobbtown,GA,Georgia,Tattnall,285.7925,1019.7974999999999,82.025,0.09
466,30436,32.1519,-82.28907,Lyons,GA,Georgia,Toombs,285.7925,1019.7974999999999,82.025,0.09
467,30439,32.40569,-82.07648,Metter,GA,Georgia,Candler,285.7925,1019.7974999999999,82.025,0.09
468,30442,32.801790000000004,-81.98904,Millen,GA,Georgia,Jenkins,285.7925,1019.7974999999999,82.025,0.09
469,30446,32.56752,-81.46858,Newington,GA,Georgia,Screven,285.7925,1019.7974999999999,82.025,0.09
470,30457,32.40041,-82.5676,Soperton,GA,Georgia,Treutlen,285.7925,1019.7974999999999,82.025,0.09
471,30501,34.31855,-83.81615,Gainesville,GA,Georgia,Hall,280.4425,1019.805,73.02250000000001,0.26
472,30510,34.44178,-83.58277,Alto,GA,Georgia,Habersham,280.4425,1019.805,73.02250000000001,0.26
473,30511,34.45741,-83.476,Baldwin,GA,Georgia,Banks,280.4425,1019.805,73.02250000000001,0.26
474,30513,34.824259999999995,-84.31999,Blue Ridge,GA,Georgia,Fannin,278.52250000000004,1020.2625,76.66,0.2225
475,30516,34.37562,-83.03707,Bowersville,GA,Georgia,Hart,280.4425,1019.805,73.02250000000001,0.26
476,30525,34.9087,-83.37164,Clayton,GA,Georgia,Rabun,280.4425,1019.805,73.02250000000001,0.26
477,30528,34.61549,-83.79491999999998,Cleveland,GA,Georgia,White,280.4425,1019.805,73.02250000000001,0.26
478,30533,34.5641,-84.01541,Dahlonega,GA,Georgia,Lumpkin,280.4425,1019.805,73.02250000000001,0.26
479,30534,34.43887,-84.15074,Dawsonville,GA,Georgia,Dawson,280.2075,1019.7475,75.9525,0.245
480,30538,34.50406,-83.26611,Eastanollee,GA,Georgia,Stephens,280.4425,1019.805,73.02250000000001,0.26
481,30546,34.9088,-83.70729,Hiawassee,GA,Georgia,Towns,280.4425,1019.805,73.02250000000001,0.26
482,30619,33.85751,-83.24105,Arnoldsville,GA,Georgia,Oglethorpe,280.4425,1019.805,73.02250000000001,0.26
483,30624,34.18721,-83.04685,Bowman,GA,Georgia,Elbert,280.4425,1019.805,73.02250000000001,0.26
484,30631,33.5678,-82.87594,Crawfordville,GA,Georgia,Taliaferro,280.4425,1019.805,73.02250000000001,0.26
485,30705,34.750170000000004,-84.74898,Chatsworth,GA,Georgia,Murray,278.52250000000004,1020.2625,76.66,0.2225
486,30707,34.77638,-85.36036999999997,Chickamauga,GA,Georgia,Walker,278.52750000000003,1020.1275,76.5975,0.2175
487,30710,34.950590000000005,-84.91745999999998,Cohutta,GA,Georgia,Whitfield,278.52250000000004,1020.2625,76.66,0.2225
488,30726,34.97625,-85.13959,Graysville,GA,Georgia,Catoosa,278.52250000000004,1020.2625,76.66,0.2225
489,30730,34.35946,-85.42125,Lyerly,GA,Georgia,Chattooga,278.52750000000003,1020.1275,76.5975,0.2175
490,30738,34.79667,-85.47851999999997,Rising Fawn,GA,Georgia,Dade,278.52750000000003,1020.1275,76.5975,0.2175
491,30808,33.38342,-82.39349,Dearing,GA,Georgia,McDuffie,280.4425,1019.805,73.02250000000001,0.26
492,30810,33.23621,-82.58915,Gibson,GA,Georgia,Glascock,280.4425,1019.805,73.02250000000001,0.26
493,31001,31.97547,-83.34065,Abbeville,GA,Georgia,Wilcox,283.9075,1019.6275,76.72749999999999,0.255
494,31003,32.60626,-83.21248,Allentown,GA,Georgia,Wilkinson,280.4425,1019.805,73.02250000000001,0.26
495,31005,32.5444,-83.59733,Bonaire,GA,Georgia,Houston,283.9075,1019.6275,76.72749999999999,0.255
496,31007,32.18894,-83.93315,Byromville,GA,Georgia,Dooly,283.9075,1019.6275,76.72749999999999,0.255
497,31008,32.65603,-83.78253000000002,Byron,GA,Georgia,Peach,283.9075,1019.6275,76.72749999999999,0.255
498,31011,32.12692,-83.06217,Chauncey,GA,Georgia,Dodge,283.9075,1019.6275,76.72749999999999,0.255
499,31014,32.41366,-83.34473,Cochran,GA,Georgia,Bleckley,283.9075,1019.6275,76.72749999999999,0.255
500,31015,31.93552,-83.7753,Cordele,GA,Georgia,Crisp,283.9075,1019.6275,76.72749999999999,0.255
501,31017,32.61857,-83.23188,Danville,GA,Georgia,Twiggs,280.4425,1019.805,73.02250000000001,0.26
502,31037,32.11228,-82.92721,McRae Helena,GA,Georgia,Telfair,285.7925,1019.7974999999999,82.025,0.09
503,31049,32.68759,-82.52365999999998,Kite,GA,Georgia,Johnson,285.7925,1019.7974999999999,82.025,0.09
504,31052,32.77312,-83.84470999999998,Lizella,GA,Georgia,Bibb,283.9075,1019.6275,76.72749999999999,0.255
505,31061,33.076159999999994,-83.24655,Milledgeville,GA,Georgia,Baldwin,280.4425,1019.805,73.02250000000001,0.26
506,31301,31.75285,-81.60849,Allenhurst,GA,Georgia,Liberty,285.7925,1019.7974999999999,82.025,0.09
507,31302,32.12245,-81.34075,Bloomingdale,GA,Georgia,Effingham,285.7925,1019.7974999999999,82.025,0.09
508,31304,31.50906,-81.35236,Crescent,GA,Georgia,McIntosh,285.7925,1019.7974999999999,82.025,0.09
509,31308,32.17485,-81.48045,Ellabell,GA,Georgia,Bryan,285.7925,1019.7974999999999,82.025,0.09
510,31316,31.71717,-81.72851,Ludowici,GA,Georgia,Long,285.7925,1019.7974999999999,82.025,0.09
511,31501,31.22438,-82.35061,Waycross,GA,Georgia,Ware,288.3775,1019.7950000000001,79.225,0.165
512,31510,31.545820000000006,-82.44053000000002,Alma,GA,Georgia,Bacon,285.7925,1019.7974999999999,82.025,0.09
513,31512,31.54332,-83.01451,Ambrose,GA,Georgia,Coffee,286.375,1020.0325,79.1575,0.155
514,31513,31.77745,-82.34738,Baxley,GA,Georgia,Appling,285.7925,1019.7974999999999,82.025,0.09
515,31516,31.30995,-82.25525,Blackshear,GA,Georgia,Pierce,288.3775,1019.7950000000001,79.225,0.165
516,31520,31.18071,-81.49481999999998,Brunswick,GA,Georgia,Glynn,288.3775,1019.7950000000001,79.225,0.165
517,31532,31.72255,-82.75263000000002,Denton,GA,Georgia,Jeff Davis,285.7925,1019.7974999999999,82.025,0.09
518,31537,30.89309,-82.00974000000002,Folkston,GA,Georgia,Charlton,288.3775,1019.7950000000001,79.225,0.165
519,31542,31.14309,-82.12071,Hoboken,GA,Georgia,Brantley,288.3775,1019.7950000000001,79.225,0.165
520,31601,30.751590000000004,-83.34206999999998,Valdosta,GA,Georgia,Lowndes,286.375,1020.0325,79.1575,0.155
521,31620,31.11841,-83.43765,Adel,GA,Georgia,Cook,286.375,1020.0325,79.1575,0.155
522,31622,31.379590000000004,-83.20569,Alapaha,GA,Georgia,Berrien,286.375,1020.0325,79.1575,0.155
523,31623,31.07443,-82.64407,Argyle,GA,Georgia,Clinch,288.3775,1019.7950000000001,79.225,0.165
524,31624,31.29846,-82.72140999999998,Axson,GA,Georgia,Atkinson,288.3775,1019.7950000000001,79.225,0.165
525,31625,30.9931,-83.52844,Barney,GA,Georgia,Brooks,286.375,1020.0325,79.1575,0.155
526,31626,30.77558,-83.80105999999998,Boston,GA,Georgia,Thomas,286.375,1020.0325,79.1575,0.155
527,31635,31.10395,-83.05415,Lakeland,GA,Georgia,Lanier,286.375,1020.0325,79.1575,0.155
528,31648,30.70649,-83.01903,Statenville,GA,Georgia,Echols,286.375,1020.0325,79.1575,0.155
529,31701,31.55299,-84.15824,Albany,GA,Georgia,Dougherty,286.375,1020.0325,79.1575,0.155
530,31714,31.71538,-83.68522,Ashburn,GA,Georgia,Turner,283.9075,1019.6275,76.72749999999999,0.255
531,31722,31.06731,-83.62254,Berlin,GA,Georgia,Colquitt,286.375,1020.0325,79.1575,0.155
532,31733,31.59177,-83.48964000000002,Chula,GA,Georgia,Tift,286.375,1020.0325,79.1575,0.155
533,31750,31.73354,-83.21609000000002,Fitzgerald,GA,Georgia,Ben Hill,286.375,1020.0325,79.1575,0.155
534,31772,31.72508,-83.95683000000002,Oakfield,GA,Georgia,Worth,283.9075,1019.6275,76.72749999999999,0.255
535,31774,31.55876,-83.2738,Ocilla,GA,Georgia,Irwin,286.375,1020.0325,79.1575,0.155
536,31804,32.66248,-84.88516,Cataula,GA,Georgia,Harris,283.9075,1019.6275,76.72749999999999,0.255
537,31805,32.26851,-84.74498,Cusseta,GA,Georgia,Chattahoochee,283.9075,1019.6275,76.72749999999999,0.255
538,31806,32.26545,-84.30895,Ellaville,GA,Georgia,Schley,283.9075,1019.6275,76.72749999999999,0.255
539,31814,32.196940000000005,-84.85512,Louvale,GA,Georgia,Stewart,283.9075,1019.6275,76.72749999999999,0.255
540,31820,32.57942,-84.82601,Midland,GA,Georgia,Muscogee,283.9075,1019.6275,76.72749999999999,0.255
541,32008,29.91651,-82.91313000000002,Branford,FL,Florida,Suwannee,288.345,1019.9975,81.14999999999999,0.0925
542,32033,29.78899,-81.44175,Elkton,FL,Florida,St. Johns,288.3775,1019.7950000000001,79.225,0.165
543,32040,30.24347,-82.23885,Glen Saint Mary,FL,Florida,Baker,288.3775,1019.7950000000001,79.225,0.165
544,32066,30.03677,-83.23398,Mayo,FL,Florida,Lafayette,288.345,1019.9975,81.14999999999999,0.0925
545,32102,29.1468,-81.56166,Astor,FL,Florida,Lake,291.2525,1018.275,79.52250000000001,0.14
546,32110,29.42166,-81.33933,Bunnell,FL,Florida,Flagler,291.2525,1018.275,79.52250000000001,0.14
547,32114,29.19393,-81.05145,Daytona Beach,FL,Florida,Volusia,291.2525,1018.275,79.52250000000001,0.14
548,32202,30.32503,-81.64801999999997,Jacksonville,FL,Florida,Duval,288.3775,1019.7950000000001,79.225,0.165
549,32301,30.42563,-84.25823000000003,Tallahassee,FL,Florida,Leon,286.375,1020.0325,79.1575,0.155
550,32324,30.6525,-84.79151999999998,Chattahoochee,FL,Florida,Gadsden,286.375,1020.0325,79.1575,0.155
551,32327,30.18667,-84.30565,Crawfordville,FL,Florida,Wakulla,286.375,1020.0325,79.1575,0.155
552,32401,30.15978,-85.6608,Panama City,FL,Florida,Bay,286.375,1020.0325,79.1575,0.155
553,32425,30.85518,-85.72081999999997,Bonifay,FL,Florida,Holmes,286.375,1020.0325,79.1575,0.155
554,32456,29.80713,-85.30265,Port Saint Joe,FL,Florida,Gulf,286.375,1020.0325,79.1575,0.155
555,32501,30.4284,-87.22238,Pensacola,FL,Florida,Escambia,284.685,1018.89,79.465,0.34500000000000003
556,32530,30.59823,-87.03036999999998,Bagdad,FL,Florida,Santa Rosa,284.685,1018.89,79.465,0.34500000000000003
557,32531,30.87685,-86.69100999999998,Baker,FL,Florida,Okaloosa,284.685,1018.89,79.465,0.34500000000000003
558,32601,29.64888,-82.32498000000002,Gainesville,FL,Florida,Alachua,288.345,1019.9975,81.14999999999999,0.0925
559,32619,29.76169,-82.86261999999998,Bell,FL,Florida,Gilchrist,288.345,1019.9975,81.14999999999999,0.0925
560,32621,29.42527,-82.62331,Bronson,FL,Florida,Levy,288.345,1019.9975,81.14999999999999,0.0925
561,32628,29.63725,-83.20312,Cross City,FL,Florida,Dixie,288.345,1019.9975,81.14999999999999,0.0925
562,32701,28.665340000000004,-81.36943000000002,Altamonte Springs,FL,Florida,Seminole,291.2525,1018.275,79.52250000000001,0.14
563,32754,28.68916,-80.9262,Mims,FL,Florida,Brevard,291.2525,1018.275,79.52250000000001,0.14
564,32948,27.88946,-80.73348,Fellsmere,FL,Florida,Indian River,292.6875,1019.0625,82.26499999999999,0.13499999999999998
565,33004,26.0579,-80.13852,Dania,FL,Florida,Broward,295.84499999999997,1018.635,76.13499999999999,0.10749999999999998
566,33010,25.833,-80.27868000000002,Hialeah,FL,Florida,Miami-Dade,295.8375,1018.7625,76.315,0.11249999999999999
567,33401,26.71645,-80.06779,West Palm Beach,FL,Florida,Palm Beach,295.69,1018.73,76.7575,0.1925
568,33440,26.54379,-81.03645,Clewiston,FL,Florida,Hendry,295.69,1018.73,76.7575,0.1925
569,33471,26.88424,-81.19281,Moore Haven,FL,Florida,Glades,293.185,1018.81,80.80000000000001,0.0325
570,33523,28.4247,-82.2184,Dade City,FL,Florida,Pasco,291.245,1019.7575,79.9125,0.1325
571,33701,27.77041,-82.6357,Saint Petersburg,FL,Florida,Pinellas,291.32250000000005,1018.6225,83.2775,0.0925
572,33825,27.6243,-81.46502,Avon Park,FL,Florida,Highlands,291.245,1019.7575,79.9125,0.1325
573,33834,27.60298,-81.99235999999998,Bowling Green,FL,Florida,Hardee,291.245,1019.7575,79.9125,0.1325
574,33848,28.2774,-81.50688000000002,Intercession City,FL,Florida,Osceola,291.2525,1018.275,79.52250000000001,0.14
575,34101,26.04632,-81.76799,Naples,FL,Florida,Collier,293.185,1018.81,80.80000000000001,0.0325
576,34201,27.4028,-82.4678,Bradenton,FL,Florida,Manatee,291.32250000000005,1018.6225,83.2775,0.0925
577,34223,26.98035,-82.35198000000003,Englewood,FL,Florida,Sarasota,293.185,1018.81,80.80000000000001,0.0325
578,34266,27.19002,-81.8263,Arcadia,FL,Florida,DeSoto,293.185,1018.81,80.80000000000001,0.0325
579,34428,28.96087,-82.63391999999997,Crystal River,FL,Florida,Citrus,288.345,1019.9975,81.14999999999999,0.0925
580,34601,28.59026,-82.36482,Brooksville,FL,Florida,Hernando,291.245,1019.4875,79.67,0.11250000000000002
581,34945,27.43798,-80.55733000000002,Fort Pierce,FL,Florida,St. Lucie,293.3425,1018.53,80.5075,0.1
582,34972,27.50653,-80.92711,Okeechobee,FL,Florida,Okeechobee,293.3425,1018.53,80.5075,0.1
583,35004,33.60281,-86.49611999999998,Moody,AL,Alabama,St. Clair,280.515,1019.8025,75.23249999999999,0.2625
584,35007,33.21591,-86.79717,Alabaster,AL,Alabama,Shelby,280.515,1019.8025,75.23249999999999,0.2625
585,35010,32.91644,-85.9368,Alexander City,AL,Alabama,Tallapoosa,282.6825,1020.105,76.9,0.29000000000000004
586,35013,33.90164,-86.51785,Allgood,AL,Alabama,Blount,280.515,1019.8025,75.23249999999999,0.2625
587,35014,33.35989,-86.26918,Alpine,AL,Alabama,Talladega,280.515,1019.8025,75.23249999999999,0.2625
588,35019,34.29852,-86.63523,Baileyton,AL,Alabama,Cullman,278.565,1019.0525,77.695,0.2825
589,35045,32.80704,-86.67285,Clanton,AL,Alabama,Chilton,282.6825,1020.105,76.9,0.29000000000000004
590,35072,33.08977,-86.06138,Goodwater,AL,Alabama,Coosa,282.6825,1020.105,76.9,0.29000000000000004
591,35111,33.284240000000004,-87.09455,McCalla,AL,Alabama,Tuscaloosa,280.515,1019.8025,75.23249999999999,0.2625
592,35441,32.85373,-87.73859,Akron,AL,Alabama,Hale,280.515,1019.8025,75.23249999999999,0.2625
593,35540,34.23388,-87.18817,Addison,AL,Alabama,Winston,278.565,1019.0525,77.695,0.2825
594,35610,34.95098,-87.24209,Anderson,AL,Alabama,Lauderdale,278.565,1019.0525,77.695,0.2825
595,35611,34.7671,-87.08566,Athens,AL,Alabama,Limestone,278.565,1019.0525,77.695,0.2825
596,35616,34.73885,-88.01897,Cherokee,AL,Alabama,Colbert,278.565,1019.0525,77.695,0.2825
597,35901,34.04799000000001,-85.9246,Gadsden,AL,Alabama,Etowah,278.565,1019.0525,77.695,0.2825
598,36003,32.45323,-86.72386999999998,Autaugaville,AL,Alabama,Autauga,282.6825,1020.105,76.9,0.29000000000000004
599,36009,31.58356,-86.29694,Brantley,AL,Alabama,Crenshaw,282.6825,1020.105,76.9,0.29000000000000004
600,36020,32.48818,-86.3193,Coosada,AL,Alabama,Elmore,282.6825,1020.105,76.9,0.29000000000000004
601,36028,31.49916,-86.38884,Dozier,AL,Alabama,Covington,282.6825,1020.105,76.9,0.29000000000000004
602,36029,32.1779,-85.93363000000002,Fitzpatrick,AL,Alabama,Bullock,282.6825,1020.105,76.9,0.29000000000000004
603,36262,33.78757,-85.46555,Fruithurst,AL,Alabama,Cleburne,280.2075,1019.7475,75.9525,0.245
604,36311,31.60246,-85.68151,Ariton,AL,Alabama,Dale,282.6825,1020.105,76.9,0.29000000000000004
605,36313,31.1786,-85.79394,Bellwood,AL,Alabama,Geneva,282.6825,1020.105,76.9,0.29000000000000004
606,36401,31.47366,-86.9493,Evergreen,AL,Alabama,Conecuh,282.6825,1020.105,76.9,0.29000000000000004
607,36505,30.94264,-88.01644,Axis,AL,Alabama,Mobile,284.685,1018.89,79.465,0.34500000000000003
608,36701,32.47679,-87.05709,Selma,AL,Alabama,Dallas,282.6825,1020.105,76.9,0.29000000000000004
609,36732,32.42337,-87.9152,Demopolis,AL,Alabama,Marengo,282.6825,1020.105,76.9,0.29000000000000004
610,36854,32.75379,-85.18444000000002,Valley,AL,Alabama,Chambers,283.9075,1019.6275,76.72749999999999,0.255
611,36904,32.10202,-88.25861,Butler,AL,Alabama,Choctaw,284.685,1018.89,79.465,0.34500000000000003
612,37014,35.86957,-86.65754,Arrington,TN,Tennessee,Williamson,277.1825,1020.1425,77.925,0.1875
613,37015,36.28416,-87.07721,Ashland City,TN,Tennessee,Cheatham,276.885,1020.4425,71.7725,0.19
614,37016,35.95746,-86.10025,Auburntown,TN,Tennessee,Cannon,277.1825,1020.1425,77.925,0.1875
615,37022,36.50014,-86.31075,Bethpage,TN,Tennessee,Sumner,276.885,1020.4425,71.7725,0.19
616,37025,35.9487,-87.30774,Bon Aqua,TN,Tennessee,Hickman,276.885,1020.4425,71.7725,0.19
617,37029,36.04186,-87.26451999999998,Burns,TN,Tennessee,Dickson,276.885,1020.4425,71.7725,0.19
618,37030,36.27439,-85.94758,Carthage,TN,Tennessee,Smith,277.1825,1020.1425,77.925,0.1875
619,37032,36.52424,-87.01714,Cedar Hill,TN,Tennessee,Robertson,278.65999999999997,1019.55,77.17750000000001,0.16999999999999998
620,37074,36.41897,-86.14428000000002,Hartsville,TN,Tennessee,Trousdale,276.885,1020.4425,71.7725,0.19
621,37078,35.92275,-87.76786,Hurricane Mills,TN,Tennessee,Humphreys,278.65999999999997,1019.55,77.17750000000001,0.16999999999999998
622,37301,35.41970999999999,-85.79526,Altamont,TN,Tennessee,Grundy,278.52750000000003,1020.1275,76.5975,0.2175
623,37303,35.4407,-84.64319,Athens,TN,Tennessee,McMinn,278.52250000000004,1020.2625,76.66,0.2225
624,37310,35.26387000000001,-84.78005,Charleston,TN,Tennessee,Bradley,278.52250000000004,1020.2625,76.66,0.2225
625,37321,35.50222,-85.00766999999998,Dayton,TN,Tennessee,Rhea,278.52250000000004,1020.2625,76.66,0.2225
626,37322,35.49567000000001,-84.81600999999998,Decatur,TN,Tennessee,Meigs,278.52250000000004,1020.2625,76.66,0.2225
627,37327,35.42277,-85.40585,Dunlap,TN,Tennessee,Sequatchie,278.52250000000004,1020.2625,76.66,0.2225
628,37367,35.63171,-85.2266,Pikeville,TN,Tennessee,Bledsoe,278.52250000000004,1020.2625,76.66,0.2225
629,37642,36.52903,-82.72991,Church Hill,TN,Tennessee,Hawkins,277.375,1020.0125,79.19749999999999,0.23500000000000001
630,37643,36.37734,-82.13641,Elizabethton,TN,Tennessee,Carter,277.375,1020.0125,79.19749999999999,0.23500000000000001
631,37650,36.10446,-82.45622,Erwin,TN,Tennessee,Unicoi,277.375,1020.0125,79.19749999999999,0.23500000000000001
632,37708,36.32525,-83.33404,Bean Station,TN,Tennessee,Grainger,277.375,1020.0125,79.19749999999999,0.23500000000000001
633,37713,36.09017,-83.13206,Bybee,TN,Tennessee,Cocke,277.375,1020.0125,79.19749999999999,0.23500000000000001
634,37715,36.55424,-83.96049000000002,Clairfield,TN,Tennessee,Claiborne,277.375,1020.0125,79.19749999999999,0.23500000000000001
635,37738,35.6702,-83.47480999999998,Gatlinburg,TN,Tennessee,Sevier,277.375,1020.0125,79.19749999999999,0.23500000000000001
636,37742,35.6754,-84.18028000000002,Greenback,TN,Tennessee,Loudon,277.375,1020.0125,79.19749999999999,0.23500000000000001
637,37813,36.176,-83.26505999999998,Morristown,TN,Tennessee,Hamblen,277.375,1020.0125,79.19749999999999,0.23500000000000001
638,38001,35.81094,-89.15658,Alamo,TN,Tennessee,Crockett,277.06500000000005,1021.0224999999999,75.6925,0.145
639,38004,35.41885,-89.76739,Atoka,TN,Tennessee,Tipton,277.06500000000005,1021.0224999999999,75.6925,0.145
640,38007,36.15948,-89.4271,Bogota,TN,Tennessee,Dyer,277.06500000000005,1021.0224999999999,75.6925,0.145
641,38008,35.24682,-88.99499,Bolivar,TN,Tennessee,Hardeman,277.06500000000005,1021.0224999999999,75.6925,0.145
642,38221,36.24504,-88.03583,Big Sandy,TN,Tennessee,Benton,278.65999999999997,1019.55,77.17750000000001,0.16999999999999998
643,38225,36.32087,-88.67904,Dresden,TN,Tennessee,Weakley,278.65999999999997,1019.55,77.17750000000001,0.16999999999999998
644,38232,36.34943,-89.32268,Hornbeak,TN,Tennessee,Obion,277.06500000000005,1021.0224999999999,75.6925,0.145
645,38233,36.20283,-89.04853,Kenton,TN,Tennessee,Gibson,277.06500000000005,1021.0224999999999,75.6925,0.145
646,38310,35.25849,-88.39883,Adamsville,TN,Tennessee,McNairy,277.06500000000005,1021.0224999999999,75.6925,0.145
647,38311,35.43642,-88.10553,Bath Springs,TN,Tennessee,Decatur,278.65999999999997,1019.55,77.17750000000001,0.16999999999999998
648,38326,35.05788,-88.28787,Counce,TN,Tennessee,Hardin,278.565,1019.0525,77.695,0.2825
649,38401,35.62902000000001,-87.02062,Columbia,TN,Tennessee,Maury,277.1825,1020.1425,77.925,0.1875
650,38504,36.39558,-84.72439,Allardt,TN,Tennessee,Fentress,277.375,1020.0125,79.19749999999999,0.23500000000000001
651,38541,36.52956,-85.33738000000002,Allons,TN,Tennessee,Overton,277.1825,1020.1425,77.925,0.1875
652,38549,36.56081,-85.1516,Byrdstown,TN,Tennessee,Pickett,277.375,1020.0125,79.19749999999999,0.23500000000000001
653,38585,35.69355,-85.42668,Spencer,TN,Tennessee,Van Buren,278.52250000000004,1020.2625,76.66,0.2225
654,38606,34.30467,-89.95591999999998,Batesville,MS,Mississippi,Panola,277.025,1021.5074999999999,76.4475,0.11
655,38610,34.65293,-89.02614,Blue Mountain,MS,Mississippi,Tippah,277.025,1021.5074999999999,76.4475,0.11
656,38614,34.155770000000004,-90.60406,Clarksdale,MS,Mississippi,Coahoma,277.025,1021.5074999999999,76.4475,0.11
657,38618,34.70124000000001,-89.93036,Coldwater,MS,Mississippi,Tate,277.025,1021.5074999999999,76.4475,0.11
658,38622,34.1719,-90.1385,Crowder,MS,Mississippi,Quitman,277.025,1021.5074999999999,76.4475,0.11
659,38626,34.51367,-90.41775,Dundee,MS,Mississippi,Tunica,277.025,1021.5074999999999,76.4475,0.11
660,38702,33.5361,-91.1795,Greenville,MS,Mississippi,Bolivar,281.4275,1020.8375000000001,77.71000000000001,0.325
661,38704,33.00716,-91.02129,Greenville,MS,Mississippi,Issaquena,281.4275,1020.8375000000001,77.71000000000001,0.325
662,38721,32.98404,-90.7504,Anguilla,MS,Mississippi,Sharkey,281.4275,1020.8375000000001,77.71000000000001,0.325
663,38736,33.64538,-90.53814,Doddsville,MS,Mississippi,Sunflower,281.4275,1020.8375000000001,77.71000000000001,0.325
664,38824,34.52038,-88.64307,Baldwyn,MS,Mississippi,Prentiss,277.025,1021.5074999999999,76.4475,0.11
665,38827,34.53265,-88.20043000000003,Belmont,MS,Mississippi,Tishomingo,278.565,1019.0525,77.695,0.2825
666,38834,34.91545,-88.5635,Corinth,MS,Mississippi,Alcorn,277.025,1021.5074999999999,76.4475,0.11
667,38841,34.35127,-89.01666999999998,Ecru,MS,Mississippi,Pontotoc,277.025,1021.5074999999999,76.4475,0.11
668,38843,34.264959999999995,-88.37564,Fulton,MS,Mississippi,Itawamba,280.515,1019.8025,75.23249999999999,0.2625
669,38850,34.04896,-89.05309,Houlka,MS,Mississippi,Chickasaw,277.025,1021.5074999999999,76.4475,0.11
670,38901,33.76161,-89.80425,Grenada,MS,Mississippi,Grenada,277.025,1021.5074999999999,76.4475,0.11
671,38920,33.87636,-90.06536,Cascilla,MS,Mississippi,Tallahatchie,277.025,1021.5074999999999,76.4475,0.11
672,38922,33.9312,-89.64492,Coffeeville,MS,Mississippi,Yalobusha,277.025,1021.5074999999999,76.4475,0.11
673,38930,33.54541,-90.14512,Greenwood,MS,Mississippi,Leflore,281.4275,1020.8375000000001,77.71000000000001,0.325
674,39039,32.81969,-90.22506,Benton,MS,Mississippi,Yazoo,281.4275,1020.8375000000001,77.71000000000001,0.325
675,39041,32.41376,-90.47335,Bolton,MS,Mississippi,Hinds,281.4275,1020.8375000000001,77.71000000000001,0.325
676,39042,32.21203,-89.88861999999997,Brandon,MS,Mississippi,Rankin,281.4275,1020.8375000000001,77.71000000000001,0.325
677,39044,32.02921,-89.97299,Braxton,MS,Mississippi,Simpson,281.4275,1020.8375000000001,77.71000000000001,0.325
678,39051,32.78825,-89.50044,Carthage,MS,Mississippi,Leake,281.4275,1020.8375000000001,77.71000000000001,0.325
679,39059,31.98234,-90.35549,Crystal Springs,MS,Mississippi,Copiah,281.4275,1020.8375000000001,77.71000000000001,0.325
680,39067,33.11031,-89.4467,Ethel,MS,Mississippi,Attala,281.4275,1020.8375000000001,77.71000000000001,0.325
681,39328,32.74432,-88.70075,De Kalb,MS,Mississippi,Kemper,281.4275,1020.8375000000001,77.71000000000001,0.325
682,39341,33.10052,-88.56203000000002,Macon,MS,Mississippi,Noxubee,280.515,1019.8025,75.23249999999999,0.2625
683,39350,32.79578,-89.12848000000002,Philadelphia,MS,Mississippi,Neshoba,281.4275,1020.8375000000001,77.71000000000001,0.325
684,39401,31.23265,-89.26717,Hattiesburg,MS,Mississippi,Forrest,284.685,1018.89,79.465,0.34500000000000003
685,39421,31.48476,-89.712,Bassfield,MS,Mississippi,Jefferson Davis,281.4275,1020.8375000000001,77.71000000000001,0.325
686,39426,30.65371,-89.66105999999998,Carriere,MS,Mississippi,Pearl River,285.28,1020.1875,77.59,0.26
687,39452,30.87871,-88.5996,Lucedale,MS,Mississippi,George,284.685,1018.89,79.465,0.34500000000000003
688,39561,30.70499,-89.15505,McHenry,MS,Mississippi,Stone,284.685,1018.89,79.465,0.34500000000000003
689,39638,31.22602,-90.9935,Gloster,MS,Mississippi,Amite,283.6375,1019.965,73.9425,0.30500000000000005
690,39641,31.3567,-90.16983,Jayess,MS,Mississippi,Walthall,281.4275,1020.8375000000001,77.71000000000001,0.325
691,39759,33.43662,-88.82643,Starkville,MS,Mississippi,Oktibbeha,281.4275,1020.8375000000001,77.71000000000001,0.325
692,39823,31.3321,-84.94157,Blakely,GA,Georgia,Early,286.375,1020.0325,79.1575,0.155
693,39826,31.81995,-84.33814,Bronwood,GA,Georgia,Terrell,283.9075,1019.6275,76.72749999999999,0.255
694,39827,30.95275,-84.20685999999998,Cairo,GA,Georgia,Grady,286.375,1020.0325,79.1575,0.155
695,39837,31.15273,-84.67304,Colquitt,GA,Georgia,Miller,286.375,1020.0325,79.1575,0.155
696,40006,38.59161,-85.32669,Bedford,KY,Kentucky,Trimble,274.765,1020.09,75.65,0.1575
697,40010,38.37351,-85.45073000000002,Buckner,KY,Kentucky,Oldham,274.765,1020.09,75.65,0.1575
698,40046,38.02262,-85.17421999999998,Mount Eden,KY,Kentucky,Spencer,274.765,1020.09,75.65,0.1575
699,40047,38.03973,-85.55479,Mount Washington,KY,Kentucky,Bullitt,274.765,1020.09,75.65,0.1575
700,40104,38.09162,-86.34151999999997,Battletown,KY,Kentucky,Meade,274.765,1020.09,75.65,0.1575
701,40111,37.77313,-86.62819,Cloverport,KY,Kentucky,Breckinridge,274.115,1020.8325,77.925,0.11000000000000001
702,40312,37.85237,-83.93091,Clay City,KY,Kentucky,Powell,274.85249999999996,1019.1274999999999,78.0425,0.1
703,40316,37.93128,-83.52924,Denniston,KY,Kentucky,Menifee,274.805,1017.33,77.3025,0.095
704,40336,37.68573,-83.98616,Irvine,KY,Kentucky,Estill,274.85249999999996,1019.1274999999999,78.0425,0.1
705,40339,37.94188,-84.6443,Keene,KY,Kentucky,Jessamine,274.85249999999996,1019.1274999999999,78.0425,0.1
706,40347,38.15843,-84.7156,Midway,KY,Kentucky,Woodford,274.805,1017.33,77.3025,0.095
707,40348,38.28739,-84.1321,Millersburg,KY,Kentucky,Bourbon,274.805,1017.33,77.3025,0.095
708,40359,38.48924,-84.81944,Owenton,KY,Kentucky,Owen,274.805,1017.33,77.3025,0.095
709,40391,37.96942,-84.14518000000002,Winchester,KY,Kentucky,Clark,274.805,1017.33,77.3025,0.095
710,40409,37.37759000000001,-84.43294,Brodhead,KY,Kentucky,Rockcastle,274.85249999999996,1019.1274999999999,78.0425,0.1
711,40422,37.63786,-84.80074,Danville,KY,Kentucky,Boyle,274.85249999999996,1019.1274999999999,78.0425,0.1
712,40444,37.6792,-84.58843,Lancaster,KY,Kentucky,Garrard,274.85249999999996,1019.1274999999999,78.0425,0.1
713,40701,36.91957,-84.16358000000002,Corbin,KY,Kentucky,Whitley,277.375,1020.0125,79.19749999999999,0.23500000000000001
714,40729,37.24779,-84.13499,East Bernstadt,KY,Kentucky,Laurel,274.85249999999996,1019.1274999999999,78.0425,0.1
715,40801,36.86064,-83.24816,Ages Brookside,KY,Kentucky,Harlan,277.375,1020.0125,79.19749999999999,0.23500000000000001
716,40813,36.72773,-83.59300999999998,Calvin,KY,Kentucky,Bell,277.375,1020.0125,79.19749999999999,0.23500000000000001
717,40816,37.00448,-83.29736,Chappell,KY,Kentucky,Leslie,277.375,1020.0125,79.19749999999999,0.23500000000000001
718,40826,37.05391,-82.78090999999998,Eolia,KY,Kentucky,Letcher,277.375,1020.0125,79.19749999999999,0.23500000000000001
719,41002,38.73062,-83.98266,Augusta,KY,Kentucky,Bracken,273.21000000000004,1016.9949999999999,77.8,0.16249999999999998
720,41011,39.06795,-84.52955,Covington,KY,Kentucky,Kenton,273.21000000000004,1016.9949999999999,77.8,0.16249999999999998
721,41039,38.41149,-83.88076,Ewing,KY,Kentucky,Fleming,274.805,1017.33,77.3025,0.095
722,41046,38.71962,-84.80179,Glencoe,KY,Kentucky,Gallatin,273.21000000000004,1016.9949999999999,77.8,0.16249999999999998
723,41101,38.47222,-82.64601,Ashland,KY,Kentucky,Boyd,274.805,1017.33,77.3025,0.095
724,41121,38.44573,-82.83391999999998,Argillite,KY,Kentucky,Greenup,274.805,1017.33,77.3025,0.095
725,41149,38.06423,-83.03927,Isonville,KY,Kentucky,Elliott,274.805,1017.33,77.3025,0.095
726,41301,37.71939,-83.50059,Campton,KY,Kentucky,Wolfe,274.85249999999996,1019.1274999999999,78.0425,0.1
727,41314,37.42586,-83.6404,Booneville,KY,Kentucky,Owsley,274.85249999999996,1019.1274999999999,78.0425,0.1
728,41317,37.44763,-83.18915,Clayhole,KY,Kentucky,Breathitt,274.85249999999996,1019.1274999999999,78.0425,0.1
729,41464,37.66765,-82.97331,Royalton,KY,Kentucky,Magoffin,274.85249999999996,1019.1274999999999,78.0425,0.1
730,41643,37.46001,-82.8326,Lackey,KY,Kentucky,Knott,274.85249999999996,1019.1274999999999,78.0425,0.1
731,42001,37.03762,-88.71089,Paducah,KY,Kentucky,McCracken,278.65999999999997,1019.55,77.17750000000001,0.16999999999999998
732,42020,36.69232,-88.29296,Almo,KY,Kentucky,Calloway,278.65999999999997,1019.55,77.17750000000001,0.16999999999999998
733,42021,36.80481,-89.02655,Arlington,KY,Kentucky,Carlisle,278.65999999999997,1019.55,77.17750000000001,0.16999999999999998
734,42022,37.1459,-88.94554000000002,Bandana,KY,Kentucky,Ballard,274.115,1020.8325,77.925,0.11000000000000001
735,42027,36.91631,-88.62850999999998,Boaz,KY,Kentucky,Graves,278.65999999999997,1019.55,77.17750000000001,0.16999999999999998
736,42037,37.17273,-88.18779,Dycusburg,KY,Kentucky,Crittenden,278.65999999999997,1019.55,77.17750000000001,0.16999999999999998
737,42038,37.04143,-88.02225,Eddyville,KY,Kentucky,Lyon,278.65999999999997,1019.55,77.17750000000001,0.16999999999999998
738,42120,36.6711,-86.2697,Adolphus,KY,Kentucky,Allen,276.885,1020.4425,71.7725,0.19
739,42123,36.82162,-85.98925,Austin,KY,Kentucky,Barren,276.885,1020.4425,71.7725,0.19
740,42124,36.87052,-85.64393000000003,Beaumont,KY,Kentucky,Metcalfe,276.885,1020.4425,71.7725,0.19
741,42163,37.0791,-86.13414,Rocky Hill,KY,Kentucky,Edmonson,276.885,1020.4425,71.7725,0.19
742,42204,36.6958,-87.07358,Allensville,KY,Kentucky,Todd,278.65999999999997,1019.55,77.17750000000001,0.16999999999999998
743,42211,36.82146,-87.83899,Cadiz,KY,Kentucky,Trigg,278.65999999999997,1019.55,77.17750000000001,0.16999999999999998
744,42215,36.99698,-87.66707,Cerulean,KY,Kentucky,Christian,278.65999999999997,1019.55,77.17750000000001,0.16999999999999998
745,42301,37.74038,-87.24615,Owensboro,KY,Kentucky,Daviess,274.115,1020.8325,77.925,0.11000000000000001
746,42321,37.17156,-87.05596,Beech Creek,KY,Kentucky,Muhlenberg,278.65999999999997,1019.55,77.17750000000001,0.16999999999999998
747,42322,37.61369000000001,-87.39532,Beech Grove,KY,Kentucky,McLean,274.115,1020.8325,77.925,0.11000000000000001
748,42408,37.18064,-87.6943,Dawson Springs,KY,Kentucky,Hopkins,278.65999999999997,1019.55,77.17750000000001,0.16999999999999998
749,42516,37.22715,-84.7786,Bethelridge,KY,Kentucky,Casey,274.85249999999996,1019.1274999999999,78.0425,0.1
750,42631,36.73965,-84.48031999999998,Marshes Siding,KY,Kentucky,McCreary,277.375,1020.0125,79.19749999999999,0.23500000000000001
751,42715,36.95294000000001,-85.39256,Breeding,KY,Kentucky,Adair,274.85249999999996,1019.1274999999999,78.0425,0.1
752,42716,37.47647,-85.60847,Buffalo,KY,Kentucky,Larue,274.765,1020.09,75.65,0.1575
753,42743,37.22893,-85.53081999999998,Greensburg,KY,Kentucky,Green,274.765,1020.09,75.65,0.1575
754,43001,40.08865,-82.61366,Alexandria,OH,Ohio,Licking,271.96750000000003,1018.275,78.4575,0.0975
755,43009,40.17253,-83.64152,Cable,OH,Ohio,Champaign,271.96750000000003,1018.275,78.4575,0.0975
756,43101,39.46464,-82.74563,Adelphi,OH,Ohio,Ross,271.96750000000003,1018.275,78.4575,0.0975
757,43103,39.7257,-82.93543000000003,Ashville,OH,Ohio,Pickaway,271.96750000000003,1018.275,78.4575,0.0975
758,43111,39.50207,-82.24238000000003,Carbon Hill,OH,Ohio,Hocking,271.96750000000003,1018.275,78.4575,0.0975
759,43315,40.48322,-82.87768,Cardington,OH,Ohio,Morrow,271.96750000000003,1018.275,78.4575,0.0975
760,43316,40.95416,-83.3808,Carey,OH,Ohio,Wyandot,270.375,1017.6875,79.8275,0.075
761,43407,41.27787,-83.2494,Burgoon,OH,Ohio,Sandusky,270.375,1017.6875,79.8275,0.075
762,43408,41.57185,-83.36346,Clay Center,OH,Ohio,Ottawa,270.375,1017.6875,79.8275,0.075
763,43412,41.627,-83.32311,Curtice,OH,Ohio,Lucas,270.375,1017.6875,79.8275,0.075
764,43501,41.6725,-84.45725999999998,Alvordton,OH,Ohio,Williams,270.375,1017.6875,79.8275,0.075
765,43512,41.30271,-84.35806,Defiance,OH,Ohio,Defiance,269.97749999999996,1017.4950000000001,78.61250000000001,0.0675
766,43701,39.96008,-81.99398000000002,Zanesville,OH,Ohio,Muskingum,271.96750000000003,1018.275,78.4575,0.0975
767,43711,39.84213,-81.57748000000002,Ava,OH,Ohio,Noble,271.96750000000003,1018.275,78.4575,0.0975
768,43713,39.98808,-81.17407,Barnesville,OH,Ohio,Belmont,272.40999999999997,1017.0550000000001,77.96249999999999,0.1125
769,43722,39.9192,-81.51756,Buffalo,OH,Ohio,Guernsey,271.96750000000003,1018.275,78.4575,0.0975
770,43805,40.39337,-81.97258000000002,Blissfield,OH,Ohio,Coshocton,271.31,1017.175,78.7975,0.1125
771,43832,40.27482,-81.58244,Newcomerstown,OH,Ohio,Tuscarawas,271.31,1017.175,78.7975,0.1125
772,43920,40.67851,-80.5832,East Liverpool,OH,Ohio,Columbiana,272.40999999999997,1017.0550000000001,77.96249999999999,0.1125
773,44001,41.36493,-82.26176,Amherst,OH,Ohio,Lorain,271.47999999999996,1017.2825,77.0975,0.15000000000000002
774,44003,41.62142,-80.58599,Andover,OH,Ohio,Ashtabula,270.91499999999996,1016.6275,77.78750000000001,0.1375
775,44017,41.36865,-81.86317,Berea,OH,Ohio,Cuyahoga,271.47999999999996,1017.2825,77.0975,0.15000000000000002
776,44021,41.44167,-81.14743,Burton,OH,Ohio,Geauga,271.47999999999996,1017.2825,77.0975,0.15000000000000002
777,44056,41.31492,-81.49831999999998,Macedonia,OH,Ohio,Summit,271.31,1017.175,78.7975,0.1125
778,44201,41.02682,-81.17928,Atwater,OH,Ohio,Portage,271.31,1017.175,78.7975,0.1125
779,44212,41.24342,-81.82951,Brunswick,OH,Ohio,Medina,271.47999999999996,1017.2825,77.0975,0.15000000000000002
780,44401,41.02259,-80.94521,Berlin Center,OH,Ohio,Mahoning,271.31,1017.175,78.7975,0.1125
781,44402,41.38663,-80.85424,Bristolville,OH,Ohio,Trumbull,271.31,1017.175,78.7975,0.1125
782,44601,40.91936,-81.13023000000003,Alliance,OH,Ohio,Stark,271.31,1017.175,78.7975,0.1125
783,44805,40.87291,-82.31688,Ashland,OH,Ohio,Ashland,271.31,1017.175,78.7975,0.1125
784,44826,41.2408,-82.48009,Collins,OH,Ohio,Huron,271.47999999999996,1017.2825,77.0975,0.15000000000000002
785,45003,39.58696,-84.78787,College Corner,OH,Ohio,Preble,272.28,1018.7874999999999,78.04,0.1225
786,45101,38.69055,-83.74129,Aberdeen,OH,Ohio,Brown,273.21000000000004,1016.9949999999999,77.8,0.16249999999999998
787,45102,39.01712,-84.20427,Amelia,OH,Ohio,Clermont,273.21000000000004,1016.9949999999999,77.8,0.16249999999999998
788,45303,40.21593,-84.65781,Ansonia,OH,Ohio,Darke,272.28,1018.7874999999999,78.04,0.1225
789,45312,40.06026,-84.08027,Casstown,OH,Ohio,Miami,272.28,1018.7874999999999,78.04,0.1225
790,45614,38.92975,-82.27709,Bidwell,OH,Ohio,Gallia,271.96750000000003,1018.275,78.4575,0.0975
791,45622,39.37557,-82.49937,Creola,OH,Ohio,Vinton,271.96750000000003,1018.275,78.4575,0.0975
792,45629,38.64971,-82.81286,Franklin Furnace,OH,Ohio,Scioto,271.96750000000003,1018.275,78.4575,0.0975
793,45701,39.31358,-82.08214,Athens,OH,Ohio,Athens,271.96750000000003,1018.275,78.4575,0.0975
794,45819,40.62408,-84.26038,Buckland,OH,Ohio,Auglaize,269.97749999999996,1017.4950000000001,78.61250000000001,0.0675
795,45832,40.92657,-84.73285,Convoy,OH,Ohio,Van Wert,269.97749999999996,1017.4950000000001,78.61250000000001,0.0675
796,46103,39.68837,-86.61333,Amo,IN,Indiana,Hendricks,271.33000000000004,1016.3325,80.11999999999999,0.1175
797,46104,39.66102,-85.59541,Arlington,IN,Indiana,Rush,271.33000000000004,1016.3325,80.11999999999999,0.1175
798,46301,41.68404,-86.98106,Beverly Shores,IN,Indiana,Porter,269.44,1018.5799999999999,78.08000000000001,0.1275
799,46340,41.38418,-86.76905,Hanna,IN,Indiana,LaPorte,269.63750000000005,1018.1500000000001,79.24000000000001,0.0725
800,46366,41.21533,-86.76793,North Judson,IN,Indiana,Starke,269.63750000000005,1018.1500000000001,79.24000000000001,0.0725
801,46502,41.25938,-85.97627,Atwood,IN,Indiana,Kosciusko,269.63750000000005,1018.1500000000001,79.24000000000001,0.0725
802,46507,41.72057,-85.81751,Bristol,IN,Indiana,Elkhart,269.63750000000005,1018.1500000000001,79.24000000000001,0.0725
803,46530,41.73988,-86.12742,Granger,IN,Indiana,St. Joseph,269.63750000000005,1018.1500000000001,79.24000000000001,0.0725
804,46565,41.69266,-85.58044,Shipshewana,IN,Indiana,LaGrange,269.63750000000005,1018.1500000000001,79.24000000000001,0.0725
805,46702,40.82814000000001,-85.61610999999998,Andrews,IN,Indiana,Huntington,269.97749999999996,1017.4950000000001,78.61250000000001,0.0675
806,46714,40.71846,-85.17148,Bluffton,IN,Indiana,Wells,269.97749999999996,1017.4950000000001,78.61250000000001,0.0675
807,46932,40.59751,-86.25757,Galveston,IN,Indiana,Cass,271.33000000000004,1016.3325,80.11999999999999,0.1175
808,46940,40.68729,-85.69767,La Fontaine,IN,Indiana,Wabash,269.97749999999996,1017.4950000000001,78.61250000000001,0.0675
809,47001,39.06666,-84.96833000000002,Aurora,IN,Indiana,Dearborn,273.21000000000004,1016.9949999999999,77.8,0.16249999999999998
810,47006,39.292,-85.21583000000003,Batesville,IN,Indiana,Ripley,273.21000000000004,1016.9949999999999,77.8,0.16249999999999998
811,47011,38.87547,-85.07526999999997,Bennington,IN,Indiana,Switzerland,273.21000000000004,1016.9949999999999,77.8,0.16249999999999998
812,47201,39.15768,-85.9907,Columbus,IN,Indiana,Bartholomew,271.33000000000004,1016.3325,80.11999999999999,0.1175
813,47223,39.04911,-85.47891,Butlerville,IN,Indiana,Jennings,273.21000000000004,1016.9949999999999,77.8,0.16249999999999998
814,47326,40.54567,-84.96605,Bryant,IN,Indiana,Jay,269.97749999999996,1017.4950000000001,78.61250000000001,0.0675
815,47348,40.45668,-85.34818,Hartford City,IN,Indiana,Blackford,269.97749999999996,1017.4950000000001,78.61250000000001,0.0675
816,47513,38.30612,-86.70315,Birdseye,IN,Indiana,Dubois,274.765,1020.09,75.65,0.1575
817,47601,38.05209,-87.2553,Boonville,IN,Indiana,Warrick,274.115,1020.8325,77.925,0.11000000000000001
818,47612,38.19303,-87.69924,Cynthiana,IN,Indiana,Posey,274.115,1020.8325,77.925,0.11000000000000001
819,47708,37.97445,-87.57379,Evansville,IN,Indiana,Vanderburgh,274.115,1020.8325,77.925,0.11000000000000001
820,47802,39.3511,-87.40744000000002,Terre Haute,IN,Indiana,Vigo,271.33000000000004,1016.3325,80.11999999999999,0.1175
821,47832,39.8779,-87.25424,Bloomingdale,IN,Indiana,Parke,271.33000000000004,1016.3325,80.11999999999999,0.1175
822,47842,39.67855,-87.4636,Clinton,IN,Indiana,Vermillion,271.33000000000004,1016.3325,80.11999999999999,0.1175
823,47901,40.41785,-86.88991999999998,Lafayette,IN,Indiana,Tippecanoe,271.33000000000004,1016.3325,80.11999999999999,0.1175
824,47918,40.30479,-87.20376,Attica,IN,Indiana,Fountain,271.33000000000004,1016.3325,80.11999999999999,0.1175
825,48003,42.93259000000001,-83.04065,Almont,MI,Michigan,Lapeer,270.0475,1017.2600000000001,80.3025,0.0775
826,48005,42.85024,-82.9231,Armada,MI,Michigan,Macomb,270.0475,1017.2600000000001,80.3025,0.0775
827,48009,42.54421,-83.21766,Birmingham,MI,Michigan,Oakland,270.0475,1017.2600000000001,80.3025,0.0775
828,48103,42.25991,-83.84325,Ann Arbor,MI,Michigan,Washtenaw,269.625,1016.7425,79.73249999999999,0.9175000000000001
829,48401,43.3527,-82.66725,Applegate,MI,Michigan,Sanilac,270.0475,1017.2600000000001,80.3025,0.0775
830,48414,42.86178,-84.07879,Bancroft,MI,Michigan,Shiawassee,269.375,1016.2325000000001,77.3175,0.0325
831,48415,43.27114,-83.80094,Birch Run,MI,Michigan,Saginaw,269.375,1016.2325000000001,77.3175,0.0325
832,48435,43.24828,-83.35811,Fostoria,MI,Michigan,Tuscola,269.375,1016.2325000000001,77.3175,0.0325
833,48610,44.12834,-84.17435,Alger,MI,Michigan,Arenac,269.375,1016.2325000000001,77.3175,0.0325
834,48612,43.88113,-84.43196,Beaverton,MI,Michigan,Gladwin,269.375,1016.2325000000001,77.3175,0.0325
835,48615,43.42948,-84.47145,Breckenridge,MI,Michigan,Gratiot,269.5025,1016.6225,79.5025,0.045
836,48617,43.84684,-84.71585,Clare,MI,Michigan,Clare,269.375,1016.2325000000001,77.3175,0.0325
837,48618,43.73725,-84.56022,Coleman,MI,Michigan,Midland,269.375,1016.2325000000001,77.3175,0.0325
838,48619,44.82455,-84.03134,Comins,MI,Michigan,Oscoda,269.375,1016.2325000000001,77.3175,0.0325
839,48627,44.46165,-84.74959,Higgins Lake,MI,Michigan,Roscommon,269.8125,1016.8775,78.4075,0.024999999999999998
840,48635,44.39543,-84.00128000000002,Lupton,MI,Michigan,Ogemaw,269.375,1016.2325000000001,77.3175,0.0325
841,48705,44.70086,-83.65359000000002,Barton City,MI,Michigan,Alcona,269.375,1016.2325000000001,77.3175,0.0325
842,48730,44.34876,-83.47091,East Tawas,MI,Michigan,Iosco,269.375,1016.2325000000001,77.3175,0.0325
843,48809,43.06537,-85.25823000000003,Belding,MI,Michigan,Ionia,269.8125,1016.8775,78.4075,0.024999999999999998
844,48811,43.1811,-84.855,Carson City,MI,Michigan,Montcalm,269.5025,1016.6225,79.5025,0.045
845,48813,42.58015,-84.8454,Charlotte,MI,Michigan,Eaton,269.5025,1016.6225,79.5025,0.045
846,48819,42.54638,-84.28531,Dansville,MI,Michigan,Ingham,269.5025,1016.6225,79.5025,0.045
847,48858,43.61519000000001,-84.79615,Mount Pleasant,MI,Michigan,Isabella,269.5025,1016.6225,79.5025,0.045
848,48897,42.7068,-85.13214,Woodland,MI,Michigan,Barry,269.5025,1016.6225,79.5025,0.045
849,49001,42.26472,-85.56245,Kalamazoo,MI,Michigan,Kalamazoo,,,,
850,49010,42.53463,-85.87431,Allegan,MI,Michigan,Allegan,269.8125,1016.8775,78.4075,0.024999999999999998
851,49028,41.84824,-85.18658,Bronson,MI,Michigan,Branch,269.97749999999996,1017.4950000000001,78.61250000000001,0.0675
852,49220,41.99461,-84.34243000000002,Addison,MI,Michigan,Lenawee,269.625,1016.7425,79.73249999999999,0.9175000000000001
853,49227,41.95194,-84.77118,Allen,MI,Michigan,Hillsdale,269.5025,1016.6225,79.5025,0.045
854,49303,43.27729,-85.85483,Bailey,MI,Michigan,Muskegon,269.8125,1016.8775,78.4075,0.024999999999999998
855,49305,43.75075,-85.1497,Barryton,MI,Michigan,Mecosta,269.8125,1016.8775,78.4075,0.024999999999999998
856,49309,43.7595,-85.88093,Bitely,MI,Michigan,Newaygo,269.8125,1016.8775,78.4075,0.024999999999999998
857,49420,43.71823,-86.28308,Hart,MI,Michigan,Oceana,269.8125,1016.8775,78.4075,0.024999999999999998
858,49601,44.24978,-85.50741,Cadillac,MI,Michigan,Wexford,269.8125,1016.8775,78.4075,0.024999999999999998
859,49611,44.97368,-84.97443,Alba,MI,Michigan,Antrim,269.8125,1016.8775,78.4075,0.024999999999999998
860,49613,44.50271,-86.20548000000002,Arcadia,MI,Michigan,Manistee,265.975,1016.24,76.25,0.0075
861,49616,44.57439,-86.08099,Benzonia,MI,Michigan,Benzie,265.975,1016.24,76.25,0.0075
862,49621,44.8634,-85.77556,Cedar,MI,Michigan,Leelanau,265.975,1016.24,76.25,0.0075
863,49632,44.23892,-84.96935,Falmouth,MI,Michigan,Missaukee,269.8125,1016.8775,78.4075,0.024999999999999998
864,49633,44.55957,-85.20286,Fife Lake,MI,Michigan,Kalkaska,269.8125,1016.8775,78.4075,0.024999999999999998
865,49637,44.6264,-85.7059,Grawn,MI,Michigan,Grand Traverse,265.975,1016.24,76.25,0.0075
866,49701,45.75566,-84.72915,Mackinaw City,MI,Michigan,Emmet,265.975,1016.24,76.25,0.0075
867,49705,45.35578,-84.46131,Afton,MI,Michigan,Cheboygan,269.375,1016.2325000000001,77.3175,0.0325
868,49707,45.0916,-83.49648,Alpena,MI,Michigan,Alpena,269.375,1016.2325000000001,77.3175,0.0325
869,49709,45.01522,-84.15841999999998,Atlanta,MI,Michigan,Montmorency,269.375,1016.2325000000001,77.3175,0.0325
870,49710,46.28343,-84.18836999999998,Barbeau,MI,Michigan,Chippewa,265.22249999999997,1008.125,82.17999999999999,0.0025
871,49712,45.21009,-85.00995999999998,Boyne City,MI,Michigan,Charlevoix,265.975,1016.24,76.25,0.0075
872,49719,46.0093,-84.32334,Cedarville,MI,Michigan,Mackinac,265.22249999999997,1008.125,82.17999999999999,0.0025
873,49743,45.27349,-83.89646,Hawks,MI,Michigan,Presque Isle,269.375,1016.2325000000001,77.3175,0.0325
874,49801,45.96733,-87.98216,Iron Mountain,MI,Michigan,Dickinson,265.975,1016.24,76.25,0.0075
875,49805,47.35563,-88.36961,Allouez,MI,Michigan,Keweenaw,265.975,1016.24,76.25,0.0075
876,49806,46.44251,-86.89667,Au Train,MI,Michigan,Alger,265.975,1016.24,76.25,0.0075
877,49807,45.78476,-87.37235,Bark River,MI,Michigan,Delta,265.975,1016.24,76.25,0.0075
878,49808,46.8126,-87.88242,Big Bay,MI,Michigan,Marquette,265.975,1016.24,76.25,0.0075
879,49812,45.59335,-87.49817,Carney,MI,Michigan,Menominee,265.975,1016.24,76.25,0.0075
880,49817,45.96723,-86.4632,Cooks,MI,Michigan,Schoolcraft,265.975,1016.24,76.25,0.0075
881,49853,46.35941,-85.74505,McMillan,MI,Michigan,Luce,265.975,1016.24,76.25,0.0075
882,49902,46.04303,-88.37986,Alpha,MI,Michigan,Iron,265.975,1016.24,76.25,0.0075
883,49905,47.12377,-88.71648,Atlantic Mine,MI,Michigan,Houghton,265.975,1016.24,76.25,0.0075
884,49908,46.76547,-88.5679,Baraga,MI,Michigan,Baraga,265.975,1016.24,76.25,0.0075
885,49910,46.59851,-89.61275,Bergland,MI,Michigan,Ontonagon,265.975,1016.24,76.25,0.0075
886,49911,46.48999,-90.04988,Bessemer,MI,Michigan,Gogebic,265.975,1016.24,76.25,0.0075
887,50010,42.0336,-93.58826,Ames,IA,Iowa,Story,266.66249999999997,1019.8225,74.75750000000001,0.005
888,50025,41.75791,-94.92352,Audubon,IA,Iowa,Audubon,266.66999999999996,1020.35,75.4975,0.01
889,50026,41.85852,-94.44962,Bagley,IA,Iowa,Guthrie,266.66249999999997,1019.8225,74.75750000000001,0.005
890,50027,41.47497,-92.47316,Barnes City,IA,Iowa,Mahaska,266.1775,1018.5500000000001,79.0925,0.0075
891,50071,42.64944000000001,-93.50305,Dows,IA,Iowa,Wright,266.66249999999997,1019.8225,74.75750000000001,0.005
892,50074,40.85679,-94.07581,Ellston,IA,Iowa,Ringgold,266.66249999999997,1019.8225,74.75750000000001,0.005
893,50104,41.48679,-92.38665,Gibson,IA,Iowa,Keokuk,266.1775,1018.5500000000001,79.0925,0.0075
894,50112,41.7313,-92.71481,Grinnell,IA,Iowa,Poweshiek,266.66249999999997,1019.8225,74.75750000000001,0.005
895,50173,41.97299,-92.71422,Montour,IA,Iowa,Tama,266.66249999999997,1019.8225,74.75750000000001,0.005
896,50401,43.15371,-93.20016,Mason City,IA,Iowa,Cerro Gordo,263.9475,1017.0775,83.02250000000001,0.0125
897,50424,43.39441,-93.93381,Buffalo Center,IA,Iowa,Winnebago,263.9475,1017.0775,83.02250000000001,0.0125
898,50451,43.37865,-94.08844,Lakota,IA,Iowa,Kossuth,263.9475,1017.0775,83.02250000000001,0.0125
899,50515,43.02086,-94.87102,Ayrshire,IA,Iowa,Palo Alto,263.4875,1013.1625,80.395,0.015000000000000001
900,50519,42.90172000000001,-94.26289,Bode,IA,Iowa,Humboldt,266.66249999999997,1019.8225,74.75750000000001,0.005
901,50535,42.45253,-95.16234,Early,IA,Iowa,Sac,266.66999999999996,1020.35,75.4975,0.01
902,50613,42.53309,-92.48895,Cedar Falls,IA,Iowa,Black Hawk,266.1775,1018.5500000000001,79.0925,0.0075
903,50622,42.67305,-92.3352,Denver,IA,Iowa,Bremer,266.1775,1018.5500000000001,79.0925,0.0075
904,51003,42.98503,-95.98664,Alton,IA,Iowa,Sioux,263.4875,1013.1625,80.395,0.015000000000000001
905,51004,42.3761,-95.9147,Anthon,IA,Iowa,Woodbury,266.66999999999996,1020.35,75.4975,0.01
906,51006,42.31588,-95.6156,Battle Creek,IA,Iowa,Ida,266.66999999999996,1020.35,75.4975,0.01
907,51009,42.94431,-95.55152,Calumet,IA,Iowa,O'Brien,263.4875,1013.1625,80.395,0.015000000000000001
908,51010,42.08962,-95.90927,Castana,IA,Iowa,Monona,266.66999999999996,1020.35,75.4975,0.01
909,51501,41.22798,-95.87858,Council Bluffs,IA,Iowa,Pottawattamie,266.66999999999996,1020.35,75.4975,0.01
910,51533,41.03613,-95.38042,Emerson,IA,Iowa,Mills,266.66999999999996,1020.35,75.4975,0.01
911,51639,40.71982,-95.47485,Farragut,IA,Iowa,Fremont,266.66999999999996,1020.35,75.4975,0.01
912,52001,42.54498,-90.6938,Dubuque,IA,Iowa,Dubuque,266.1775,1018.5500000000001,79.0925,0.0075
913,52101,43.35368,-91.76474,Decorah,IA,Iowa,Winneshiek,263.9475,1017.0775,83.02250000000001,0.0125
914,52140,43.44338,-91.53666,Dorchester,IA,Iowa,Allamakee,263.9475,1017.0775,83.02250000000001,0.0125
915,52202,42.15775,-91.63781,Alburnett,IA,Iowa,Linn,266.1775,1018.5500000000001,79.0925,0.0075
916,52203,41.81227,-91.88652,Amana,IA,Iowa,Iowa,266.1775,1018.5500000000001,79.0925,0.0075
917,52216,41.88701,-91.04235,Clarence,IA,Iowa,Cedar,266.1775,1018.5500000000001,79.0925,0.0075
918,52501,41.03574,-92.4315,Ottumwa,IA,Iowa,Wapello,266.66249999999997,1019.8225,74.75750000000001,0.005
919,52537,40.73627000000001,-92.41215,Bloomfield,IA,Iowa,Davis,266.66249999999997,1019.8225,74.75750000000001,0.005
920,52544,40.71758,-92.91073,Centerville,IA,Iowa,Appanoose,266.66249999999997,1019.8225,74.75750000000001,0.005
921,52601,40.85501,-91.112,Burlington,IA,Iowa,Des Moines,268.9825,1019.09,79.855,0.04
922,52720,41.59255,-91.16601,Atalissa,IA,Iowa,Muscatine,266.1775,1018.5500000000001,79.0925,0.0075
923,53001,43.60613,-88.05516,Adell,WI,Wisconsin,Sheboygan,267.40500000000003,1017.6025000000001,75.345,0.0075
924,53004,43.49997000000001,-87.88005,Belgium,WI,Wisconsin,Ozaukee,267.40500000000003,1017.6025000000001,75.345,0.0075
925,53005,43.06261,-88.09925,Brookfield,WI,Wisconsin,Waukesha,267.40500000000003,1017.6025000000001,75.345,0.0075
926,53010,43.60987,-88.27705999999998,Campbellsport,WI,Wisconsin,Fond du Lac,267.40500000000003,1017.6025000000001,75.345,0.0075
927,53014,44.02436,-88.175,Chilton,WI,Wisconsin,Calumet,265.975,1016.24,76.25,0.0075
928,53015,43.90617,-87.7918,Cleveland,WI,Wisconsin,Manitowoc,265.975,1016.24,76.25,0.0075
929,53104,42.55728,-88.03498,Bristol,WI,Wisconsin,Kenosha,267.40500000000003,1017.6025000000001,75.345,0.0075
930,53105,42.66416,-88.27988,Burlington,WI,Wisconsin,Racine,267.40500000000003,1017.6025000000001,75.345,0.0075
931,53110,42.94672,-87.86398,Cudahy,WI,Wisconsin,Milwaukee,267.40500000000003,1017.6025000000001,75.345,0.0075
932,53114,42.59736,-88.75083000000002,Darien,WI,Wisconsin,Walworth,267.155,1018.5225,79.0875,0.01
933,53501,42.60606,-89.06536,Afton,WI,Wisconsin,Rock,267.155,1018.5225,79.0875,0.01
934,53508,42.86884000000001,-89.56429,Belleville,WI,Wisconsin,Dane,266.1424999999999,1017.5625,77.9975,0.0025
935,53561,43.39963,-89.64159000000002,Merrimac,WI,Wisconsin,Sauk,266.1424999999999,1017.5625,77.9975,0.0025
936,53926,43.67075,-89.21169,Dalton,WI,Wisconsin,Green Lake,266.1424999999999,1017.5625,77.9975,0.0025
937,53929,43.7509,-90.28434,Elroy,WI,Wisconsin,Juneau,266.1424999999999,1017.5625,77.9975,0.0025
938,54002,44.9625,-92.37135,Baldwin,WI,Wisconsin,St. Croix,263.64,1018.41,76.75,0.005
939,54101,44.78959,-88.06277,Abrams,WI,Wisconsin,Oconto,265.975,1016.24,76.25,0.0075
940,54102,45.50014,-87.98358,Amberg,WI,Wisconsin,Marinette,265.975,1016.24,76.25,0.0075
941,54106,44.48476,-88.45863,Black Creek,WI,Wisconsin,Outagamie,265.975,1016.24,76.25,0.0075
942,54107,44.69819,-88.44736999999998,Bonduel,WI,Wisconsin,Shawano,265.975,1016.24,76.25,0.0075
943,54201,44.62082,-87.49347,Algoma,WI,Wisconsin,Kewaunee,265.975,1016.24,76.25,0.0075
944,54202,45.07718,-87.13809,Baileys Harbor,WI,Wisconsin,Door,265.975,1016.24,76.25,0.0075
945,54401,44.96559,-89.70676,Wausau,WI,Wisconsin,Marathon,265.975,1016.24,76.25,0.0075
946,54409,45.11913,-89.16996999999998,Antigo,WI,Wisconsin,Langlade,265.975,1016.24,76.25,0.0075
947,54459,45.42581,-90.27358,Ogema,WI,Wisconsin,Price,265.975,1016.24,76.25,0.0075
948,54512,46.09528,-89.67093,Boulder Junction,WI,Wisconsin,Vilas,265.975,1016.24,76.25,0.0075
949,54526,45.50554,-90.85908,Glen Flora,WI,Wisconsin,Rusk,263.64,1018.41,76.75,0.005
950,54601,43.80439000000001,-91.1425,La Crosse,WI,Wisconsin,La Crosse,263.9475,1017.0775,83.02250000000001,0.0125
951,54610,44.3717,-91.83453,Alma,WI,Wisconsin,Buffalo,263.9475,1017.0775,83.02250000000001,0.0125
952,54612,44.24805,-91.50053,Arcadia,WI,Wisconsin,Trempealeau,263.9475,1017.0775,83.02250000000001,0.0125
953,54621,43.65801,-91.08282,Chaseburg,WI,Wisconsin,Vernon,263.9475,1017.0775,83.02250000000001,0.0125
954,54701,44.74438,-91.51058,Eau Claire,WI,Wisconsin,Eau Claire,263.9475,1017.0775,83.02250000000001,0.0125
955,54721,44.62932,-92.06966,Arkansaw,WI,Wisconsin,Pepin,263.9475,1017.0775,83.02250000000001,0.0125
956,54725,45.07012,-92.01216,Boyceville,WI,Wisconsin,Dunn,263.64,1018.41,76.75,0.005
957,54728,45.30833,-91.63943,Chetek,WI,Wisconsin,Barron,263.64,1018.41,76.75,0.005
958,54801,45.87254,-91.93445,Spooner,WI,Wisconsin,Washburn,263.64,1018.41,76.75,0.005
959,54814,46.86052,-90.91781,Bayfield,WI,Wisconsin,Bayfield,263.64,1018.41,76.75,0.005
960,54828,45.84072000000001,-91.28358,Couderay,WI,Wisconsin,Sawyer,263.64,1018.41,76.75,0.005
961,54830,46.10807,-92.21857,Danbury,WI,Wisconsin,Burnett,263.64,1018.41,76.75,0.005
962,54929,44.63661,-88.74009000000002,Clintonville,WI,Wisconsin,Waupaca,265.975,1016.24,76.25,0.0075
963,54930,44.02804,-89.5561,Coloma,WI,Wisconsin,Waushara,266.1424999999999,1017.5625,77.9975,0.0025
964,55005,45.39234,-93.21887,Bethel,MN,Minnesota,Anoka,263.605,1018.0175,78.0025,0.005
965,55006,45.73819,-93.20864,Braham,MN,Minnesota,Isanti,263.605,1018.0175,78.0025,0.005
966,55007,45.97515,-93.12285,Brook Park,MN,Minnesota,Kanabec,263.605,1018.0175,78.0025,0.005
967,55009,44.48303,-92.86484,Cannon Falls,MN,Minnesota,Goodhue,263.64,1018.41,76.75,0.005
968,55012,45.4379,-92.79168,Center City,MN,Minnesota,Chisago,263.64,1018.41,76.75,0.005
969,55019,44.41445,-93.248,Dundas,MN,Minnesota,Rice,263.64,1018.41,76.75,0.005
970,55024,44.62994000000001,-93.13428,Farmington,MN,Minnesota,Dakota,263.64,1018.41,76.75,0.005
971,55030,45.8395,-93.11393,Grasston,MN,Minnesota,Pine,263.605,1018.0175,78.0025,0.005
972,55041,44.39402000000001,-92.32022,Lake City,MN,Minnesota,Wabasha,263.9475,1017.0775,83.02250000000001,0.0125
973,55049,44.17659,-93.22797,Medford,MN,Minnesota,Steele,263.9475,1017.0775,83.02250000000001,0.0125
974,55101,44.9513,-93.09023,Saint Paul,MN,Minnesota,Ramsey,263.64,1018.41,76.75,0.005
975,55111,44.87899,-93.19854,Saint Paul,MN,Minnesota,Hennepin,263.64,1018.41,76.75,0.005
976,55307,44.60335,-94.10241,Arlington,MN,Minnesota,Sibley,263.605,1018.0175,78.0025,0.005
977,55308,45.43026,-93.83604,Becker,MN,Minnesota,Sherburne,263.605,1018.0175,78.0025,0.005
978,55310,44.75918,-94.88069,Bird Island,MN,Minnesota,Renville,263.605,1018.0175,78.0025,0.005
979,55312,44.70468,-94.34221,Brownton,MN,Minnesota,McLeod,263.605,1018.0175,78.0025,0.005
980,55315,44.71842,-93.68698,Carver,MN,Minnesota,Carver,263.605,1018.0175,78.0025,0.005
981,55324,45.05595,-94.42354,Darwin,MN,Minnesota,Meeker,263.605,1018.0175,78.0025,0.005
982,55329,45.3092,-94.57192,Eden Valley,MN,Minnesota,Stearns,263.605,1018.0175,78.0025,0.005
983,55371,45.5801,-93.59086,Princeton,MN,Minnesota,Mille Lacs,263.605,1018.0175,78.0025,0.005
984,55602,47.34149,-91.87954,Brimson,MN,Minnesota,St. Louis,263.64,1018.41,76.75,0.005
985,55707,46.54618,-92.64828,Barnum,MN,Minnesota,Carlton,263.605,1018.0175,78.0025,0.005
986,55709,47.42657,-93.37103,Bovey,MN,Minnesota,Itasca,263.445,1015.0525,79.755,0.005
987,55748,47.00801,-93.62389,Hill City,MN,Minnesota,Aitkin,263.605,1018.0175,78.0025,0.005
988,55772,48.09474,-93.15553,Nett Lake,MN,Minnesota,Koochiching,263.445,1015.0525,79.755,0.005
989,55901,44.06977,-92.50688,Rochester,MN,Minnesota,Olmsted,263.9475,1017.0775,83.02250000000001,0.0125
990,55909,43.56201,-92.73378,Adams,MN,Minnesota,Mower,263.9475,1017.0775,83.02250000000001,0.0125
991,55910,44.13295,-91.97332,Altura,MN,Minnesota,Winona,263.9475,1017.0775,83.02250000000001,0.0125
992,55922,43.5589,-91.90098,Canton,MN,Minnesota,Fillmore,263.9475,1017.0775,83.02250000000001,0.0125
993,56001,44.13203,-93.97704,Mankato,MN,Minnesota,Blue Earth,263.605,1018.0175,78.0025,0.005
994,56003,44.21274,-94.0886,Mankato,MN,Minnesota,Nicollet,263.605,1018.0175,78.0025,0.005
995,56007,43.66036,-93.32527,Albert Lea,MN,Minnesota,Freeborn,263.9475,1017.0775,83.02250000000001,0.0125
996,56013,43.62265,-94.1056,Blue Earth,MN,Minnesota,Faribault,263.9475,1017.0775,83.02250000000001,0.0125
997,56017,44.30705,-93.82016,Cleveland,MN,Minnesota,Le Sueur,263.605,1018.0175,78.0025,0.005
998,56022,44.05354000000001,-94.83936,Darfur,MN,Minnesota,Watonwan,263.4875,1013.1625,80.395,0.015000000000000001
999,56048,44.09289,-93.71891,Janesville,MN,Minnesota,Waseca,263.9475,1017.0775,83.02250000000001,0.0125
1000,56083,44.20556,-95.13522,Sanborn,MN,Minnesota,Redwood,263.4875,1013.1625,80.395,0.015000000000000001
1001,56101,43.88314,-95.13734,Windom,MN,Minnesota,Cottonwood,263.4875,1013.1625,80.395,0.015000000000000001
1002,56110,43.62068,-95.94208,Adrian,MN,Minnesota,Nobles,263.4875,1013.1625,80.395,0.015000000000000001
1003,56128,43.88151,-96.1156,Edgerton,MN,Minnesota,Pipestone,263.4875,1013.1625,80.395,0.015000000000000001
1004,56201,45.10152,-95.0419,Willmar,MN,Minnesota,Kandiyohi,263.605,1018.0175,78.0025,0.005
1005,56207,45.49685,-96.06945,Alberta,MN,Minnesota,Stevens,263.445,1015.0525,79.755,0.005
1006,56208,45.2425,-96.0043,Appleton,MN,Minnesota,Swift,263.445,1015.0525,79.755,0.005
1007,56210,45.55988,-96.56527,Barry,MN,Minnesota,Big Stone,263.445,1015.0525,79.755,0.005
1008,56212,45.13696,-96.33196,Bellingham,MN,Minnesota,Lac qui Parle,263.4875,1013.1625,80.395,0.015000000000000001
1009,56219,45.59978,-96.81994,Browns Valley,MN,Minnesota,Traverse,263.445,1015.0525,79.755,0.005
1010,56220,44.73183,-96.29416,Canby,MN,Minnesota,Yellow Medicine,263.4875,1013.1625,80.395,0.015000000000000001
1011,56314,45.81167,-94.43311,Bowlus,MN,Minnesota,Morrison,263.605,1018.0175,78.0025,0.005
1012,56323,45.6322,-95.72517,Cyrus,MN,Minnesota,Pope,263.445,1015.0525,79.755,0.005
1013,56324,46.16608,-95.90514,Dalton,MN,Minnesota,Otter Tail,263.445,1015.0525,79.755,0.005
1014,56401,46.32011,-94.11503,Brainerd,MN,Minnesota,Crow Wing,263.605,1018.0175,78.0025,0.005
1015,56433,46.97333,-94.69687,Akeley,MN,Minnesota,Hubbard,263.445,1015.0525,79.755,0.005
1016,56464,46.7633,-95.10477,Menahga,MN,Minnesota,Wadena,263.445,1015.0525,79.755,0.005
1017,56501,46.84061,-95.80915,Detroit Lakes,MN,Minnesota,Becker,263.445,1015.0525,79.755,0.005
1018,56510,47.36034,-96.5254,Ada,MN,Minnesota,Norman,263.445,1015.0525,79.755,0.005
1019,56516,47.44188,-95.97604,Bejou,MN,Minnesota,Mahnomen,263.445,1015.0525,79.755,0.005
1020,56520,46.28543,-96.50478,Breckenridge,MN,Minnesota,Wilkin,263.445,1015.0525,79.755,0.005
1021,56601,47.51242,-94.85697,Bemidji,MN,Minnesota,Beltrami,263.445,1015.0525,79.755,0.005
1022,56621,47.41863,-95.4075,Bagley,MN,Minnesota,Clearwater,263.445,1015.0525,79.755,0.005
1023,56623,48.60057000000001,-94.56999,Baudette,MN,Minnesota,Lake of the Woods,260.64,1014.2975,78.505,0.0
1024,56673,48.82786,-95.1119,Roosevelt,MN,Minnesota,Roseau,260.64,1014.2975,78.505,0.0
1025,56701,48.12209,-96.19247,Thief River Falls,MN,Minnesota,Pennington,263.445,1015.0525,79.755,0.005
1026,56715,47.80889000000001,-95.94138,Brooks,MN,Minnesota,Red Lake,263.445,1015.0525,79.755,0.005
1027,56720,48.57202,-96.89294,Donaldson,MN,Minnesota,Kittson,260.64,1014.2975,78.505,0.0
1028,57002,44.2965,-96.67695,Aurora,SD,South Dakota,Brookings,263.4875,1013.1625,80.395,0.015000000000000001
1029,57003,43.73545,-96.75995,Baltic,SD,South Dakota,Minnehaha,263.4875,1013.1625,80.395,0.015000000000000001
1030,57012,43.59566,-97.27312,Canistota,SD,South Dakota,McCook,263.4875,1013.1625,80.395,0.015000000000000001
1031,57017,44.01208,-96.82924,Colman,SD,South Dakota,Moody,263.4875,1013.1625,80.395,0.015000000000000001
1032,57029,43.33754,-97.48028,Freeman,SD,South Dakota,Hutchinson,263.4875,1013.1625,80.395,0.015000000000000001
1033,57031,42.87453,-97.18347,Gayville,SD,South Dakota,Yankton,263.4875,1013.1625,80.395,0.015000000000000001
1034,57051,44.22942000000001,-97.33512,Oldham,SD,South Dakota,Kingsbury,263.4875,1013.1625,80.395,0.015000000000000001
1035,57059,43.12564,-97.75782,Scotland,SD,South Dakota,Bon Homme,263.4875,1013.1625,80.395,0.015000000000000001
1036,57201,44.93786,-97.09464,Watertown,SD,South Dakota,Codington,263.4875,1013.1625,80.395,0.015000000000000001
1037,57213,44.54863,-96.52265,Astoria,SD,South Dakota,Deuel,263.4875,1013.1625,80.395,0.015000000000000001
1038,57219,45.28801,-97.80865,Bristol,SD,South Dakota,Day,263.445,1015.0525,79.755,0.005
1039,57221,44.59541,-97.45309,Bryant,SD,South Dakota,Hamlin,263.4875,1013.1625,80.395,0.015000000000000001
1040,57224,45.86237,-97.13702,Claire City,SD,South Dakota,Roberts,263.445,1015.0525,79.755,0.005
1041,57301,43.71376,-98.04724,Mitchell,SD,South Dakota,Davison,263.4875,1013.1625,80.395,0.015000000000000001
1042,57311,43.65292,-97.76171,Alexandria,SD,South Dakota,Hanson,263.4875,1013.1625,80.395,0.015000000000000001
1043,57312,44.20046,-98.37634,Alpena,SD,South Dakota,Jerauld,263.4875,1013.1625,80.395,0.015000000000000001
1044,57314,44.05029,-97.98514,Artesian,SD,South Dakota,Sanborn,263.4875,1013.1625,80.395,0.015000000000000001
1045,57317,43.12625,-98.98066,Bonesteel,SD,South Dakota,Gregory,263.4875,1013.1625,80.395,0.015000000000000001
1046,57321,43.87233,-97.55062,Canova,SD,South Dakota,Miner,263.4875,1013.1625,80.395,0.015000000000000001
1047,57322,44.63068,-97.97403,Carpenter,SD,South Dakota,Beadle,263.4875,1013.1625,80.395,0.015000000000000001
1048,57325,43.7561,-99.29633,Chamberlain,SD,South Dakota,Brule,263.4875,1013.1625,80.395,0.015000000000000001
1049,57329,42.97949000000001,-98.15395,Dante,SD,South Dakota,Charles Mix,263.4875,1013.1625,80.395,0.015000000000000001
1050,57362,44.4916,-99.07088,Miller,SD,South Dakota,Hand,263.4875,1013.1625,80.395,0.015000000000000001
1051,57365,43.81175,-99.41645,Oacoma,SD,South Dakota,Lyman,263.4875,1013.1625,80.395,0.015000000000000001
1052,57368,43.75128,-98.47749,Plankinton,SD,South Dakota,Aurora,263.4875,1013.1625,80.395,0.015000000000000001
1053,57424,45.01655,-98.53829,Ashton,SD,South Dakota,Spink,263.4875,1013.1625,80.395,0.015000000000000001
1054,57428,45.45234,-99.67794,Bowdle,SD,South Dakota,Edmunds,263.445,1015.0525,79.755,0.005
1055,57435,45.17654,-98.91268,Cresbard,SD,South Dakota,Faulk,263.445,1015.0525,79.755,0.005
1056,57437,45.79144,-99.59805,Eureka,SD,South Dakota,McPherson,263.445,1015.0525,79.755,0.005
1057,57501,44.52935,-100.30251,Pierre,SD,South Dakota,Hughes,263.4875,1013.1625,80.395,0.015000000000000001
1058,57520,44.8448,-100.16428,Agar,SD,South Dakota,Sully,263.4875,1013.1625,80.395,0.015000000000000001
1059,57528,43.19158,-99.76538,Colome,SD,South Dakota,Tripp,263.4875,1013.1625,80.395,0.015000000000000001
1060,57532,44.38995,-100.61774,Fort Pierre,SD,South Dakota,Stanley,263.4875,1013.1625,80.395,0.015000000000000001
1061,57551,43.17891,-101.6976,Martin,SD,South Dakota,Bennett,268.72249999999997,1016.4975,65.2025,0.0275
1062,57552,44.27155,-101.19563,Midland,SD,South Dakota,Haakon,263.4875,1013.1625,80.395,0.015000000000000001
1063,57560,43.43957,-101.19703,Norris,SD,South Dakota,Mellette,263.4875,1013.1625,80.395,0.015000000000000001
1064,57620,45.38241,-102.54875,Bison,SD,South Dakota,Perkins,269.00250000000005,1006.1274999999999,64.66749999999999,0.0075
1065,57621,45.7492,-101.07488,Bullhead,SD,South Dakota,Corson,263.445,1015.0525,79.755,0.005
1066,57622,44.66411,-101.54094,Cherry Creek,SD,South Dakota,Ziebach,263.4875,1013.1625,80.395,0.015000000000000001
1067,57625,44.95167,-100.99522,Eagle Butte,SD,South Dakota,Dewey,263.4875,1013.1625,80.395,0.015000000000000001
1068,57650,45.8385,-103.02244,Ralph,SD,South Dakota,Harding,269.00250000000005,1006.1274999999999,64.66749999999999,0.0075
1069,57716,43.1085,-102.20056,Batesland,SD,South Dakota,Oglala Lakota,268.72249999999997,1016.4975,65.2025,0.0275
1070,57717,44.9518,-103.88836,Belle Fourche,SD,South Dakota,Butte,269.00250000000005,1006.1274999999999,64.66749999999999,0.0075
1071,57730,43.71951,-103.6317,Custer,SD,South Dakota,Custer,268.72249999999997,1016.4975,65.2025,0.0275
1072,57735,43.30066,-103.85448,Edgemont,SD,South Dakota,Fall River,268.72249999999997,1016.4975,65.2025,0.0275
1073,58009,47.32765,-97.24662,Blanchard,ND,North Dakota,Traill,263.445,1015.0525,79.755,0.005
1074,58013,46.06134,-97.36279,Cayuga,ND,North Dakota,Sargent,263.445,1015.0525,79.755,0.005
1075,58027,46.63342,-97.61152,Enderlin,ND,North Dakota,Ransom,263.445,1015.0525,79.755,0.005
1076,58031,46.76302,-97.68077,Fingal,ND,North Dakota,Barnes,263.445,1015.0525,79.755,0.005
1077,58201,47.87121,-97.14106,Grand Forks,ND,North Dakota,Grand Forks,263.445,1015.0525,79.755,0.005
1078,58210,48.40897,-98.10711,Adams,ND,North Dakota,Walsh,260.64,1014.2975,78.505,0.0
1079,58216,48.88188,-97.43451,Bathgate,ND,North Dakota,Pembina,260.64,1014.2975,78.505,0.0
1080,58239,48.94042,-98.70665,Hannah,ND,North Dakota,Cavalier,260.64,1014.2975,78.505,0.0
1081,58316,48.82808,-99.77376,Belcourt,ND,North Dakota,Rolette,260.64,1014.2975,78.505,0.0
1082,58317,48.61861,-99.38178,Bisbee,ND,North Dakota,Towner,260.64,1014.2975,78.505,0.0
1083,58318,48.85463,-100.41887,Bottineau,ND,North Dakota,Bottineau,260.64,1014.2975,78.505,0.0
1084,58332,48.04184,-99.76173,Esmond,ND,North Dakota,Benson,263.445,1015.0525,79.755,0.005
1085,58356,47.6733,-99.07125,New Rockford,ND,North Dakota,Eddy,263.445,1015.0525,79.755,0.005
1086,58401,46.8825,-98.76392,Jamestown,ND,North Dakota,Stutsman,263.445,1015.0525,79.755,0.005
1087,58415,46.37119000000001,-98.49156,Berlin,ND,North Dakota,LaMoure,263.445,1015.0525,79.755,0.005
1088,58416,47.54152,-98.35019,Binford,ND,North Dakota,Griggs,263.445,1015.0525,79.755,0.005
1089,58421,47.44199,-99.06885,Carrington,ND,North Dakota,Foster,263.445,1015.0525,79.755,0.005
1090,58428,46.84846,-99.7515,Dawson,ND,North Dakota,Kidder,263.445,1015.0525,79.755,0.005
1091,58430,47.51464,-100.2612,Denhoff,ND,North Dakota,Sheridan,263.445,1015.0525,79.755,0.005
1092,58436,46.08765,-98.57873,Ellendale,ND,North Dakota,Dickey,263.445,1015.0525,79.755,0.005
1093,58477,47.21577,-100.50904,Regan,ND,North Dakota,Burleigh,263.445,1015.0525,79.755,0.005
1094,58520,46.68174000000001,-101.54687,Almont,ND,North Dakota,Morton,263.445,1015.0525,79.755,0.005
1095,58524,46.59187,-100.0808,Braddock,ND,North Dakota,Emmons,263.445,1015.0525,79.755,0.005
1096,58530,47.12919,-101.15012,Center,ND,North Dakota,Oliver,263.445,1015.0525,79.755,0.005
1097,58620,46.50431,-103.33089,Amidon,ND,North Dakota,Slope,269.00250000000005,1006.1274999999999,64.66749999999999,0.0075
1098,58621,47.08318,-103.92808,Beach,ND,North Dakota,Golden Valley,262.3275,1003.1750000000001,80.80000000000001,0.0
1099,58623,46.18901,-103.42567,Bowman,ND,North Dakota,Bowman,269.00250000000005,1006.1274999999999,64.66749999999999,0.0075
1100,58627,47.23294,-103.30559,Fairfield,ND,North Dakota,Billings,262.3275,1003.1750000000001,80.80000000000001,0.0
1101,58634,47.4342,-103.34243,Grassy Butte,ND,North Dakota,McKenzie,262.3275,1003.1750000000001,80.80000000000001,0.0
1102,58646,46.39388,-102.28253,Mott,ND,North Dakota,Hettinger,263.445,1015.0525,79.755,0.005
1103,58701,48.14259000000001,-101.32131,Minot,ND,North Dakota,Ward,262.3275,1003.1750000000001,80.80000000000001,0.0
1104,58710,47.87229,-100.22952,Anamoose,ND,North Dakota,McHenry,263.445,1015.0525,79.755,0.005
1105,58730,48.86469,-103.31427,Crosby,ND,North Dakota,Divide,262.3275,1003.1750000000001,80.80000000000001,0.0
1106,58763,47.9929,-102.57574,New Town,ND,North Dakota,Mountrail,262.3275,1003.1750000000001,80.80000000000001,0.0
1107,59001,45.52642,-109.5245,Absarokee,MT,Montana,Stillwater,269.00250000000005,1006.1274999999999,64.66749999999999,0.0075
1108,59002,45.98428,-108.67398,Acton,MT,Montana,Yellowstone,269.00250000000005,1006.1274999999999,64.66749999999999,0.0075
1109,59003,45.46675,-106.19541,Ashland,MT,Montana,Rosebud,269.00250000000005,1006.1274999999999,64.66749999999999,0.0075
1110,59010,45.99697000000001,-107.30997,Bighorn,MT,Montana,Treasure,269.00250000000005,1006.1274999999999,64.66749999999999,0.0075
1111,59011,45.9299,-109.97895,Big Timber,MT,Montana,Sweet Grass,269.00250000000005,1006.1274999999999,64.66749999999999,0.0075
1112,59016,45.41077,-106.96221,Busby,MT,Montana,Big Horn,269.00250000000005,1006.1274999999999,64.66749999999999,0.0075
1113,59018,45.86107,-110.56342,Clyde Park,MT,Montana,Park,269.00250000000005,1006.1274999999999,64.66749999999999,0.0075
1114,59032,47.0227,-108.74436,Grass Range,MT,Montana,Fergus,269.00250000000005,1006.1274999999999,64.66749999999999,0.0075
1115,59036,46.48592,-109.93495,Harlowton,MT,Montana,Wheatland,269.00250000000005,1006.1274999999999,64.66749999999999,0.0075
1116,59053,46.44501,-110.4549,Martinsdale,MT,Montana,Meagher,269.00250000000005,1006.1274999999999,64.66749999999999,0.0075
1117,59054,46.64222,-107.73319,Melstone,MT,Montana,Musselshell,269.00250000000005,1006.1274999999999,64.66749999999999,0.0075
1118,59058,47.08099,-107.78958,Mosby,MT,Montana,Garfield,269.00250000000005,1006.1274999999999,64.66749999999999,0.0075
1119,59062,45.0903,-106.14997,Otter,MT,Montana,Powder River,269.00250000000005,1006.1274999999999,64.66749999999999,0.0075
1120,59087,47.13236,-108.21161,Winnett,MT,Montana,Petroleum,269.00250000000005,1006.1274999999999,64.66749999999999,0.0075
1121,59201,48.1729,-105.66875,Wolf Point,MT,Montana,Roosevelt,262.3275,1003.1750000000001,80.80000000000001,0.0
1122,59214,47.30032,-106.01361,Brockway,MT,Montana,McCone,269.00250000000005,1006.1274999999999,64.66749999999999,0.0075
1123,59222,48.7042,-105.14527,Flaxville,MT,Montana,Daniels,262.3275,1003.1750000000001,80.80000000000001,0.0
1124,59223,47.89166,-106.2098,Fort Peck,MT,Montana,Valley,269.00250000000005,1006.1274999999999,64.66749999999999,0.0075
1125,59261,48.5825,-107.38539,Saco,MT,Montana,Phillips,262.3275,1003.1750000000001,80.80000000000001,0.0
1126,59313,46.30559,-104.24971,Baker,MT,Montana,Fallon,269.00250000000005,1006.1274999999999,64.66749999999999,0.0075
1127,59326,46.76265,-104.84331,Fallon,MT,Montana,Prairie,269.00250000000005,1006.1274999999999,64.66749999999999,0.0075
1128,59353,46.96525,-104.24901,Wibaux,MT,Montana,Wibaux,269.00250000000005,1006.1274999999999,64.66749999999999,0.0075
1129,59401,47.51103,-111.27552,Great Falls,MT,Montana,Cascade,269.00250000000005,1006.1274999999999,64.66749999999999,0.0075
1130,59410,47.48417,-112.65292,Augusta,MT,Montana,Lewis and Clark,269.33000000000004,1020.9850000000001,79.41250000000001,0.035
1131,59411,48.87269000000001,-113.40785,Babb,MT,Montana,Glacier,266.985,995.125,64.8075,0.01
1132,59416,48.04197,-111.49611000000002,Brady,MT,Montana,Pondera,269.00250000000005,1006.1274999999999,64.66749999999999,0.0075
1133,59418,46.79849,-109.91236,Buffalo,MT,Montana,Judith Basin,269.00250000000005,1006.1274999999999,64.66749999999999,0.0075
1134,59419,47.9863,-112.40858,Bynum,MT,Montana,Teton,266.985,995.125,64.8075,0.01
1135,59420,47.88107,-111.03349,Carter,MT,Montana,Chouteau,269.00250000000005,1006.1274999999999,64.66749999999999,0.0075
1136,59454,48.71695,-112.02463,Kevin,MT,Montana,Toole,266.985,995.125,64.8075,0.01
1137,59501,48.68878,-109.79899,Havre,MT,Montana,Hill,269.00250000000005,1006.1274999999999,64.66749999999999,0.0075
1138,59523,48.54585,-109.22978,Chinook,MT,Montana,Blaine,269.00250000000005,1006.1274999999999,64.66749999999999,0.0075
1139,59643,46.17096,-111.58999,Toston,MT,Montana,Broadwater,269.00250000000005,1006.1274999999999,64.66749999999999,0.0075
1140,59701,46.03422,-112.46687,Butte,MT,Montana,Silver Bow,269.00250000000005,1006.1274999999999,64.66749999999999,0.0075
1141,59711,46.10629,-113.0659,Anaconda,MT,Montana,Deer Lodge,269.00250000000005,1006.1274999999999,64.66749999999999,0.0075
1142,59724,44.70971,-112.7468,Dell,MT,Montana,Beaverhead,268.67499999999995,1022.525,81.3175,0.02
1143,59801,46.85627,-114.01491,Missoula,MT,Montana,Missoula,269.33000000000004,1020.9850000000001,79.41250000000001,0.035
1144,59827,45.89486,-114.04548,Conner,MT,Montana,Ravalli,268.67499999999995,1022.525,81.3175,0.02
1145,59831,47.27752,-114.35275,Dixon,MT,Montana,Sanders,269.33000000000004,1020.9850000000001,79.41250000000001,0.035
1146,59832,46.68119,-113.23879,Drummond,MT,Montana,Granite,269.33000000000004,1020.9850000000001,79.41250000000001,0.035
1147,59901,48.22816,-114.38225,Kalispell,MT,Montana,Flathead,269.33000000000004,1020.9850000000001,79.41250000000001,0.035
1148,60101,41.93064,-88.01186,Addison,IL,Illinois,DuPage,268.565,1018.59,80.8025,0.0425
1149,60109,42.04982,-88.54598,Burlington,IL,Illinois,Kane,268.16499999999996,1017.9525,78.89000000000001,0.0325
1150,60113,41.93221,-88.96583000000003,Creston,IL,Illinois,Ogle,267.155,1018.5225,79.0875,0.01
1151,60401,41.34397,-87.61375,Beecher,IL,Illinois,Will,268.85749999999996,1018.9475,81.5475,0.04
1152,60470,41.16897,-88.64107,Ransom,IL,Illinois,LaSalle,268.85749999999996,1018.9475,81.5475,0.04
1153,60512,41.70162,-88.43968000000002,Bristol,IL,Illinois,Kendall,268.385,1018.61,81.24000000000001,0.030000000000000002
1154,60901,41.11084,-87.89814,Kankakee,IL,Illinois,Kankakee,268.85749999999996,1018.9475,81.5475,0.04
1155,60911,40.87802,-87.98018,Ashkum,IL,Illinois,Iroquois,268.85749999999996,1018.9475,81.5475,0.04
1156,60919,40.98745,-88.23835,Cabery,IL,Illinois,Ford,268.85749999999996,1018.9475,81.5475,0.04
1157,60932,40.46333,-87.80563000000002,East Lynn,IL,Illinois,Vermilion,268.85749999999996,1018.9475,81.5475,0.04
1158,61001,42.46094,-90.12455,Apple River,IL,Illinois,Jo Daviess,267.155,1018.5225,79.0875,0.01
1159,61013,42.3745,-89.63708000000003,Cedarville,IL,Illinois,Stephenson,267.155,1018.5225,79.0875,0.01
1160,61037,41.78938,-89.76032,Galt,IL,Illinois,Whiteside,267.155,1018.5225,79.0875,0.01
1161,61201,41.4778,-90.57675,Rock Island,IL,Illinois,Rock Island,266.1775,1018.5500000000001,79.0925,0.0075
1162,61312,41.43577,-89.23295,Arlington,IL,Illinois,Bureau,268.385,1018.61,81.24000000000001,0.030000000000000002
1163,61411,40.40016,-90.50509,Adair,IL,Illinois,McDonough,268.9825,1019.09,79.855,0.04
1164,61451,40.94576,-89.93875,Laura,IL,Illinois,Peoria,268.98249999999996,1019.1175,79.9925,0.04
1165,61727,40.14248,-88.96083,Clinton,IL,Illinois,De Witt,270.58,1019.8699999999999,78.02250000000001,0.075
1166,61813,39.91155,-88.55960999999998,Bement,IL,Illinois,Piatt,270.58,1019.8699999999999,78.02250000000001,0.075
1167,61912,39.52729,-88.03511,Ashmore,IL,Illinois,Coles,270.58,1019.8699999999999,78.02250000000001,0.075
1168,61914,39.63542,-88.76476,Bethany,IL,Illinois,Moultrie,270.58,1019.8699999999999,78.02250000000001,0.075
1169,61917,39.7142,-87.89766999999998,Brocton,IL,Illinois,Edgar,271.33000000000004,1016.3325,80.11999999999999,0.1175
1170,62009,39.09108,-89.7984,Benld,IL,Illinois,Macoupin,272.25250000000005,1020.925,75.6575,0.08000000000000002
1171,62022,39.00376,-90.33164,Dow,IL,Illinois,Jersey,272.25250000000005,1020.925,75.6575,0.08000000000000002
1172,62086,38.9825,-89.58099,Sorento,IL,Illinois,Bond,272.25250000000005,1020.925,75.6575,0.08000000000000002
1173,62476,38.534,-88.00928,West Salem,IL,Illinois,Edwards,274.115,1020.8325,77.925,0.11000000000000001
1174,62515,39.85839,-89.3765,Buffalo,IL,Illinois,Sangamon,270.58,1019.8699999999999,78.02250000000001,0.075
1175,62613,39.99177,-89.66835999999998,Athens,IL,Illinois,Menard,270.58,1019.8699999999999,78.02250000000001,0.075
1176,62908,37.30848,-88.86578,Belknap,IL,Illinois,Massac,274.115,1020.8325,77.925,0.11000000000000001
1177,62917,37.69811,-88.64883,Carrier Mills,IL,Illinois,Saline,274.115,1020.8325,77.925,0.11000000000000001
1178,63036,37.98041,-90.37608,French Village,MO,Missouri,St. Francois,272.25250000000005,1020.925,75.6575,0.08000000000000002
1179,63091,38.36803,-91.39035,Rosebud,MO,Missouri,Gasconade,271.4875,1020.385,74.545,0.07
1180,63301,38.86333,-90.46736,Saint Charles,MO,Missouri,St. Charles,272.25250000000005,1020.925,75.6575,0.08000000000000002
1181,63345,39.27807,-91.57134,Farber,MO,Missouri,Audrain,271.4875,1020.385,74.545,0.07
1182,63388,38.88769,-91.74286,Williamsburg,MO,Missouri,Callaway,271.4875,1020.385,74.545,0.07
1183,63436,39.50658,-91.54663,Center,MO,Missouri,Ralls,271.4875,1020.385,74.545,0.07
1184,63625,37.57042,-90.97794,Black,MO,Missouri,Reynolds,272.25250000000005,1020.925,75.6575,0.08000000000000002
1185,63627,38.04471,-90.25724,Bloomsdale,MO,Missouri,Ste. Genevieve,272.25250000000005,1020.925,75.6575,0.08000000000000002
1186,63662,37.53116,-90.05128,Patton,MO,Missouri,Bollinger,272.25250000000005,1020.925,75.6575,0.08000000000000002
1187,63701,37.33785,-89.57681,Cape Girardeau,MO,Missouri,Cape Girardeau,272.25250000000005,1020.925,75.6575,0.08000000000000002
1188,63730,37.09789,-89.91708,Advance,MO,Missouri,Stoddard,272.25250000000005,1020.925,75.6575,0.08000000000000002
1189,63820,36.82421,-89.32559,Anniston,MO,Missouri,Mississippi,278.65999999999997,1019.55,77.17750000000001,0.16999999999999998
1190,63821,36.04869,-90.23924,Arbyrd,MO,Missouri,Dunklin,277.06500000000005,1021.0224999999999,75.6925,0.145
1191,63826,36.17481,-89.85056,Braggadocio,MO,Missouri,Pemiscot,277.06500000000005,1021.0224999999999,75.6925,0.145
1192,63828,36.75037,-89.69183000000002,Canalou,MO,Missouri,New Madrid,277.06500000000005,1021.0224999999999,75.6925,0.145
1193,64017,39.19551,-94.02403,Camden,MO,Missouri,Ray,270.5775,1020.935,73.45750000000001,0.025
1194,64018,39.45249,-94.72685,Camden Point,MO,Missouri,Platte,270.3775,1021.1474999999999,70.8075,0.0175
1195,64402,40.25757,-94.32789,Albany,MO,Missouri,Gentry,270.5775,1020.935,73.45750000000001,0.025
1196,64421,39.91297,-94.93341,Amazonia,MO,Missouri,Andrew,270.3775,1021.1474999999999,70.8075,0.0175
1197,64423,40.19007,-94.85584,Barnard,MO,Missouri,Nodaway,270.3775,1021.1474999999999,70.8075,0.0175
1198,64437,40.12858,-95.34692,Craig,MO,Missouri,Holt,270.3275,1020.9350000000001,71.41999999999999,0.01
1199,64446,40.3201,-95.42108,Fairfax,MO,Missouri,Atchison,266.66999999999996,1020.35,75.4975,0.01
1200,64660,39.5709,-93.09382,Mendon,MO,Missouri,Chariton,271.4875,1020.385,74.545,0.07
1201,64720,38.40491,-94.34314,Adrian,MO,Missouri,Bates,270.84749999999997,1020.5625,74.69749999999999,0.0225
1202,64748,37.35698,-94.09565,Golden City,MO,Missouri,Barton,273.4275,1015.5100000000001,74.47,0.05
1203,64831,36.65661,-94.4565,Anderson,MO,Missouri,McDonald,273.4275,1015.5100000000001,74.47,0.05
1204,65001,38.29067,-92.01086,Argyle,MO,Missouri,Osage,271.4875,1020.385,74.545,0.07
1205,65013,38.27532,-91.74974,Belle,MO,Missouri,Maries,271.4875,1020.385,74.545,0.07
1206,65018,38.62052,-92.5632,California,MO,Missouri,Moniteau,271.4875,1020.385,74.545,0.07
1207,65023,38.6525,-92.39909,Centertown,MO,Missouri,Cole,271.4875,1020.385,74.545,0.07
1208,65068,38.82174000000001,-92.61111,Prairie Home,MO,Missouri,Cooper,271.4875,1020.385,74.545,0.07
1209,65301,38.69843,-93.22615,Sedalia,MO,Missouri,Pettis,271.4875,1020.385,74.545,0.07
1210,65401,37.90464,-91.76534,Rolla,MO,Missouri,Phelps,271.4875,1020.385,74.545,0.07
1211,65438,36.92524,-91.50253,Birch Tree,MO,Missouri,Shannon,273.4275,1015.5100000000001,74.47,0.05
1212,65440,37.61185,-91.17846,Boss,MO,Missouri,Dent,272.25250000000005,1020.925,75.6575,0.08000000000000002
1213,65444,37.38089,-92.05625,Bucyrus,MO,Missouri,Texas,273.4275,1015.5100000000001,74.47,0.05
1214,65463,37.84624,-92.77837,Eldridge,MO,Missouri,Laclede,273.4275,1015.5100000000001,74.47,0.05
1215,65548,37.01443,-91.71492,Mountain View,MO,Missouri,Howell,273.4275,1015.5100000000001,74.47,0.05
1216,65606,36.6994,-91.3623,Alton,MO,Missouri,Oregon,273.4275,1015.5100000000001,74.47,0.05
1217,65609,36.52738,-92.15774,Bakersfield,MO,Missouri,Ozark,273.4275,1015.5100000000001,74.47,0.05
1218,65614,36.73949,-92.91607,Bradleyville,MO,Missouri,Taney,273.4275,1015.5100000000001,74.47,0.05
1219,65634,38.02347,-93.19243,Cross Timbers,MO,Missouri,Hickory,273.4275,1015.5100000000001,74.47,0.05
1220,66007,39.15518,-94.94125,Basehor,KS,Kansas,Leavenworth,270.3775,1021.1474999999999,70.8075,0.0175
1221,66008,39.7122,-95.17243,Bendena,KS,Kansas,Doniphan,270.3775,1021.1474999999999,70.8075,0.0175
1222,66012,39.0672,-94.92261,Bonner Springs,KS,Kansas,Wyandotte,270.84749999999997,1020.5625,74.69749999999999,0.0225
1223,66401,38.97012,-96.3105,Alma,KS,Kansas,Wabaunsee,270.3275,1020.9350000000001,71.41999999999999,0.01
1224,66402,38.91898,-95.84633,Auburn,KS,Kansas,Shawnee,270.3275,1020.9350000000001,71.41999999999999,0.01
1225,66404,39.87969,-96.17713,Baileyville,KS,Kansas,Nemaha,270.3275,1020.9350000000001,71.41999999999999,0.01
1226,66407,39.23008,-96.19408,Belvue,KS,Kansas,Pottawatomie,270.3275,1020.9350000000001,71.41999999999999,0.01
1227,66441,38.9851,-96.80306,Junction City,KS,Kansas,Geary,270.3275,1020.9350000000001,71.41999999999999,0.01
1228,66442,39.09328,-96.78981,Fort Riley,KS,Kansas,Riley,270.3275,1020.9350000000001,71.41999999999999,0.01
1229,66720,37.64837,-95.4598,Chanute,KS,Kansas,Neosho,270.84749999999997,1020.5625,74.69749999999999,0.0225
1230,66758,38.01363,-95.59374,Neosho Falls,KS,Kansas,Woodson,270.3275,1020.9350000000001,71.41999999999999,0.01
1231,66839,38.21416,-95.75078,Burlington,KS,Kansas,Coffey,270.3275,1020.9350000000001,71.41999999999999,0.01
1232,66843,38.22306,-96.73852,Cedar Point,KS,Kansas,Chase,271.51,1020.3325,70.305,0.0325
1233,66901,39.55446,-97.6458,Concordia,KS,Kansas,Cloud,267.375,1018.5325,75.9875,0.005
1234,66930,39.70368,-97.48045,Agenda,KS,Kansas,Republic,267.375,1018.5325,75.9875,0.005
1235,66936,39.91883,-98.30664,Burr Oak,KS,Kansas,Jewell,267.375,1018.5325,75.9875,0.005
1236,67001,37.75974,-97.62979,Andale,KS,Kansas,Sedgwick,271.51,1020.3325,70.305,0.0325
1237,67003,37.10384000000001,-98.07254,Anthony,KS,Kansas,Harper,271.51,1020.3325,70.305,0.0325
1238,67005,37.0651,-96.99179,Arkansas City,KS,Kansas,Cowley,271.51,1020.3325,70.305,0.0325
1239,67020,38.00553,-97.66875,Burrton,KS,Kansas,Harvey,271.51,1020.3325,70.305,0.0325
1240,67021,37.7785,-98.91531,Byers,KS,Kansas,Pratt,271.51,1020.3325,70.305,0.0325
1241,67029,37.17086,-99.27483,Coldwater,KS,Kansas,Comanche,271.51,1020.3325,70.305,0.0325
1242,67035,37.64861,-98.39197,Cunningham,KS,Kansas,Kingman,271.51,1020.3325,70.305,0.0325
1243,67054,37.57556,-99.31558,Greensburg,KS,Kansas,Kiowa,271.51,1020.3325,70.305,0.0325
1244,67057,37.06475,-98.77815,Hardtner,KS,Kansas,Barber,271.51,1020.3325,70.305,0.0325
1245,67330,37.16148,-95.31531,Altamont,KS,Kansas,Labette,274.3,1020.95,73.105,0.0875
1246,67437,39.5112,-98.55543,Downs,KS,Kansas,Osborne,267.375,1018.5325,75.9875,0.005
1247,67439,38.7545,-98.21984,Ellsworth,KS,Kansas,Ellsworth,271.51,1020.3325,70.305,0.0325
1248,67501,37.98307,-97.92973,Hutchinson,KS,Kansas,Reno,271.51,1020.3325,70.305,0.0325
1249,67515,38.6247,-100.06846,Arnold,KS,Kansas,Ness,271.51,1020.3325,70.305,0.0325
1250,67523,38.1975,-99.5493,Burdett,KS,Kansas,Pawnee,271.51,1020.3325,70.305,0.0325
1251,67601,38.8776,-99.34833,Hays,KS,Kansas,Ellis,271.51,1020.3325,70.305,0.0325
1252,67631,39.00386,-100.08622,Collyer,KS,Kansas,Trego,271.51,1020.3325,70.305,0.0325
1253,67632,39.3398,-99.58165,Damar,KS,Kansas,Rooks,271.51,1020.3325,70.305,0.0325
1254,67730,39.80575,-101.10589,Atwood,KS,Kansas,Rawlins,269.90250000000003,1015.39,60.449999999999996,0.0125
1255,67731,39.76268,-101.53621,Bird City,KS,Kansas,Cheyenne,269.90250000000003,1015.39,60.449999999999996,0.0125
1256,67733,39.31956,-101.51274,Edson,KS,Kansas,Sherman,269.90250000000003,1015.39,60.449999999999996,0.0125
1257,67736,38.84609,-100.4704,Gove,KS,Kansas,Gove,271.51,1020.3325,70.305,0.0325
1258,67758,38.8842,-101.76404,Sharon Springs,KS,Kansas,Wallace,270.25,999.8575,55.127500000000005,0.0025
1259,67835,37.97104,-100.32684,Cimarron,KS,Kansas,Gray,271.51,1020.3325,70.305,0.0325
1260,67838,38.0779,-101.13399,Deerfield,KS,Kansas,Kearny,270.25,999.8575,55.127500000000005,0.0025
1261,67839,38.47189,-100.43143,Dighton,KS,Kansas,Lane,271.51,1020.3325,70.305,0.0325
1262,67846,38.03484,-100.76704,Garden City,KS,Kansas,Finney,271.51,1020.3325,70.305,0.0325
1263,67849,38.14903,-99.71484,Hanston,KS,Kansas,Hodgeman,271.51,1020.3325,70.305,0.0325
1264,67855,37.55289000000001,-101.68846,Johnson,KS,Kansas,Stanton,273.23,1006.6624999999999,58.205,0.005
1265,67859,37.23914,-100.77919,Kismet,KS,Kansas,Seward,273.23,1006.6624999999999,58.205,0.005
1266,67861,38.47221,-101.38519,Leoti,KS,Kansas,Wichita,270.25,999.8575,55.127500000000005,0.0025
1267,67870,37.52222,-101.00144,Satanta,KS,Kansas,Haskell,273.23,1006.6624999999999,58.205,0.005
1268,67879,38.48065,-101.80605,Tribune,KS,Kansas,Greeley,270.25,999.8575,55.127500000000005,0.0025
1269,68003,41.07768,-96.38545,Ashland,NE,Nebraska,Saunders,267.375,1018.5325,75.9875,0.005
1270,68004,42.01242,-96.6321,Bancroft,NE,Nebraska,Cuming,266.66999999999996,1020.35,75.4975,0.01
1271,68005,41.14193,-95.89228,Bellevue,NE,Nebraska,Sarpy,266.66999999999996,1020.35,75.4975,0.01
1272,68019,41.78424,-96.37371,Craig,NE,Nebraska,Burt,266.66999999999996,1020.35,75.4975,0.01
1273,68039,42.11408,-96.34461,Macy,NE,Nebraska,Thurston,266.66999999999996,1020.35,75.4975,0.01
1274,68301,40.46516,-96.52387,Adams,NE,Nebraska,Gage,267.375,1018.5325,75.9875,0.005
1275,68303,40.26603,-97.422,Alexandria,NE,Nebraska,Thayer,267.375,1018.5325,75.9875,0.005
1276,68324,40.56002,-96.29215,Burr,NE,Nebraska,Otoe,267.375,1018.5325,75.9875,0.005
1277,68337,40.09667,-95.83811,Dawson,NE,Nebraska,Richardson,267.375,1018.5325,75.9875,0.005
1278,68623,41.44401,-98.15026,Belgrade,NE,Nebraska,Nance,267.375,1018.5325,75.9875,0.005
1279,68628,41.22073,-97.83968,Clarks,NE,Nebraska,Merrick,267.375,1018.5325,75.9875,0.005
1280,68629,41.71607,-97.12874,Clarkson,NE,Nebraska,Colfax,267.375,1018.5325,75.9875,0.005
1281,68636,42.00875,-98.15375,Elgin,NE,Nebraska,Antelope,267.375,1018.5325,75.9875,0.005
1282,68710,42.43882,-96.85468,Allen,NE,Nebraska,Dixon,263.4875,1013.1625,80.395,0.015000000000000001
1283,68753,42.88469,-99.44943,Mills,NE,Nebraska,Keya Paha,263.4875,1013.1625,80.395,0.015000000000000001
1284,68879,41.90208,-99.54467,Taylor,NE,Nebraska,Loup,267.375,1018.5325,75.9875,0.005
1285,68922,40.33395,-99.89664,Arapahoe,NE,Nebraska,Furnas,267.375,1018.5325,75.9875,0.005
1286,68924,40.49565,-99.11905,Axtell,NE,Nebraska,Kearney,267.375,1018.5325,75.9875,0.005
1287,68937,40.59087,-99.88136,Elwood,NE,Nebraska,Gosper,267.375,1018.5325,75.9875,0.005
1288,68943,40.04888,-97.89868,Hardy,NE,Nebraska,Nuckolls,267.375,1018.5325,75.9875,0.005
1289,69001,40.24977,-100.64166,McCook,NE,Nebraska,Red Willow,267.375,1018.5325,75.9875,0.005
1290,69021,40.13758,-101.54253,Benkelman,NE,Nebraska,Dundy,269.90250000000003,1015.39,60.449999999999996,0.0125
1291,69024,40.23235,-100.85151,Culbertson,NE,Nebraska,Hitchcock,269.90250000000003,1015.39,60.449999999999996,0.0125
1292,69025,40.62265,-100.51307,Curtis,NE,Nebraska,Frontier,267.375,1018.5325,75.9875,0.005
1293,69032,40.55803,-101.02052,Hayes Center,NE,Nebraska,Hayes,269.90250000000003,1015.39,60.449999999999996,0.0125
1294,69121,41.5665,-101.69469,Arthur,NE,Nebraska,Arthur,268.72249999999997,1016.4975,65.2025,0.0275
1295,69125,41.61648,-102.83343,Broadwater,NE,Nebraska,Morrill,268.72249999999997,1016.4975,65.2025,0.0275
1296,69127,41.12368,-101.91067,Brule,NE,Nebraska,Keith,268.72249999999997,1016.4975,65.2025,0.0275
1297,69128,41.22199000000001,-103.92135,Bushnell,NE,Nebraska,Kimball,268.72249999999997,1016.4975,65.2025,0.0275
1298,69135,42.24019000000001,-100.25949,Elsmere,NE,Nebraska,Cherry,263.4875,1013.1625,80.395,0.015000000000000001
1299,69147,41.50657,-102.10098,Lewellen,NE,Nebraska,Garden,268.72249999999997,1016.4975,65.2025,0.0275
1300,69152,42.10926,-101.13245,Mullen,NE,Nebraska,Hooker,268.72249999999997,1016.4975,65.2025,0.0275
1301,69301,42.12051,-102.88314,Alliance,NE,Nebraska,Box Butte,268.72249999999997,1016.4975,65.2025,0.0275
1302,69337,42.82654,-103.01091,Chadron,NE,Nebraska,Dawes,268.72249999999997,1016.4975,65.2025,0.0275
1303,69341,41.73123,-103.67304,Gering,NE,Nebraska,Scotts Bluff,268.72249999999997,1016.4975,65.2025,0.0275
1304,69345,41.5752,-103.74548,Harrisburg,NE,Nebraska,Banner,268.72249999999997,1016.4975,65.2025,0.0275
1305,70032,29.95808,-89.99784,Arabi,LA,Louisiana,St. Bernard,285.28,1020.1875,77.59,0.26
1306,70037,29.7482,-90.00820999999998,Belle Chasse,LA,Louisiana,Plaquemines,285.28,1020.1875,77.59,0.26
1307,70049,30.028890000000004,-90.57025,Edgard,LA,Louisiana,St. John the Baptist,285.2125,1020.2175,76.39,0.28
1308,70052,30.082390000000004,-90.6994,Gramercy,LA,Louisiana,St. James,285.2125,1020.2175,76.39,0.28
1309,70301,29.81411,-90.74082,Thibodaux,LA,Louisiana,Lafourche,285.2125,1020.2175,76.39,0.28
1310,70339,29.92366,-91.18158,Pierre Part,LA,Louisiana,Assumption,283.6375,1019.965,73.9425,0.30500000000000005
1311,70340,29.66974,-91.1043,Amelia,LA,Louisiana,St. Mary,283.6375,1019.965,73.9425,0.30500000000000005
1312,70343,29.54813,-90.55717,Bourg,LA,Louisiana,Terrebonne,285.2125,1020.2175,76.39,0.28
1313,70346,30.12207,-91.02757,Donaldsonville,LA,Louisiana,Ascension,283.6375,1019.965,73.9425,0.30500000000000005
1314,70401,30.52828,-90.45675,Hammond,LA,Louisiana,Tangipahoa,285.2875,1020.0975,76.8125,0.28
1315,70420,30.4872,-89.96749,Abita Springs,LA,Louisiana,St. Tammany,285.2875,1020.0975,76.8125,0.28
1316,70441,30.85865,-90.75279,Greensburg,LA,Louisiana,St. Helena,283.6375,1019.965,73.9425,0.30500000000000005
1317,70512,30.41407,-91.92303,Arnaudville,LA,Louisiana,St. Landry,283.58750000000003,1020.6675,78.0125,0.30499999999999994
1318,70513,29.903540000000003,-91.90288,Avery Island,LA,Louisiana,Iberia,283.58750000000003,1020.6675,78.0125,0.30499999999999994
1319,70515,30.45212,-92.56949,Basile,LA,Louisiana,Evangeline,283.58750000000003,1020.6675,78.0125,0.30499999999999994
1320,70516,30.36575,-92.30371,Branch,LA,Louisiana,Acadia,283.58750000000003,1020.6675,78.0125,0.30499999999999994
1321,70517,30.29484,-91.82954,Breaux Bridge,LA,Louisiana,St. Martin,283.58750000000003,1020.6675,78.0125,0.30499999999999994
1322,70601,30.22622,-93.21575,Lake Charles,LA,Louisiana,Calcasieu,283.18249999999995,1022.095,75.55749999999999,0.1575
1323,70634,30.79388,-93.23973,Deridder,LA,Louisiana,Beauregard,283.18249999999995,1022.095,75.55749999999999,0.1575
1324,70710,30.35311,-91.25939,Addis,LA,Louisiana,West Baton Rouge,283.6375,1019.965,73.9425,0.30500000000000005
1325,70712,30.96944,-91.59642,Angola,LA,Louisiana,West Feliciana,283.6375,1019.965,73.9425,0.30500000000000005
1326,70714,30.58646,-91.1277,Baker,LA,Louisiana,East Baton Rouge,283.6375,1019.965,73.9425,0.30500000000000005
1327,70715,30.757990000000003,-91.67792,Batchelor,LA,Louisiana,Pointe Coupee,283.6375,1019.965,73.9425,0.30500000000000005
1328,70721,30.2182,-91.08694,Carville,LA,Louisiana,Iberville,283.6375,1019.965,73.9425,0.30500000000000005
1329,70722,30.8425,-90.93158,Clinton,LA,Louisiana,East Feliciana,283.6375,1019.965,73.9425,0.30500000000000005
1330,71001,32.59461,-92.89717,Arcadia,LA,Louisiana,Bienville,279.8225,1021.36,73.66,0.20500000000000002
1331,71004,32.74841,-93.86309,Belcher,LA,Louisiana,Caddo,279.8225,1021.36,73.66,0.20500000000000002
1332,71006,32.72761,-93.63354,Benton,LA,Louisiana,Bossier,279.8225,1021.36,73.66,0.20500000000000002
1333,71019,32.0481,-93.31013,Coushatta,LA,Louisiana,Red River,279.8225,1021.36,73.66,0.20500000000000002
1334,71027,32.24518,-93.67306,Frierson,LA,Louisiana,De Soto,279.8225,1021.36,73.66,0.20500000000000002
1335,71031,32.00822,-92.90586,Goldonna,LA,Louisiana,Natchitoches,279.8225,1021.36,73.66,0.20500000000000002
1336,71065,31.80766,-93.50564,Pleasant Hill,LA,Louisiana,Sabine,279.8225,1021.36,73.66,0.20500000000000002
1337,71201,32.53298,-92.10528,Monroe,LA,Louisiana,Ouachita,279.8225,1021.36,73.66,0.20500000000000002
1338,71220,32.86485,-91.9114,Bastrop,LA,Louisiana,Morehouse,281.4275,1020.8375000000001,77.71000000000001,0.325
1339,71237,32.592490000000005,-91.49189,Epps,LA,Louisiana,West Carroll,281.4275,1020.8375000000001,77.71000000000001,0.325
1340,71254,32.79696,-91.25569,Lake Providence,LA,Louisiana,East Carroll,281.4275,1020.8375000000001,77.71000000000001,0.325
1341,71301,31.27424,-92.46876,Alexandria,LA,Louisiana,Rapides,283.58750000000003,1020.6675,78.0125,0.30499999999999994
1342,71316,31.26253,-91.75986,Acme,LA,Louisiana,Concordia,283.6375,1019.965,73.9425,0.30500000000000005
1343,71322,30.86405,-92.14654,Bunkie,LA,Louisiana,Avoyelles,283.58750000000003,1020.6675,78.0125,0.30499999999999994
1344,71340,31.76918,-91.81069,Harrisonburg,LA,Louisiana,Catahoula,283.6375,1019.965,73.9425,0.30500000000000005
1345,71357,32.111059999999995,-91.29853,Newellton,LA,Louisiana,Tensas,281.4275,1020.8375000000001,77.71000000000001,0.325
1346,71404,31.748240000000006,-92.74907,Atlanta,LA,Louisiana,Winn,279.8225,1021.36,73.66,0.20500000000000002
1347,71630,33.623459999999994,-91.20873,Arkansas City,AR,Arkansas,Desha,276.79999999999995,1021.5,76.9125,0.2625
1348,71635,33.13015,-92.00055,Crossett,AR,Arkansas,Ashley,279.8225,1021.36,73.66,0.20500000000000002
1349,71638,33.51931,-91.48055,Dermott,AR,Arkansas,Chicot,276.79999999999995,1021.5,76.9125,0.2625
1350,71655,33.63089,-91.7465,Monticello,AR,Arkansas,Drew,276.79999999999995,1021.5,76.9125,0.2625
1351,71722,33.71539,-93.1537,Bluff City,AR,Arkansas,Nevada,276.79999999999995,1021.5,76.9125,0.2625
1352,71801,33.64418,-93.59444,Hope,AR,Arkansas,Hempstead,279.8225,1021.36,73.66,0.20500000000000002
1353,71820,33.79444,-94.26818,Alleene,AR,Arkansas,Little River,279.8225,1021.36,73.66,0.20500000000000002
1354,71901,34.52698,-92.97157,Hot Springs National Park,AR,Arkansas,Garland,276.79999999999995,1021.5,76.9125,0.2625
1355,71929,34.30584,-93.16262,Bismarck,AR,Arkansas,Hot Spring,276.79999999999995,1021.5,76.9125,0.2625
1356,72003,34.38592,-91.39779,Almyra,AR,Arkansas,Arkansas,276.79999999999995,1021.5,76.9125,0.2625
1357,72006,35.24538,-91.35119,Augusta,AR,Arkansas,Woodruff,276.79999999999995,1021.5,76.9125,0.2625
1358,72007,35.00244,-91.98189,Austin,AR,Arkansas,Lonoke,276.79999999999995,1021.5,76.9125,0.2625
1359,72027,35.37104,-92.57652,Center Ridge,AR,Arkansas,Conway,276.79999999999995,1021.5,76.9125,0.2625
1360,72032,35.07331,-92.36154,Conway,AR,Arkansas,Faulkner,276.79999999999995,1021.5,76.9125,0.2625
1361,72165,35.57544,-91.45793,Thida,AR,Arkansas,Independence,276.79999999999995,1021.5,76.9125,0.2625
1362,72322,35.06487,-90.82211,Caldwell,AR,Arkansas,St. Francis,277.025,1021.5074999999999,76.4475,0.11
1363,72324,35.38816,-90.78199,Cherry Valley,AR,Arkansas,Cross,277.06500000000005,1021.0224999999999,75.6925,0.145
1364,72354,35.61566,-90.31656,Lepanto,AR,Arkansas,Poinsett,277.06500000000005,1021.0224999999999,75.6925,0.145
1365,72401,35.87895,-90.66061,Jonesboro,AR,Arkansas,Craighead,277.06500000000005,1021.0224999999999,75.6925,0.145
1366,72482,36.275,-91.36554,Williford,AR,Arkansas,Sharp,277.06500000000005,1021.0224999999999,75.6925,0.145
1367,72512,36.22049000000001,-91.7465,Horseshoe Bend,AR,Arkansas,Izard,276.79999999999995,1021.5,76.9125,0.2625
1368,72537,36.45017,-92.23374,Gamaliel,AR,Arkansas,Baxter,273.4275,1015.5100000000001,74.47,0.05
1369,72636,35.99012000000001,-92.71595,Gilbert,AR,Arkansas,Searcy,276.79999999999995,1021.5,76.9125,0.2625
1370,72824,35.135220000000004,-93.41369,Belleville,AR,Arkansas,Yell,276.79999999999995,1021.5,76.9125,0.2625
1371,72901,35.3664,-94.41576,Fort Smith,AR,Arkansas,Sebastian,274.3,1020.95,73.105,0.0875
1372,73003,35.66893,-97.49716,Edmond,OK,Oklahoma,Oklahoma,274.07000000000005,1020.6325,74.25,0.0475
1373,73010,35.10622,-97.67844,Blanchard,OK,Oklahoma,McClain,274.31,1020.6225,75.005,0.05
1374,73014,35.58109,-98.14626,Calumet,OK,Oklahoma,Canadian,274.07000000000005,1020.6325,74.25,0.0475
1375,73016,35.79895,-97.6871,Cashion,OK,Oklahoma,Kingfisher,274.07000000000005,1020.6325,74.25,0.0475
1376,73021,35.34249000000001,-98.6622,Colony,OK,Oklahoma,Washita,274.07000000000005,1020.6325,74.25,0.0475
1377,73052,34.831520000000005,-97.59585,Lindsay,OK,Oklahoma,Garvin,274.31,1020.6225,75.005,0.05
1378,73430,33.905190000000005,-97.36686,Burneyville,OK,Oklahoma,Love,277.97249999999997,1020.7975,70.8525,0.155
1379,73530,34.247240000000005,-99.02039,Davidson,OK,Oklahoma,Tillman,276.0425,1021.575,67.9275,0.037500000000000006
1380,73531,34.19635,-98.53354,Devol,OK,Oklahoma,Cotton,276.0425,1021.575,67.9275,0.037500000000000006
1381,73544,34.69497,-99.76502,Gould,OK,Oklahoma,Harmon,276.0425,1021.575,67.9275,0.037500000000000006
1382,73547,34.9871,-99.40795,Granite,OK,Oklahoma,Greer,276.0425,1021.575,67.9275,0.037500000000000006
1383,73627,35.20292,-99.45349,Carter,OK,Oklahoma,Beckham,276.0425,1021.575,67.9275,0.037500000000000006
1384,73628,35.62471,-99.68448,Cheyenne,OK,Oklahoma,Roger Mills,274.07000000000005,1020.6325,74.25,0.0475
1385,73716,36.49979,-98.51721,Aline,OK,Oklahoma,Alfalfa,274.07000000000005,1020.6325,74.25,0.0475
1386,73717,36.84324,-98.77287,Alva,OK,Oklahoma,Woods,271.51,1020.3325,70.305,0.0325
1387,73718,36.22232,-98.17033,Ames,OK,Oklahoma,Major,274.07000000000005,1020.6325,74.25,0.0475
1388,73801,36.47878,-99.43646,Woodward,OK,Oklahoma,Woodward,274.07000000000005,1020.6325,74.25,0.0475
1389,73933,36.74596,-102.57362,Boise City,OK,Oklahoma,Cimarron,273.23,1006.6624999999999,58.205,0.005
1390,74008,35.92456,-95.87253,Bixby,OK,Oklahoma,Tulsa,274.3,1020.95,73.105,0.0875
1391,74010,35.81446,-96.36493,Bristow,OK,Oklahoma,Creek,274.3,1020.95,73.105,0.0875
1392,74014,36.05998,-95.67515,Broken Arrow,OK,Oklahoma,Wagoner,274.3,1020.95,73.105,0.0875
1393,74015,36.18229,-95.70744,Catoosa,OK,Oklahoma,Rogers,274.3,1020.95,73.105,0.0875
1394,74023,35.95803,-96.7497,Cushing,OK,Oklahoma,Payne,274.3,1020.95,73.105,0.0875
1395,74027,36.79882,-95.58707,Delaware,OK,Oklahoma,Nowata,274.3,1020.95,73.105,0.0875
1396,74047,35.85505,-96.01407,Mounds,OK,Oklahoma,Okmulgee,274.3,1020.95,73.105,0.0875
1397,74330,36.43708,-95.27256,Adair,OK,Oklahoma,Mayes,274.3,1020.95,73.105,0.0875
1398,74401,35.72181,-95.46533,Muskogee,OK,Oklahoma,Muskogee,274.3,1020.95,73.105,0.0875
1399,74425,35.17235,-95.64189,Canadian,OK,Oklahoma,Pittsburg,274.3,1020.95,73.105,0.0875
1400,74435,35.57733,-95.09355,Gore,OK,Oklahoma,Sequoyah,274.3,1020.95,73.105,0.0875
1401,74521,34.65767,-95.09368,Albion,OK,Oklahoma,Pushmataha,274.3,1020.95,73.105,0.0875
1402,74525,34.33507,-96.06885,Atoka,OK,Oklahoma,Atoka,278.235,1021.165,70.06,0.1775
1403,74534,34.61213,-96.36845,Centrahoma,OK,Oklahoma,Coal,274.31,1020.6225,75.005,0.05
1404,74563,34.97376,-95.06672,Red Oak,OK,Oklahoma,Latimer,274.3,1020.95,73.105,0.0875
1405,74571,34.71847,-94.98841,Talihina,OK,Oklahoma,Le Flore,274.3,1020.95,73.105,0.0875
1406,74601,36.70063,-97.14621,Ponca City,OK,Oklahoma,Kay,271.51,1020.3325,70.305,0.0325
1407,74722,34.387840000000004,-94.91665,Battiest,OK,Oklahoma,McCurtain,278.235,1021.165,70.06,0.1775
1408,74829,35.51735,-96.47046,Boley,OK,Oklahoma,Okfuskee,274.3,1020.95,73.105,0.0875
1409,75002,33.08965,-96.60752,Allen,TX,Texas,Collin,278.33,1021.2225,69.38499999999999,0.1875
1410,75007,33.00462,-96.89715,Carrollton,TX,Texas,Denton,278.355,1021.4225000000001,67.28,0.185
1411,75032,32.85505,-96.42772,Rockwall,TX,Texas,Rockwall,278.4425,1021.3525,69.6725,0.1825
1412,75054,32.59059,-97.04051,Grand Prairie,TX,Texas,Tarrant,278.3075,1021.2325,68.7075,0.1775
1413,75102,32.06629,-96.64223,Barry,TX,Texas,Navarro,279.025,1021.5325,71.47,0.1975
1414,75103,32.51192,-95.88235,Canton,TX,Texas,Van Zandt,278.4425,1021.3525,69.6725,0.1825
1415,75114,32.61016,-96.44553,Crandall,TX,Texas,Kaufman,278.4425,1021.3525,69.6725,0.1825
1416,75135,33.06521,-96.22289,Caddo Mills,TX,Texas,Hunt,278.235,1021.165,70.06,0.1775
1417,75440,32.87828,-95.75557,Emory,TX,Texas,Rains,278.4425,1021.3525,69.6725,0.1825
1418,75451,32.96634,-95.1212,Leesburg,TX,Texas,Camp,279.8225,1021.36,73.66,0.20500000000000002
1419,75455,33.21697,-94.97819,Mount Pleasant,TX,Texas,Titus,279.8225,1021.36,73.66,0.20500000000000002
1420,75501,33.37366,-94.13142,Texarkana,TX,Texas,Bowie,279.8225,1021.36,73.66,0.20500000000000002
1421,75601,32.50856,-94.72383,Longview,TX,Texas,Gregg,279.8225,1021.36,73.66,0.20500000000000002
1422,75760,31.8041,-94.8556,Cushing,TX,Texas,Nacogdoches,279.8225,1021.36,73.66,0.20500000000000002
1423,75838,31.47745,-96.22824,Donie,TX,Texas,Freestone,279.025,1021.5325,71.47,0.1975
1424,75845,31.10075,-95.08954,Groveton,TX,Texas,Trinity,283.18249999999995,1022.095,75.55749999999999,0.1575
1425,75901,31.301340000000003,-94.65552,Lufkin,TX,Texas,Angelina,283.18249999999995,1022.095,75.55749999999999,0.1575
1426,75929,31.245490000000004,-94.19464,Broaddus,TX,Texas,San Augustine,283.18249999999995,1022.095,75.55749999999999,0.1575
1427,76008,32.69291,-97.62376,Aledo,TX,Texas,Parker,278.21999999999997,1021.345,69.39000000000001,0.16999999999999998
1428,76043,32.20528,-97.79709,Glen Rose,TX,Texas,Somervell,278.21999999999997,1021.345,69.39000000000001,0.16999999999999998
1429,76048,32.42318,-97.80877,Granbury,TX,Texas,Hood,278.21999999999997,1021.345,69.39000000000001,0.16999999999999998
1430,76067,32.80005,-98.12756,Mineral Wells,TX,Texas,Palo Pinto,278.21999999999997,1021.345,69.39000000000001,0.16999999999999998
1431,76230,33.51993,-97.95469,Bowie,TX,Texas,Montague,276.0425,1021.575,67.9275,0.037500000000000006
1432,76238,33.48818,-97.35069,Era,TX,Texas,Cooke,277.97249999999997,1020.7975,70.8525,0.155
1433,76351,33.56892,-98.67455,Archer City,TX,Texas,Archer,276.0425,1021.575,67.9275,0.037500000000000006
1434,76364,34.11368,-99.01676,Harrold,TX,Texas,Wilbarger,276.0425,1021.575,67.9275,0.037500000000000006
1435,76372,33.25292,-98.91903,Newcastle,TX,Texas,Young,276.0425,1021.575,67.9275,0.037500000000000006
1436,76380,33.61862,-99.24239,Seymour,TX,Texas,Baylor,276.0425,1021.575,67.9275,0.037500000000000006
1437,76401,32.28258,-98.19881,Stephenville,TX,Texas,Erath,278.21999999999997,1021.345,69.39000000000001,0.16999999999999998
1438,76427,33.15546,-98.37755,Bryson,TX,Texas,Jack,276.0425,1021.575,67.9275,0.037500000000000006
1439,76430,32.785,-99.2474,Albany,TX,Texas,Shackelford,277.01750000000004,1020.4525,65.10249999999999,0.015000000000000001
1440,76435,32.25177,-98.85661,Carbon,TX,Texas,Eastland,277.01750000000004,1020.4525,65.10249999999999,0.015000000000000001
1441,76443,32.13341,-99.21059,Cross Plains,TX,Texas,Callahan,277.01750000000004,1020.4525,65.10249999999999,0.015000000000000001
1442,76483,33.18878,-99.27224,Throckmorton,TX,Texas,Throckmorton,277.01750000000004,1020.4525,65.10249999999999,0.015000000000000001
1443,76518,30.84974,-97.15418,Buckholts,TX,Texas,Milam,279.1225,1019.1025,69.6725,0.095
1444,76522,31.216040000000003,-97.97338,Copperas Cove,TX,Texas,Coryell,279.1225,1019.1025,69.6725,0.095
1445,76524,31.26693,-97.20313,Eddy,TX,Texas,McLennan,279.025,1021.5325,71.47,0.1975
1446,76539,31.08867,-98.00991,Kempner,TX,Texas,Lampasas,279.1225,1019.1025,69.6725,0.095
1447,76570,31.08166,-96.93867,Rosebud,TX,Texas,Falls,279.025,1021.5325,71.47,0.1975
1448,76634,31.80782,-97.56146,Clifton,TX,Texas,Bosque,279.025,1021.5325,71.47,0.1975
1449,76821,31.73869,-99.93625,Ballinger,TX,Texas,Runnels,277.01750000000004,1020.4525,65.10249999999999,0.015000000000000001
1450,76824,31.0036,-98.47069,Bend,TX,Texas,San Saba,279.1225,1019.1025,69.6725,0.095
1451,76825,31.10471,-99.39545,Brady,TX,Texas,McCulloch,277.01750000000004,1020.4525,65.10249999999999,0.015000000000000001
1452,76828,32.00902,-99.29396,Burkett,TX,Texas,Coleman,277.01750000000004,1020.4525,65.10249999999999,0.015000000000000001
1453,76831,30.63979,-98.91958,Castell,TX,Texas,Llano,280.33250000000004,1021.5025,68.34,0.11
1454,76837,31.2208,-99.89593,Eden,TX,Texas,Concho,277.01750000000004,1020.4525,65.10249999999999,0.015000000000000001
1455,76849,30.48896,-99.79705,Junction,TX,Texas,Kimble,282.19500000000005,1017.5799999999999,65.78999999999999,0.04
1456,76901,31.540940000000006,-100.62877,San Angelo,TX,Texas,Tom Green,277.01750000000004,1020.4525,65.10249999999999,0.015000000000000001
1457,76930,31.27278,-101.17275,Barnhart,TX,Texas,Irion,276.89750000000004,1020.2125000000001,61.787499999999994,0.0175
1458,76932,31.26949,-101.54094,Big Lake,TX,Texas,Reagan,276.89750000000004,1020.2125000000001,61.787499999999994,0.0175
1459,76933,31.86341,-100.28783,Bronte,TX,Texas,Coke,277.01750000000004,1020.4525,65.10249999999999,0.015000000000000001
1460,76936,30.88566,-100.58752,Eldorado,TX,Texas,Schleicher,282.19500000000005,1017.5799999999999,65.78999999999999,0.04
1461,76950,30.437340000000006,-100.56036,Sonora,TX,Texas,Sutton,282.19500000000005,1017.5799999999999,65.78999999999999,0.04
1462,76951,31.81488,-101.04641,Sterling City,TX,Texas,Sterling,276.89750000000004,1020.2125000000001,61.787499999999994,0.0175
1463,77053,29.58305,-95.46032,Houston,TX,Texas,Fort Bend,283.075,1020.87,72.2175,0.1925
1464,77328,30.39628,-95.19391,Cleveland,TX,Texas,San Jacinto,283.075,1020.87,72.2175,0.1925
1465,77363,30.32935,-95.85388,Plantersville,TX,Texas,Grimes,283.075,1020.87,72.2175,0.1925
1466,77412,29.555,-96.42816,Altair,TX,Texas,Colorado,283.075,1020.87,72.2175,0.1925
1467,77414,28.89958,-95.88091,Bay City,TX,Texas,Matagorda,283.075,1020.87,72.2175,0.1925
1468,77418,29.978790000000004,-96.25055,Bellville,TX,Texas,Austin,283.075,1020.87,72.2175,0.1925
1469,77420,29.2581,-95.93008,Boling,TX,Texas,Wharton,283.075,1020.87,72.2175,0.1925
1470,77422,28.96092,-95.56105,Brazoria,TX,Texas,Brazoria,283.38250000000005,1020.1325,72.33000000000001,0.18
1471,77423,29.83893,-95.98251,Brookshire,TX,Texas,Waller,283.075,1020.87,72.2175,0.1925
1472,77510,29.36107,-95.08555,Santa Fe,TX,Texas,Galveston,283.38250000000005,1020.1325,72.33000000000001,0.18
1473,77801,30.63888,-96.36343,Bryan,TX,Texas,Brazos,279.025,1021.5325,71.47,0.1975
1474,77836,30.5375,-96.68003,Caldwell,TX,Texas,Burleson,280.33250000000004,1021.5025,68.34,0.11
1475,77901,28.80495,-96.98474,Victoria,TX,Texas,Victoria,284.66249999999997,1020.8399999999999,76.97749999999999,0.15500000000000003
1476,77950,28.30141,-96.87481,Austwell,TX,Texas,Refugio,284.66249999999997,1020.8399999999999,76.97749999999999,0.15500000000000003
1477,77954,29.09675,-97.28269,Cuero,TX,Texas,DeWitt,281.255,1020.4925,70.82,0.1375
1478,77960,28.6691,-97.20818,Fannin,TX,Texas,Goliad,284.66249999999997,1020.8399999999999,76.97749999999999,0.15500000000000003
1479,77964,29.37701,-96.84377,Hallettsville,TX,Texas,Lavaca,280.33250000000004,1021.5025,68.34,0.11
1480,78001,28.29493,-99.21954,Artesia Wells,TX,Texas,La Salle,283.8125,1020.095,71.515,0.05499999999999999
1481,78002,29.28295,-98.73826,Atascosa,TX,Texas,Bexar,281.255,1020.4925,70.82,0.1375
1482,78003,29.70959,-99.09413,Bandera,TX,Texas,Bandera,281.255,1020.4925,70.82,0.1375
1483,78005,28.94844,-98.85243,Bigfoot,TX,Texas,Frio,281.255,1020.4925,70.82,0.1375
1484,78007,28.49506,-98.37836,Calliham,TX,Texas,McMullen,281.255,1020.4925,70.82,0.1375
1485,78008,28.72411,-98.27925,Campbellton,TX,Texas,Atascosa,281.255,1020.4925,70.82,0.1375
1486,78010,29.9123,-99.04482,Center Point,TX,Texas,Kerr,281.255,1020.4925,70.82,0.1375
1487,78022,28.25927,-98.14445,George West,TX,Texas,Live Oak,284.66249999999997,1020.8399999999999,76.97749999999999,0.15500000000000003
1488,78040,27.51345,-99.50228,Laredo,TX,Texas,Webb,283.8125,1020.095,71.515,0.05499999999999999
1489,78067,27.13267,-99.33646,San Ygnacio,TX,Texas,Zapata,283.845,1020.9350000000001,71.02000000000001,0.07500000000000001
1490,78070,29.89826,-98.4063,Spring Branch,TX,Texas,Comal,281.255,1020.4925,70.82,0.1375
1491,78102,28.40248,-97.71084,Beeville,TX,Texas,Bee,284.66249999999997,1020.8399999999999,76.97749999999999,0.15500000000000003
1492,78108,29.57435,-98.21878,Cibolo,TX,Texas,Guadalupe,281.255,1020.4925,70.82,0.1375
1493,78113,28.95336,-98.12689,Falls City,TX,Texas,Karnes,281.255,1020.4925,70.82,0.1375
1494,78122,29.4366,-97.73588,Leesville,TX,Texas,Gonzales,281.255,1020.4925,70.82,0.1375
1495,78330,27.74268,-97.91564,Agua Dulce,TX,Texas,Nueces,284.66249999999997,1020.8399999999999,76.97749999999999,0.15500000000000003
1496,78332,27.71843,-98.14285,Alice,TX,Texas,Jim Wells,284.66249999999997,1020.8399999999999,76.97749999999999,0.15500000000000003
1497,78336,27.94281,-97.18347,Aransas Pass,TX,Texas,San Patricio,284.66249999999997,1020.8399999999999,76.97749999999999,0.15500000000000003
1498,78338,26.89255,-97.76255,Armstrong,TX,Texas,Kenedy,285.205,1020.96,74.9575,0.13
1499,78358,28.068240000000007,-97.04427,Fulton,TX,Texas,Aransas,284.66249999999997,1020.8399999999999,76.97749999999999,0.15500000000000003
1500,78361,27.104340000000004,-98.78675,Hebbronville,TX,Texas,Jim Hogg,283.845,1020.9350000000001,71.02000000000001,0.07500000000000001
1501,78363,27.44953,-97.86267,Kingsville,TX,Texas,Kleberg,284.66249999999997,1020.8399999999999,76.97749999999999,0.15500000000000003
1502,78501,26.21583,-98.23917,Mcallen,TX,Texas,Hidalgo,285.205,1020.96,74.9575,0.13
1503,78536,26.64926,-98.4511,Delmita,TX,Texas,Starr,285.205,1020.96,74.9575,0.13
1504,78561,26.47803,-97.91813,Lasara,TX,Texas,Willacy,285.205,1020.96,74.9575,0.13
1505,78602,30.12383,-97.32841,Bastrop,TX,Texas,Bastrop,280.33250000000004,1021.5025,68.34,0.11
1506,78605,30.7822,-98.04563,Bertram,TX,Texas,Burnet,279.1225,1019.1025,69.6725,0.095
1507,78606,30.0926,-98.46682,Blanco,TX,Texas,Blanco,280.33250000000004,1021.5025,68.34,0.11
1508,78610,30.07722,-97.83741,Buda,TX,Texas,Hays,280.33250000000004,1021.5025,68.34,0.11
1509,78617,30.14719,-97.59614,Del Valle,TX,Texas,Travis,280.33250000000004,1021.5025,68.34,0.11
1510,78618,30.47773,-99.16514,Doss,TX,Texas,Gillespie,281.255,1020.4925,70.82,0.1375
1511,78801,29.35664,-99.87148,Uvalde,TX,Texas,Uvalde,282.04249999999996,1006.1275,70.0975,0.035
1512,78827,28.42466,-99.73537,Asherton,TX,Texas,Dimmit,282.04249999999996,1006.1275,70.0975,0.035
1513,78829,28.88992,-99.5591,Batesville,TX,Texas,Zavala,282.04249999999996,1006.1275,70.0975,0.035
1514,78832,29.39072,-100.41624,Brackettville,TX,Texas,Kinney,282.19500000000005,1017.5799999999999,65.78999999999999,0.04
1515,78833,29.693620000000006,-100.05887,Camp Wood,TX,Texas,Real,282.19500000000005,1017.5799999999999,65.78999999999999,0.04
1516,78837,29.83396,-101.21496,Comstock,TX,Texas,Val Verde,282.19500000000005,1017.5799999999999,65.78999999999999,0.04
1517,78852,28.75206,-100.31076,Eagle Pass,TX,Texas,Maverick,282.04249999999996,1006.1275,70.0975,0.035
1518,79005,36.38545,-100.50397,Booker,TX,Texas,Lipscomb,273.23,1006.6624999999999,58.205,0.005
1519,79009,34.53322,-102.88568,Bovina,TX,Texas,Parmer,273.23,1006.6624999999999,58.205,0.005
1520,79014,35.91222,-100.29813,Canadian,TX,Texas,Hemphill,273.23,1006.6624999999999,58.205,0.005
1521,79015,34.94032,-101.91647,Canyon,TX,Texas,Randall,273.23,1006.6624999999999,58.205,0.005
1522,79018,35.69549,-102.38629,Channing,TX,Texas,Hartley,273.23,1006.6624999999999,58.205,0.005
1523,79022,36.10661,-102.61107,Dalhart,TX,Texas,Dallam,273.23,1006.6624999999999,58.205,0.005
1524,79025,34.94098,-102.2059,Dawn,TX,Texas,Deaf Smith,273.23,1006.6624999999999,58.205,0.005
1525,79027,34.486909999999995,-102.33088,Dimmitt,TX,Texas,Castro,273.23,1006.6624999999999,58.205,0.005
1526,79031,34.26917,-102.45283,Earth,TX,Texas,Lamb,275.53999999999996,1006.4775,64.03,0.0175
1527,79033,36.33008,-100.98394,Farnsworth,TX,Texas,Ochiltree,273.23,1006.6624999999999,58.205,0.005
1528,79039,35.26038,-101.09519,Groom,TX,Texas,Carson,273.23,1006.6624999999999,58.205,0.005
1529,79040,36.29869,-101.5571,Gruver,TX,Texas,Hansford,273.23,1006.6624999999999,58.205,0.005
1530,79042,34.74685,-101.90313,Happy,TX,Texas,Swisher,273.23,1006.6624999999999,58.205,0.005
1531,79095,34.896159999999995,-100.2061,Wellington,TX,Texas,Collingsworth,273.23,1006.6624999999999,58.205,0.005
1532,79201,34.43715,-100.28085,Childress,TX,Texas,Childress,273.23,1006.6624999999999,58.205,0.005
1533,79220,33.75776,-100.78642,Afton,TX,Texas,Dickens,275.53999999999996,1006.4775,64.03,0.0175
1534,79226,34.90323,-100.99525,Clarendon,TX,Texas,Donley,273.23,1006.6624999999999,58.205,0.005
1535,79227,33.899570000000004,-99.77068,Crowell,TX,Texas,Foard,276.0425,1021.575,67.9275,0.037500000000000006
1536,79234,34.22681,-100.92952,Flomot,TX,Texas,Motley,275.53999999999996,1006.4775,64.03,0.0175
1537,79236,33.64183,-100.22815,Guthrie,TX,Texas,King,277.01750000000004,1020.4525,65.10249999999999,0.015000000000000001
1538,79248,34.00045,-100.29274,Paducah,TX,Texas,Cottle,275.53999999999996,1006.4775,64.03,0.0175
1539,79255,34.34612,-101.05839,Quitaque,TX,Texas,Briscoe,275.53999999999996,1006.4775,64.03,0.0175
1540,79313,33.8049,-102.16223,Anton,TX,Texas,Hockley,275.53999999999996,1006.4775,64.03,0.0175
1541,79314,33.58498,-103.01455,Bledsoe,TX,Texas,Cochran,275.53999999999996,1006.4775,64.03,0.0175
1542,79316,33.14437,-102.31614,Brownfield,TX,Texas,Terry,275.53999999999996,1006.4775,64.03,0.0175
1543,79322,33.65766,-101.18732,Crosbyton,TX,Texas,Crosby,275.53999999999996,1006.4775,64.03,0.0175
1544,79323,32.94698,-102.87231,Denver City,TX,Texas,Yoakum,275.53999999999996,1006.4775,64.03,0.0175
1545,79324,33.89794000000001,-102.68244,Enochs,TX,Texas,Bailey,275.53999999999996,1006.4775,64.03,0.0175
1546,79329,33.7248,-101.68202,Idalou,TX,Texas,Lubbock,275.53999999999996,1006.4775,64.03,0.0175
1547,79330,33.03669,-101.20991,Justiceburg,TX,Texas,Garza,275.53999999999996,1006.4775,64.03,0.0175
1548,79342,32.9082,-102.33661,Loop,TX,Texas,Gaines,275.53999999999996,1006.4775,64.03,0.0175
1549,79351,32.92343,-101.76915,Odonnell,TX,Texas,Lynn,275.53999999999996,1006.4775,64.03,0.0175
1550,79502,33.17852,-100.24898,Aspermont,TX,Texas,Stonewall,277.01750000000004,1020.4525,65.10249999999999,0.015000000000000001
1551,79506,32.11798,-100.32345,Blackwell,TX,Texas,Nolan,277.01750000000004,1020.4525,65.10249999999999,0.015000000000000001
1552,79517,32.87671,-101.24268,Fluvanna,TX,Texas,Scurry,275.53999999999996,1006.4775,64.03,0.0175
1553,79534,32.75673,-100.21828,McCaulley,TX,Texas,Fisher,277.01750000000004,1020.4525,65.10249999999999,0.015000000000000001
1554,79714,32.32943,-102.69918,Andrews,TX,Texas,Andrews,276.89750000000004,1020.2125000000001,61.787499999999994,0.0175
1555,79718,31.00535,-103.76186,Balmorhea,TX,Texas,Reeves,276.89750000000004,1020.2125000000001,61.787499999999994,0.0175
1556,79730,31.16955,-103.0851,Coyanosa,TX,Texas,Pecos,276.89750000000004,1020.2125000000001,61.787499999999994,0.0175
1557,79731,31.41808,-102.48336,Crane,TX,Texas,Crane,276.89750000000004,1020.2125000000001,61.787499999999994,0.0175
1558,79738,32.75712,-101.47555,Gail,TX,Texas,Borden,275.53999999999996,1006.4775,64.03,0.0175
1559,79739,31.76367,-101.51601,Garden City,TX,Texas,Glasscock,276.89750000000004,1020.2125000000001,61.787499999999994,0.0175
1560,79741,31.97,-102.62753,Goldsmith,TX,Texas,Ector,276.89750000000004,1020.2125000000001,61.787499999999994,0.0175
1561,79745,31.82638,-103.05179,Kermit,TX,Texas,Winkler,276.89750000000004,1020.2125000000001,61.787499999999994,0.0175
1562,79752,31.21544,-102.15319,McCamey,TX,Texas,Upton,276.89750000000004,1020.2125000000001,61.787499999999994,0.0175
1563,79754,31.80166,-103.59994,Mentone,TX,Texas,Loving,276.89750000000004,1020.2125000000001,61.787499999999994,0.0175
1564,79821,31.97696,-106.59781,Anthony,TX,Texas,El Paso,277.55499999999995,1018.97,53.805,0.01
1565,79830,29.80008,-103.22468,Alpine,TX,Texas,Brewster,282.19500000000005,1017.5799999999999,65.78999999999999,0.04
1566,79837,32.190259999999995,-105.26698,Dell City,TX,Texas,Hudspeth,277.55499999999995,1018.97,53.805,0.01
1567,79843,30.12696,-104.22342,Marfa,TX,Texas,Presidio,280.3425,962.63,55.785,0.0075
1568,79855,31.092370000000006,-104.63688,Van Horn,TX,Texas,Culberson,277.5725,1005.62,52.96,0.0075
1569,80010,39.73868,-104.86256000000002,Aurora,CO,Colorado,Arapahoe,269.90250000000003,1015.39,60.449999999999996,0.0125
1570,80020,39.93182,-105.07453,Broomfield,CO,Colorado,Broomfield,269.7875,1015.7774999999999,60.57749999999999,0.015
1571,80025,39.94509,-105.29066,Eldorado Springs,CO,Colorado,Boulder,269.8625,1012.4175,58.855000000000004,0.015
1572,80202,39.75193,-104.99776,Denver,CO,Colorado,Denver,269.835,1015.5124999999999,59.349999999999994,0.0125
1573,80422,39.86909,-105.53237,Black Hawk,CO,Colorado,Gilpin,269.8625,1012.4175,58.855000000000004,0.015
1574,80423,39.89446,-106.59512,Bond,CO,Colorado,Eagle,269.8625,1012.4175,58.855000000000004,0.015
1575,80428,40.86096,-106.96086,Clark,CO,Colorado,Routt,268.72249999999997,1016.4975,65.2025,0.0275
1576,80436,39.78748,-105.64738,Dumont,CO,Colorado,Clear Creek,269.8625,1012.4175,58.855000000000004,0.015
1577,80442,39.9348,-105.88144,Fraser,CO,Colorado,Grand,269.8625,1012.4175,58.855000000000004,0.015
1578,80511,40.34002,-105.57227,Estes Park,CO,Colorado,Larimer,268.72249999999997,1016.4975,65.2025,0.0275
1579,80514,40.06592,-104.95832,Dacono,CO,Colorado,Weld,269.69,1016.0875,61.13,0.0125
1580,80727,40.06044,-102.5039,Eckley,CO,Colorado,Yuma,269.90250000000003,1015.39,60.449999999999996,0.0125
1581,80805,39.31229,-102.44174,Bethune,CO,Colorado,Kit Carson,269.90250000000003,1015.39,60.449999999999996,0.0125
1582,80813,38.76765,-105.0998,Cripple Creek,CO,Colorado,Teller,268.3725,1014.2225000000001,56.6975,0.0025
1583,81001,38.29452,-104.53378,Pueblo,CO,Colorado,Pueblo,270.25,999.8575,55.127500000000005,0.0025
1584,81020,37.53092,-104.52319,Aguilar,CO,Colorado,Las Animas,270.25,999.8575,55.127500000000005,0.0025
1585,81029,37.08496,-102.48255,Campo,CO,Colorado,Baca,273.23,1006.6624999999999,58.205,0.005
1586,81030,38.10257,-103.51925,Cheraw,CO,Colorado,Otero,270.25,999.8575,55.127500000000005,0.0025
1587,81033,38.19488,-103.86133,Crowley,CO,Colorado,Crowley,270.25,999.8575,55.127500000000005,0.0025
1588,81038,38.07927,-103.14042,Fort Lyon,CO,Colorado,Bent,270.25,999.8575,55.127500000000005,0.0025
1589,81040,37.78545,-105.2308,Gardner,CO,Colorado,Huerfano,270.25,999.8575,55.127500000000005,0.0025
1590,81041,37.875,-102.38286,Granada,CO,Colorado,Prowers,270.25,999.8575,55.127500000000005,0.0025
1591,81101,37.48372,-105.82998,Alamosa,CO,Colorado,Alamosa,270.25,999.8575,55.127500000000005,0.0025
1592,81120,37.16424,-106.27833,Antonito,CO,Colorado,Conejos,270.25,999.8575,55.127500000000005,0.0025
1593,81121,37.10982,-107.43911,Arboles,CO,Colorado,Archuleta,271.64,1018.61,60.245,0.01
1594,81122,37.33995,-107.47857,Bayfield,CO,Colorado,La Plata,271.64,1018.61,60.245,0.01
1595,81123,37.39859000000001,-105.56977,Blanca,CO,Colorado,Costilla,270.25,999.8575,55.127500000000005,0.0025
1596,81125,37.81704000000001,-106.06909,Center,CO,Colorado,Saguache,270.25,999.8575,55.127500000000005,0.0025
1597,81132,37.70747,-106.42885,Del Norte,CO,Colorado,Rio Grande,270.25,999.8575,55.127500000000005,0.0025
1598,81201,38.56049,-106.06482,Salida,CO,Colorado,Chaffee,268.3725,1014.2225000000001,56.6975,0.0025
1599,81210,38.82131,-106.63113,Almont,CO,Colorado,Gunnison,268.3725,1014.2225000000001,56.6975,0.0025
1600,81235,38.01367,-107.29516,Lake City,CO,Colorado,Hinsdale,268.3725,1014.2225000000001,56.6975,0.0025
1601,81320,37.72182,-108.73343,Cahone,CO,Colorado,Dolores,271.64,1018.61,60.245,0.01
1602,81321,37.3184,-108.76218,Cortez,CO,Colorado,Montezuma,271.64,1018.61,60.245,0.01
1603,81325,37.91688,-108.72802,Egnar,CO,Colorado,San Miguel,268.3725,1014.2225000000001,56.6975,0.0025
1604,81401,38.48717,-107.75847,Montrose,CO,Colorado,Montrose,268.3725,1014.2225000000001,56.6975,0.0025
1605,81427,38.02011,-107.63167,Ouray,CO,Colorado,Ouray,268.3725,1014.2225000000001,56.6975,0.0025
1606,81433,37.78202,-107.63083,Silverton,CO,Colorado,San Juan,270.25,999.8575,55.127500000000005,0.0025
1607,81501,39.07211,-108.54759,Grand Junction,CO,Colorado,Mesa,267.0225,1020.06,81.6125,0.0225
1608,81610,40.3027,-108.76948,Dinosaur,CO,Colorado,Moffat,267.0225,1020.06,81.6125,0.0225
1609,81611,39.15162,-106.77138,Aspen,CO,Colorado,Pitkin,269.755,1013.9599999999999,58.3,0.01
1610,81641,40.0804,-107.76297,Meeker,CO,Colorado,Rio Blanco,269.8625,1012.4175,58.855000000000004,0.015
1611,82001,41.09143,-104.93442,Cheyenne,WY,Wyoming,Laramie,268.72249999999997,1016.4975,65.2025,0.0275
1612,82212,42.28847,-104.52488,Fort Laramie,WY,Wyoming,Goshen,268.72249999999997,1016.4975,65.2025,0.0275
1613,82222,43.20147,-104.67087,Lance Creek,WY,Wyoming,Niobrara,268.72249999999997,1016.4975,65.2025,0.0275
1614,82229,42.87669,-104.96792,Shawnee,WY,Wyoming,Converse,268.72249999999997,1016.4975,65.2025,0.0275
1615,82322,42.23771,-107.56103,Bairoil,WY,Wyoming,Sweetwater,268.72249999999997,1016.4975,65.2025,0.0275
1616,82401,43.98603,-108.14599,Worland,WY,Wyoming,Washakie,269.00250000000005,1006.1274999999999,64.66749999999999,0.0075
1617,82430,43.82019,-108.18855,Kirby,WY,Wyoming,Hot Springs,269.00250000000005,1006.1274999999999,64.66749999999999,0.0075
1618,82601,43.09718,-106.38743999999998,Casper,WY,Wyoming,Natrona,268.72249999999997,1016.4975,65.2025,0.0275
1619,82701,43.7037,-104.43779,Newcastle,WY,Wyoming,Weston,268.72249999999997,1016.4975,65.2025,0.0275
1620,82710,44.70768,-104.27047,Aladdin,WY,Wyoming,Crook,269.00250000000005,1006.1274999999999,64.66749999999999,0.0075
1621,82922,43.13997,-110.38958,Bondurant,WY,Wyoming,Sublette,267.6375,1021.4499999999999,79.095,0.02
1622,82930,41.00812,-110.63715,Evanston,WY,Wyoming,Uinta,267.6375,1021.4499999999999,79.095,0.02
1623,83201,42.88941,-112.38464,Pocatello,ID,Idaho,Bannock,267.6375,1021.4499999999999,79.095,0.02
1624,83203,43.04244,-112.49594,Fort Hall,ID,Idaho,Bingham,267.6375,1021.4499999999999,79.095,0.02
1625,83211,42.7067,-113.01386,American Falls,ID,Idaho,Power,267.6375,1021.4499999999999,79.095,0.02
1626,83217,42.77531,-111.93732,Bancroft,ID,Idaho,Caribou,267.6375,1021.4499999999999,79.095,0.02
1627,83220,42.36303,-111.3908,Bern,ID,Idaho,Bear Lake,267.6375,1021.4499999999999,79.095,0.02
1628,83253,44.31889,-113.69032,May,ID,Idaho,Lemhi,268.67499999999995,1022.525,81.3175,0.02
1629,83285,43.09836,-111.28728999999998,Wayan,ID,Idaho,Bonneville,267.6375,1021.4499999999999,79.095,0.02
1630,83301,42.39319,-114.52218,Twin Falls,ID,Idaho,Twin Falls,268.67499999999995,1022.525,81.3175,0.02
1631,83311,42.3896,-113.55677,Albion,ID,Idaho,Cassia,267.6375,1021.4499999999999,79.095,0.02
1632,83314,42.97655,-114.93933,Bliss,ID,Idaho,Gooding,268.67499999999995,1022.525,81.3175,0.02
1633,83322,43.35579,-114.97494,Corral,ID,Idaho,Camas,268.67499999999995,1022.525,81.3175,0.02
1634,83325,42.58782,-114.24207,Eden,ID,Idaho,Jerome,268.67499999999995,1022.525,81.3175,0.02
1635,83336,42.56346,-113.81929,Heyburn,ID,Idaho,Minidoka,268.67499999999995,1022.525,81.3175,0.02
1636,83501,46.20692,-116.8963,Lewiston,ID,Idaho,Nez Perce,269.33000000000004,1020.9850000000001,79.41250000000001,0.035
1637,83522,45.92288,-116.50575,Cottonwood,ID,Idaho,Idaho,269.33000000000004,1020.9850000000001,79.41250000000001,0.035
1638,83535,46.53773,-116.72263,Juliaetta,ID,Idaho,Latah,269.33000000000004,1020.9850000000001,79.41250000000001,0.035
1639,83602,44.07219,-116.11461,Banks,ID,Idaho,Boise,268.67499999999995,1022.525,81.3175,0.02
1640,83604,42.50828,-115.8056,Bruneau,ID,Idaho,Owyhee,268.67499999999995,1022.525,81.3175,0.02
1641,83605,43.66239,-116.65642,Caldwell,ID,Idaho,Canyon,268.67499999999995,1022.525,81.3175,0.02
1642,83616,43.77416,-116.39255,Eagle,ID,Idaho,Ada,268.67499999999995,1022.525,81.3175,0.02
1643,83617,43.92995,-116.50566,Emmett,ID,Idaho,Gem,268.67499999999995,1022.525,81.3175,0.02
1644,83619,43.9673,-116.91218,Fruitland,ID,Idaho,Payette,268.67499999999995,1022.525,81.3175,0.02
1645,83801,47.93827,-116.65887,Athol,ID,Idaho,Kootenai,269.33000000000004,1020.9850000000001,79.41250000000001,0.035
1646,83802,47.08007,-115.52848,Avery,ID,Idaho,Shoshone,269.33000000000004,1020.9850000000001,79.41250000000001,0.035
1647,83804,48.03617,-116.97368,Blanchard,ID,Idaho,Bonner,269.33000000000004,1020.9850000000001,79.41250000000001,0.035
1648,83805,48.84391,-116.49055,Bonners Ferry,ID,Idaho,Boundary,269.33000000000004,1020.9850000000001,79.41250000000001,0.035
1649,83824,47.1136,-116.91012,Desmet,ID,Idaho,Benewah,269.33000000000004,1020.9850000000001,79.41250000000001,0.035
1650,84001,40.3514,-110.27544,Altamont,UT,Utah,Duchesne,267.0225,1020.06,81.6125,0.0225
1651,84003,40.46017,-111.71916,American Fork,UT,Utah,Utah,268.11,1021.6525,82.1625,0.02
1652,84006,40.60131,-112.11715,Bingham Canyon,UT,Utah,Salt Lake,268.1275,1021.44,82.1,0.0175
1653,84022,40.27878,-112.76586,Dugway,UT,Utah,Tooele,268.11,1021.6525,82.1625,0.02
1654,84023,40.845,-109.20404,Dutch John,UT,Utah,Daggett,267.0225,1020.06,81.6125,0.0225
1655,84026,40.28101,-109.83948999999998,Fort Duchesne,UT,Utah,Uintah,267.0225,1020.06,81.6125,0.0225
1656,84028,41.93362,-111.4055,Garden City,UT,Utah,Rich,267.6375,1021.4499999999999,79.095,0.02
1657,84032,40.36183,-111.2011,Heber City,UT,Utah,Wasatch,267.0225,1020.06,81.6125,0.0225
1658,84067,41.17183,-112.04814,Roy,UT,Utah,Weber,267.6375,1021.4499999999999,79.095,0.02
1659,84301,41.6082,-112.13016,Bear River City,UT,Utah,Box Elder,267.6375,1021.4499999999999,79.095,0.02
1660,84304,41.81658,-111.99687,Cache Junction,UT,Utah,Cache,267.6375,1021.4499999999999,79.095,0.02
1661,84513,39.24423,-111.00988,Castle Dale,UT,Utah,Emery,267.0225,1020.06,81.6125,0.0225
1662,84621,39.05132,-111.82568,Axtell,UT,Utah,Sanpete,267.0225,1020.06,81.6125,0.0225
1663,84624,39.40755,-112.83985,Delta,UT,Utah,Millard,267.0225,1020.06,81.6125,0.0225
1664,84628,39.97343,-112.20579,Eureka,UT,Utah,Juab,267.0225,1020.06,81.6125,0.0225
1665,84723,38.17953,-112.25043,Circleville,UT,Utah,Piute,267.0225,1020.06,81.6125,0.0225
1666,85003,33.450759999999995,-112.07836,Phoenix,AZ,Arizona,Maricopa,282.515,1018.25,54.715,0.0175
1667,85118,33.3534,-111.35045,Gold Canyon,AZ,Arizona,Pinal,282.23,1011.2925,53.6375,0.049999999999999996
1668,85135,33.00418,-110.786,Hayden,AZ,Arizona,Gila,281.54499999999996,1016.9949999999999,53.9075,0.04750000000000001
1669,85321,32.22945,-112.65431,Ajo,AZ,Arizona,Pima,282.2,1014.855,52.97,0.049999999999999996
1670,85324,34.11916,-112.04426,Black Canyon City,AZ,Arizona,Yavapai,282.455,1018.11,57.62,0.0175
1671,85325,33.99884,-113.90161,Bouse,AZ,Arizona,La Paz,282.455,1018.11,57.62,0.0175
1672,85360,34.709270000000004,-113.56826,Wikieup,AZ,Arizona,Mohave,282.455,1018.11,57.62,0.0175
1673,85533,33.32098,-109.38563,Clifton,AZ,Arizona,Greenlee,281.54499999999996,1016.9949999999999,53.9075,0.04750000000000001
1674,85602,32.17427,-110.37703,Benson,AZ,Arizona,Cochise,281.54499999999996,1016.9949999999999,53.9075,0.04750000000000001
1675,85611,31.66145,-110.51209,Elgin,AZ,Arizona,Santa Cruz,280.9475,989.31,51.6975,0.05
1676,85901,34.29987,-109.99994,Show Low,AZ,Arizona,Navajo,282.2675,1010.7175000000001,51.54750000000001,0.03
1677,85920,33.8602,-109.17652,Alpine,AZ,Arizona,Apache,281.54499999999996,1016.9949999999999,53.9075,0.04750000000000001
1678,85931,34.45127,-110.86441,Forest Lakes,AZ,Arizona,Coconino,282.335,1017.0225,50.86749999999999,0.04499999999999999
1679,87001,35.38884,-106.3516,Algodones,NM,New Mexico,Sandoval,271.64,1018.61,60.245,0.01
1680,87002,34.60272,-106.6599,Belen,NM,New Mexico,Valencia,271.64,1018.61,60.245,0.01
1681,87005,35.26424,-107.97682,Bluewater,NM,New Mexico,Cibola,271.64,1018.61,60.245,0.01
1682,87006,34.49195,-106.84311,Bosque,NM,New Mexico,Socorro,271.64,1018.61,60.245,0.01
1683,87008,35.145720000000004,-106.3918,Cedar Crest,NM,New Mexico,Bernalillo,271.64,1018.61,60.245,0.01
1684,87010,35.39865,-106.12888,Cerrillos,NM,New Mexico,Santa Fe,271.64,1018.61,60.245,0.01
1685,87012,36.1018,-106.66923,Coyote,NM,New Mexico,Rio Arriba,271.64,1018.61,60.245,0.01
1686,87016,34.77803,-105.92203,Estancia,NM,New Mexico,Torrance,271.64,1018.61,60.245,0.01
1687,87045,35.39241,-108.02154,Prewitt,NM,New Mexico,McKinley,271.64,1018.61,60.245,0.01
1688,87512,36.90902,-105.37427,Amalia,NM,New Mexico,Taos,270.25,999.8575,55.127500000000005,0.0025
1689,87544,35.84233,-106.29079,Los Alamos,NM,New Mexico,Los Alamos,271.64,1018.61,60.245,0.01
1690,87712,35.86843,-105.17042,Buena Vista,NM,New Mexico,Mora,271.64,1018.61,60.245,0.01
1691,87820,33.89521,-108.54735,Aragon,NM,New Mexico,Catron,271.64,1018.61,60.245,0.01
1692,87901,33.19995,-107.14359,Truth Or Consequences,NM,New Mexico,Sierra,277.55499999999995,1018.97,53.805,0.01
1693,87936,32.7532,-107.26365,Garfield,NM,New Mexico,Doa Ana,277.55499999999995,1018.97,53.805,0.01
1694,88029,31.8459,-107.69127,Columbus,NM,New Mexico,Luna,277.55499999999995,1018.97,53.805,0.01
1695,88101,34.4987,-103.2838,Clovis,NM,New Mexico,Curry,273.23,1006.6624999999999,58.205,0.005
1696,88114,33.518440000000005,-103.28904,Crossroads,NM,New Mexico,Lea,275.53999999999996,1006.4775,64.03,0.0175
1697,88119,34.32303,-104.40797,Fort Sumner,NM,New Mexico,De Baca,271.64,1018.61,60.245,0.01
1698,88121,34.71464,-103.98069,House,NM,New Mexico,Quay,273.23,1006.6624999999999,58.205,0.005
1699,88201,33.63974,-104.37492,Roswell,NM,New Mexico,Chaves,275.53999999999996,1006.4775,64.03,0.0175
1700,89003,36.95743,-116.7262,Beatty,NV,Nevada,Nye,278.805,1020.015,45.67,0.005
1701,89010,37.77764000000001,-118.08391,Dyer,NV,Nevada,Esmeralda,280.4675,1020.615,74.815,0.024999999999999998
1702,89301,39.54452,-114.77305,Ely,NV,Nevada,White Pine,268.1275,1021.44,82.1,0.0175
1703,89310,39.41354000000001,-117.16463,Austin,NV,Nevada,Lander,271.375,1017.6325,63.245000000000005,0.0175
1704,89316,39.63087,-116.17716,Eureka,NV,Nevada,Eureka,271.375,1017.6325,63.245000000000005,0.0175
1705,89402,39.22549,-120.00295,Crystal Bay,NV,Nevada,Washoe,271.375,1017.6325,63.245000000000005,0.0175
1706,89406,39.52221,-118.31663,Fallon,NV,Nevada,Churchill,271.375,1017.6325,63.245000000000005,0.0175
1707,89418,40.54841,-118.03436,Imlay,NV,Nevada,Pershing,271.375,1017.6325,63.245000000000005,0.0175
1708,89440,39.29648,-119.65873,Virginia City,NV,Nevada,Storey,271.375,1017.6325,63.245000000000005,0.0175
1709,89701,39.13966,-119.71837,Carson City,NV,Nevada,Carson City,271.375,1017.6325,63.245000000000005,0.0175
1710,89801,41.24905,-115.7589,Elko,NV,Nevada,Elko,268.67499999999995,1022.525,81.3175,0.02
1711,90001,33.97398,-118.24955,Los Angeles,CA,California,Los Angeles,284.34000000000003,1017.885,55.602500000000006,0.015000000000000001
1712,91320,34.17596,-118.94506,Newbury Park,CA,California,Ventura,284.70500000000004,1018.155,57.44,0.0125
1713,91701,34.13762,-117.59998,Rancho Cucamonga,CA,California,San Bernardino,282.90500000000003,1018.2725,48.30500000000001,0.02
1714,91752,33.99576,-117.534,Mira Loma,CA,California,Riverside,283.29999999999995,1018.2225,49.65,0.0175
1715,91901,32.80639,-116.7123,Alpine,CA,California,San Diego,284.655,1019.28,65.18,0.0375
1716,92222,32.78577,-114.54552,Bard,CA,California,Imperial,284.495,1018.9649999999999,37.9475,0.0075
1717,92328,36.529,-116.87036,Death Valley,CA,California,Inyo,278.805,1020.015,45.67,0.005
1718,93013,34.44012,-119.49416,Carpinteria,CA,California,Santa Barbara,285.08,1018.895,58.4075,0.01
1719,93201,35.85875,-119.48758,Alpaugh,CA,California,Tulare,279.685,1018.23,73.42,0.025
1720,93203,35.1119,-118.83079,Arvin,CA,California,Kern,280.2,1020.225,66.68,0.0125
1721,93210,36.19943,-120.4231,Coalinga,CA,California,Fresno,280.4675,1020.615,74.815,0.024999999999999998
1722,93401,35.24175,-120.61711,San Luis Obispo,CA,California,San Luis Obispo,280.2,1020.225,66.68,0.0125
1723,93426,35.84641,-120.94132,Bradley,CA,California,Monterey,282.145,1019.67,71.3375,0.0475
1724,93512,37.89263,-118.56464,Benton,CA,California,Mono,280.4675,1020.615,74.815,0.024999999999999998
1725,93601,37.39375,-119.74444,Ahwahnee,CA,California,Madera,280.4675,1020.615,74.815,0.024999999999999998
1726,93620,37.02486,-120.62881000000002,Dos Palos,CA,California,Merced,280.02750000000003,1020.2625,75.495,0.035
1727,93623,37.49377,-119.64269,Fish Camp,CA,California,Mariposa,280.4675,1020.615,74.815,0.024999999999999998
1728,94002,37.5135,-122.29905,Belmont,CA,California,San Mateo,282.345,1019.6524999999999,70.715,0.10999999999999999
1729,94022,37.35752,-122.14444,Los Altos,CA,California,Santa Clara,281.63,1019.21,73.97,0.0875
1730,94102,37.7797,-122.41924,San Francisco,CA,California,San Francisco,282.2225,1020.27,71.685,0.1225
1731,94501,37.77516,-122.2748,Alameda,CA,California,Alameda,282.1325,1020.51,72.32749999999999,0.1125
1732,94503,38.18419,-122.26293,American Canyon,CA,California,Napa,281.7425,1019.1525000000001,70.48750000000001,0.125
1733,94505,37.86762,-121.58632,Discovery Bay,CA,California,Contra Costa,280.92249999999996,1020.2499999999999,70.345,0.1
1734,94510,38.09404,-122.13197,Benicia,CA,California,Solano,281.7425,1019.1525000000001,70.48750000000001,0.125
1735,94901,37.97999,-122.50281,San Rafael,CA,California,Marin,282.0375,1019.6025,73.3925,0.1125
1736,94922,38.34186,-122.94952,Bodega,CA,California,Sonoma,281.03249999999997,1018.5,79.155,0.0775
1737,95023,36.89993,-121.35126,Hollister,CA,California,San Benito,282.145,1019.67,71.3375,0.0475
1738,95202,37.95945,-121.28754,Stockton,CA,California,San Joaquin,280.23,1020.2149999999999,75.69,0.055
1739,95222,38.06467,-120.62048,Angels Camp,CA,California,Calaveras,280.02750000000003,1020.2625,75.495,0.035
1740,95305,37.80468,-120.27188999999998,Big Oak Flat,CA,California,Tuolumne,280.02750000000003,1020.2625,75.495,0.035
1741,95307,37.55435,-120.95139,Ceres,CA,California,Stanislaus,280.02750000000003,1020.2625,75.495,0.035
1742,95410,39.20801,-123.68668999999998,Albion,CA,California,Mendocino,281.03249999999997,1018.5,79.155,0.0775
1743,95531,41.79625,-124.00515,Crescent City,CA,California,Del Norte,276.025,1019.8875,85.45249999999999,0.057499999999999996
1744,95568,41.45328,-123.46342,Somes Bar,CA,California,Siskiyou,276.025,1019.8875,85.45249999999999,0.057499999999999996
1745,95601,38.42592,-120.82501,Amador City,CA,California,Amador,280.0625,1020.4075,75.7475,0.08249999999999999
1746,95602,38.99059000000001,-121.11038,Auburn,CA,California,Placer,280.0375,1020.4000000000001,73.5425,0.07
1747,95605,38.59294000000001,-121.5391,West Sacramento,CA,California,Yolo,280.08,1020.45,75.0025,0.0775
1748,95608,38.62583,-121.32829,Carmichael,CA,California,Sacramento,280.0375,1020.4000000000001,73.5425,0.07
1749,95614,38.88376,-120.98287,Cool,CA,California,El Dorado,280.0375,1020.4000000000001,73.5425,0.07
1750,95646,38.69154,-120.06181,Kirkwood,CA,California,Alpine,271.375,1017.6325,63.245000000000005,0.0175
1751,95659,38.83993,-121.57134,Nicolaus,CA,California,Sutter,280.0375,1020.4000000000001,73.5425,0.07
1752,95692,39.04589,-121.40381,Wheatland,CA,California,Yuba,280.0375,1020.4000000000001,73.5425,0.07
1753,95912,39.01635,-122.06195,Arbuckle,CA,California,Colusa,280.08,1020.45,75.0025,0.0775
1754,95915,39.97548,-121.20866,Belden,CA,California,Plumas,271.375,1017.6325,63.245000000000005,0.0175
1755,95920,39.46072,-121.93702,Butte City,CA,California,Glenn,280.0375,1020.4000000000001,73.5425,0.07
1756,96001,40.59648,-122.46004,Redding,CA,California,Shasta,280.0375,1020.4000000000001,73.5425,0.07
1757,96006,41.17425,-120.85292,Adin,CA,California,Modoc,271.375,1017.6325,63.245000000000005,0.0175
1758,96009,41.06347,-121.04102,Bieber,CA,California,Lassen,271.375,1017.6325,63.245000000000005,0.0175
1759,96021,39.92648,-122.26527,Corning,CA,California,Tehama,280.0375,1020.4000000000001,73.5425,0.07
1760,97001,44.92441,-120.65,Antelope,OR,Oregon,Wasco,276.0775,1020.8975,74.8725,0.135
1761,97004,45.25113,-122.46006,Beavercreek,OR,Oregon,Clackamas,276.0775,1020.8975,74.8725,0.135
1762,97014,45.58407,-122.01834,Cascade Locks,OR,Oregon,Hood River,276.0775,1020.8975,74.8725,0.135
1763,97019,45.51019,-122.21108,Corbett,OR,Oregon,Multnomah,276.0775,1020.8975,74.8725,0.135
1764,97101,45.09043,-123.21732,Amity,OR,Oregon,Yamhill,276.12249999999995,1019.4575,78.35749999999999,0.105
1765,97102,45.79203,-123.95464,Arch Cape,OR,Oregon,Clatsop,276.21999999999997,1020.7850000000001,74.96000000000001,0.14
1766,97107,45.55435,-123.88077,Bay City,OR,Oregon,Tillamook,276.21999999999997,1020.7575,76.705,0.14
1767,97497,42.66677,-123.39219,Wolf Creek,OR,Oregon,Josephine,276.025,1019.8875,85.45249999999999,0.057499999999999996
1768,97601,42.44883,-122.07473,Klamath Falls,OR,Oregon,Klamath,276.025,1019.8875,85.45249999999999,0.057499999999999996
1769,97701,44.01483,-121.33105,Bend,OR,Oregon,Deschutes,276.025,1019.8875,85.45249999999999,0.057499999999999996
1770,97710,42.18621,-118.47568,Fields,OR,Oregon,Harney,268.67499999999995,1022.525,81.3175,0.02
1771,97801,45.66821,-118.81573,Pendleton,OR,Oregon,Umatilla,269.095,1001.7425,80.53,0.065
1772,97812,45.55943,-120.21621,Arlington,OR,Oregon,Gilliam,276.0775,1020.8975,74.8725,0.135
1773,97828,45.7068,-117.2286,Enterprise,OR,Oregon,Wallowa,269.33000000000004,1020.9850000000001,79.41250000000001,0.035
1774,97901,43.62894,-117.09006,Adrian,OR,Oregon,Malheur,268.67499999999995,1022.525,81.3175,0.02
1775,98012,47.84156,-122.19911,Bothell,WA,Washington,Snohomish,276.36,1019.435,81.0675,0.1475
1776,98068,47.44072,-121.34967,Snoqualmie Pass,WA,Washington,Kittitas,269.095,1001.7425,80.53,0.065
1777,98110,47.64469,-122.54353,Bainbridge Island,WA,Washington,Kitsap,276.4775,1019.8925,81.3675,0.16999999999999998
1778,98220,48.68497,-122.19692,Acme,WA,Washington,Whatcom,275.2175,1018.5325,80.52749999999999,0.14500000000000002
1779,98221,48.50321,-122.65492,Anacortes,WA,Washington,Skagit,276.80249999999995,1018.28,84.1975,0.1475
1780,98236,47.95814,-122.40474,Clinton,WA,Washington,Island,276.36,1019.435,81.0675,0.1475
1781,98305,48.06029,-124.43012,Beaver,WA,Washington,Clallam,276.80249999999995,1018.28,84.1975,0.1475
1782,98520,47.04349000000001,-123.80637,Aberdeen,WA,Washington,Grays Harbor,276.345,1019.4475,87.015,0.16
1783,98527,46.58626,-123.89747,Bay Center,WA,Washington,Pacific,276.345,1019.4475,87.015,0.16
1784,98581,46.35777,-123.06723,Ryderwood,WA,Washington,Cowlitz,276.21999999999997,1020.7850000000001,74.96000000000001,0.14
1785,98602,45.86716,-121.26554,Appleton,WA,Washington,Klickitat,276.0775,1020.8975,74.8725,0.135
1786,98610,45.86735,-122.0707,Carson,WA,Washington,Skamania,276.0775,1020.8975,74.8725,0.135
1787,98612,46.21778,-123.32552,Cathlamet,WA,Washington,Wahkiakum,276.21999999999997,1020.7850000000001,74.96000000000001,0.14
1788,98801,47.42334,-120.33781,Wenatchee,WA,Washington,Chelan,269.095,1001.7425,80.53,0.065
1789,98812,48.1445,-119.75284,Brewster,WA,Washington,Okanogan,269.095,1001.7425,80.53,0.065
1790,98901,46.69319,-120.41528,Yakima,WA,Washington,Yakima,269.095,1001.7425,80.53,0.065
1791,99001,47.63652,-117.58632,Airway Heights,WA,Washington,Spokane,269.33000000000004,1020.9850000000001,79.41250000000001,0.035
1792,99017,47.18881,-117.8756,Lamont,WA,Washington,Whitman,269.33000000000004,1020.9850000000001,79.41250000000001,0.035
1793,99118,48.89659,-118.639,Curlew,WA,Washington,Ferry,268.86750000000006,1008.4449999999999,83.86,0.030000000000000002
1794,99119,48.5039,-117.28854,Cusick,WA,Washington,Pend Oreille,269.33000000000004,1020.9850000000001,79.41250000000001,0.035
1795,99323,46.19237,-118.84285,Burbank,WA,Washington,Walla Walla,269.095,1001.7425,80.53,0.065
1796,99401,46.08744,-117.25143,Anatone,WA,Washington,Asotin,269.33000000000004,1020.9850000000001,79.41250000000001,0.035
